{
"type": "FeatureCollection",
"name": "builEshaan",
"crs": { "type": "name", "properties": { "name": "urn:ogc:def:crs:OGC:1.3:CRS84" } },
"features": [
{ "type": "Feature", "properties": { "id": null, "name": "Indoor Stadium", "type": "sports", "department": null, "floor": "3" }, "geometry": { "type": "Polygon", "coordinates": [ [ [ 74.8366841703604, 34.135600799896409 ], [ 74.836302923618419, 34.135584407041023 ], [ 74.836293021105632, 34.135695058753022 ], [ 74.836317777387592, 34.135711451586914 ], [ 74.836307874874791, 34.135949147321114 ], [ 74.836297972362033, 34.136203235125265 ], [ 74.836253411054528, 34.1362073333094 ], [ 74.836253411054528, 34.136248315139767 ], [ 74.836649511565668, 34.136264707866346 ], [ 74.8366841703604, 34.135600799896409 ] ] ] } },
{ "type": "Feature", "properties": { "id": null, "name": "12 SET Residential Building", "type": "hostel", "department": null, "floor": "3" }, "geometry": { "type": "Polygon", "coordinates": [ [ [ 74.833873738714004, 34.128956781096164 ], [ 74.83392046713854, 34.128958623034713 ], [ 74.833969420726135, 34.128963227880881 ], [ 74.834047301433685, 34.128967832726808 ], [ 74.834057314667504, 34.128905206800731 ], [ 74.833996122683018, 34.128901522921275 ], [ 74.834003910753765, 34.128845343739776 ], [ 74.834057314667504, 34.128845343739776 ], [ 74.834057314667504, 34.128805741999237 ], [ 74.834072890809011, 34.128775349953209 ], [ 74.834020599476801, 34.128763377326024 ], [ 74.834013923987598, 34.128729301377817 ], [ 74.834025049802946, 34.128688778610709 ], [ 74.834074003390555, 34.128688778610709 ], [ 74.834081791461287, 34.128644571933542 ], [ 74.834036175618309, 34.128642729988158 ], [ 74.833971645889221, 34.128635362206218 ], [ 74.833918241975468, 34.128628915396504 ], [ 74.833873738714004, 34.128956781096164 ] ] ] } },
{ "type": "Feature", "properties": { "id": null, "name": "New Prof Quarter 1", "type": "hostel", "department": null, "floor": "2" }, "geometry": { "type": "Polygon", "coordinates": [ [ [ 74.83372402653832, 34.129531335530309 ], [ 74.833778301260807, 34.129535419807972 ], [ 74.83378076829365, 34.129519082696099 ], [ 74.833923856198396, 34.129525209113439 ], [ 74.833931257296925, 34.129545630501291 ], [ 74.833995400150769, 34.129551756916676 ], [ 74.833995400150769, 34.129504787720634 ], [ 74.833980597953712, 34.129490492742747 ], [ 74.833978130920883, 34.129449649935466 ], [ 74.833775834227964, 34.129419017817035 ], [ 74.833756097965235, 34.129461902779717 ], [ 74.833719092472634, 34.129476197762443 ], [ 74.83372402653832, 34.129531335530309 ] ] ] } },
{ "type": "Feature", "properties": { "id": null, "name": "New Prof Quarter 2", "type": "hostel", "department": null, "floor": "2" }, "geometry": { "type": "Polygon", "coordinates": [ [ [ 74.834042273774756, 34.129551756916676 ], [ 74.834096548497257, 34.129557883331636 ], [ 74.834103949595772, 34.129533377669162 ], [ 74.834247037500504, 34.129547672639802 ], [ 74.834251971566204, 34.12956809402224 ], [ 74.834308713321548, 34.129572178298133 ], [ 74.834316114420048, 34.129527251252426 ], [ 74.834288977058819, 34.129517040556905 ], [ 74.834291444091662, 34.129474155622198 ], [ 74.834096548497257, 34.12944556565364 ], [ 74.8340817463002, 34.129484366322906 ], [ 74.834047207840428, 34.129496619162133 ], [ 74.834042273774756, 34.129551756916676 ] ] ] } },
{ "type": "Feature", "properties": { "id": null, "name": "New Prof Quarter 3", "type": "hostel", "department": null, "floor": "2" }, "geometry": { "type": "Polygon", "coordinates": [ [ [ 74.834355586945506, 34.129574220436005 ], [ 74.834417262766522, 34.129580346849316 ], [ 74.834417262766522, 34.129557883331636 ], [ 74.834565284736954, 34.12956809402224 ], [ 74.834565284736954, 34.129592599674638 ], [ 74.834602290229569, 34.129596683949337 ], [ 74.834602290229569, 34.12948845060285 ], [ 74.834412328700822, 34.129470071341572 ], [ 74.834387658372435, 34.129484366322906 ], [ 74.834355586945506, 34.129574220436005 ] ] ] } },
{ "type": "Feature", "properties": { "id": null, "name": "New Prof Quarter 4", "type": "hostel", "department": null, "floor": "3" }, "geometry": { "type": "Polygon", "coordinates": [ [ [ 74.834626739979072, 34.129559756727247 ], [ 74.834676280882206, 34.129569220231808 ], [ 74.834702956753134, 34.129594456238806 ], [ 74.834821092752918, 34.129610228739324 ], [ 74.83482871443033, 34.129600765239367 ], [ 74.834840146946433, 34.129592878988575 ], [ 74.834851579462551, 34.129573951983687 ], [ 74.834910647462451, 34.129570797482472 ], [ 74.834925890817246, 34.129439885577781 ], [ 74.834815376494873, 34.129433576565205 ], [ 74.834815376494873, 34.129454080854359 ], [ 74.834794416881991, 34.129455658107162 ], [ 74.834782984365887, 34.129499821173773 ], [ 74.834735348882091, 34.129495089417738 ], [ 74.834735348882091, 34.129433576565205 ], [ 74.834628645398425, 34.129428844805481 ], [ 74.834626739979072, 34.129559756727247 ] ] ] } },
{ "type": "Feature", "properties": { "id": null, "name": "New Prof Quarter 5", "type": "hostel", "department": null, "floor": "2" }, "geometry": { "type": "Polygon", "coordinates": [ [ [ 74.833971275722163, 34.129239574198664 ], [ 74.834169439334715, 34.129256924021931 ], [ 74.834163723076657, 34.129178061160211 ], [ 74.834182777270172, 34.129138629701757 ], [ 74.833965559464104, 34.129122857113224 ], [ 74.833971275722163, 34.129239574198664 ] ] ] } },
{ "type": "Feature", "properties": { "id": null, "name": "New Prof  Quarter 6", "type": "hostel", "department": null, "floor": "2" }, "geometry": { "type": "Polygon", "coordinates": [ [ [ 74.834306629528029, 34.129261655791296 ], [ 74.834491455205125, 34.12927742835393 ], [ 74.834508603979287, 34.129174906644216 ], [ 74.834302818689324, 34.129143361477738 ], [ 74.834306629528029, 34.129261655791296 ] ] ] } },
{ "type": "Feature", "properties": { "id": null, "name": "New Prof Quarter 7", "type": "hostel", "department": null, "floor": "2" }, "geometry": { "type": "Polygon", "coordinates": [ [ [ 74.83463817249519, 34.129286891890104 ], [ 74.834830619849697, 34.129299509936665 ], [ 74.834838241527095, 34.129170174869991 ], [ 74.834636267075837, 34.129162288579039 ], [ 74.83463817249519, 34.129286891890104 ] ] ] } },
{ "type": "Feature", "properties": { "id": null, "name": "Teacher Quarter 1", "type": "hostel", "department": null, "floor": "2" }, "geometry": { "type": "Polygon", "coordinates": [ [ [ 74.833441569142437, 34.129457235359943 ], [ 74.833548272626118, 34.129471430633608 ], [ 74.833578759335737, 34.129266387560399 ], [ 74.833475866690776, 34.129258501278429 ], [ 74.833464434174644, 34.129302664448026 ], [ 74.83340346075542, 34.129307396214841 ], [ 74.833386311981243, 34.129395722479877 ], [ 74.83344347456179, 34.129409917763873 ], [ 74.833441569142437, 34.129457235359943 ] ] ] } },
{ "type": "Feature", "properties": { "id": null, "name": "Teacher Quarter 2", "type": "hostel", "department": null, "floor": "2" }, "geometry": { "type": "Polygon", "coordinates": [ [ [ 74.833483488368174, 34.129135475184292 ], [ 74.833588286432501, 34.129143361477738 ], [ 74.833616867722768, 34.128947781182902 ], [ 74.83351206965844, 34.128935163083817 ], [ 74.833500637142336, 34.12899036725338 ], [ 74.833447285400496, 34.128988789991887 ], [ 74.833433947465039, 34.129072384810151 ], [ 74.833481582948821, 34.129086580148432 ], [ 74.833483488368174, 34.129135475184292 ] ] ] } },
{ "type": "Feature", "properties": { "id": null, "name": "Teacher Quarter 3", "type": "hostel", "department": null, "floor": "2" }, "geometry": { "type": "Polygon", "coordinates": [ [ [ 74.833536840110014, 34.128805827459679 ], [ 74.83363782733565, 34.128816868313372 ], [ 74.833674030303314, 34.128618132726366 ], [ 74.833574948497045, 34.128603937309421 ], [ 74.833561610561574, 34.128662296230523 ], [ 74.833504447981028, 34.128662296230523 ], [ 74.833489204626233, 34.12874746863767 ], [ 74.833544461787426, 34.128756932233159 ], [ 74.833536840110014, 34.128805827459679 ] ] ] } },
{ "type": "Feature", "properties": { "id": null, "name": "Teacher Quarter 4", "type": "hostel", "department": null, "floor": "2" }, "geometry": { "type": "Polygon", "coordinates": [ [ [ 74.833597813529252, 34.128477755720645 ], [ 74.833696895335535, 34.12849510570026 ], [ 74.833729287464493, 34.128294792082364 ], [ 74.833628300238871, 34.128283751160502 ], [ 74.833616867722768, 34.128349996670131 ], [ 74.833607340626017, 34.12833737848181 ], [ 74.833563515980927, 34.128334223934438 ], [ 74.833542556368073, 34.128422551216325 ], [ 74.833588286432501, 34.128427283032401 ], [ 74.833597813529252, 34.128477755720645 ] ] ] } },
{ "type": "Feature", "properties": { "id": null, "name": "Teacher Quarter 5", "type": "hostel", "department": null, "floor": "2" }, "geometry": { "type": "Polygon", "coordinates": [ [ [ 74.833647354432387, 34.128159146370798 ], [ 74.833746436238684, 34.128167032755343 ], [ 74.833778828367656, 34.127971450201635 ], [ 74.833694989916182, 34.127955677395335 ], [ 74.833672124883975, 34.128006150365152 ], [ 74.833614962303443, 34.128004573085299 ], [ 74.833599718948605, 34.12808028248493 ], [ 74.833641638174342, 34.128094477989819 ], [ 74.833647354432387, 34.128159146370798 ] ] ] } },
{ "type": "Feature", "properties": { "id": null, "name": "NT Quarters 1", "type": "hostel", "department": null, "floor": "1" }, "geometry": { "type": "Polygon", "coordinates": [ [ [ 74.833172210108884, 34.129746274646358 ], [ 74.833376641273247, 34.129766077196535 ], [ 74.83337881607288, 34.129717470928703 ], [ 74.833389690070987, 34.129674265333833 ], [ 74.833183084107006, 34.129645461591643 ], [ 74.833172210108884, 34.129746274646358 ] ] ] } },
{ "type": "Feature", "properties": { "id": null, "name": "NT Quarter 2", "type": "hostel", "department": null, "floor": "1" }, "geometry": { "type": "Polygon", "coordinates": [ [ [ 74.833441885261877, 34.12976247673322 ], [ 74.833657190424361, 34.129789480204437 ], [ 74.833663714823217, 34.129706669532048 ], [ 74.833448409660747, 34.129681466267847 ], [ 74.833441885261877, 34.12976247673322 ] ] ] } },
{ "type": "Feature", "properties": { "id": null, "name": "Prof Quarter 1", "type": "hostel", "department": null, "floor": "1" }, "geometry": { "type": "Polygon", "coordinates": [ [ [ 74.833373925152216, 34.128642246127377 ], [ 74.833287964438085, 34.128633351557255 ], [ 74.833301395799694, 34.128531063933814 ], [ 74.833390042786121, 34.128539958514672 ], [ 74.833384670241486, 34.128577760472908 ], [ 74.833408846692336, 34.128577760472908 ], [ 74.833408846692336, 34.128617786057333 ], [ 74.833381983969161, 34.128615562414254 ], [ 74.833373925152216, 34.128642246127377 ] ] ] } },
{ "type": "Feature", "properties": { "id": null, "name": "Prof Quarter 2", "type": "hostel", "department": null, "floor": "1" }, "geometry": { "type": "Polygon", "coordinates": [ [ [ 74.833314827161274, 34.128459907253188 ], [ 74.833395415330756, 34.128479920075662 ], [ 74.833403474147701, 34.128448789016431 ], [ 74.833427650598537, 34.128448789016431 ], [ 74.833430336870848, 34.128417657945725 ], [ 74.833414219236957, 34.128404316054777 ], [ 74.833419591781592, 34.128350948469901 ], [ 74.83332557225053, 34.128350948469901 ], [ 74.833314827161274, 34.128459907253188 ] ] ] } },
{ "type": "Feature", "properties": { "id": null, "name": "Prof Quarter 3", "type": "hostel", "department": null, "floor": "1" }, "geometry": { "type": "Polygon", "coordinates": [ [ [ 74.83333900361211, 34.128290909896648 ], [ 74.833427650598537, 34.128299804502781 ], [ 74.833433023143172, 34.12827089702941 ], [ 74.833451827049387, 34.128273120681563 ], [ 74.833451827049387, 34.128235318587102 ], [ 74.833441081960132, 34.128235318587102 ], [ 74.833441081960132, 34.12819751647573 ], [ 74.833344376156745, 34.128195292821594 ], [ 74.83333900361211, 34.128290909896648 ] ] ] } },
{ "type": "Feature", "properties": { "id": null, "name": "Prof Quarter 4", "type": "hostel", "department": null, "floor": "1" }, "geometry": { "type": "Polygon", "coordinates": [ [ [ 74.83336049379065, 34.128126359514354 ], [ 74.833449140777077, 34.128139701449165 ], [ 74.833457199594037, 34.128106346608156 ], [ 74.833476003500223, 34.128106346608156 ], [ 74.833481376044872, 34.128068544439117 ], [ 74.833467944683278, 34.128066320781585 ], [ 74.833473317227927, 34.128021847618719 ], [ 74.833371238879906, 34.128015176642279 ], [ 74.83336049379065, 34.128126359514354 ] ] ] } },
{ "type": "Feature", "properties": { "id": null, "name": "Prof Quarter 5", "type": "hostel", "department": null, "floor": "1" }, "geometry": { "type": "Polygon", "coordinates": [ [ [ 74.833371238879906, 34.127981821752137 ], [ 74.833476003500223, 34.127988492731212 ], [ 74.833500179951102, 34.127819494432266 ], [ 74.833403474147701, 34.127799481453437 ], [ 74.833371238879906, 34.127981821752137 ] ] ] } },
{ "type": "Feature", "properties": { "id": null, "name": "NT Quarter", "type": "hostel", "department": null, "floor": "1" }, "geometry": { "type": "Polygon", "coordinates": [ [ [ 74.833576359705731, 34.127618337896976 ], [ 74.833520507435509, 34.127613091491099 ], [ 74.833514565704633, 34.127627847006792 ], [ 74.833470993011602, 34.127627519106476 ], [ 74.833465447396108, 34.127600959176256 ], [ 74.833470026180137, 34.127516194861073 ], [ 74.833586160792535, 34.127528254829805 ], [ 74.833576359705731, 34.127618337896976 ] ] ] } }
]
}
