{
"type": "FeatureCollection",
"name": "comute",
"crs": { "type": "name", "properties": { "name": "urn:ogc:def:crs:OGC:1.3:CRS84" } },
"features": [
{ "type": "Feature", "properties": { "id": null, "name": "Computer Science", "type": "academic", "department": "", "floor": "2" }, "geometry": { "type": "Polygon", "coordinates": [ [ [ 74.833528951144388, 34.133604865943852 ], [ 74.833541615852923, 34.13331920435057 ], [ 74.833408636413253, 34.133298238324052 ], [ 74.83338647317332, 34.133303479831163 ], [ 74.833364309933387, 34.133298238324052 ], [ 74.833259826087954, 34.133298238324052 ], [ 74.833247161379404, 34.133604865943852 ], [ 74.833528951144388, 34.133604865943852 ] ] ] } },
{ "type": "Feature", "properties": { "id": null, "name": "Indoor Stadium", "type": "sports", "department": null, "floor": "3" }, "geometry": { "type": "Polygon", "coordinates": [ [ [ 74.8366841703604, 34.135600799896409 ], [ 74.836302923618419, 34.135584407041023 ], [ 74.836293021105632, 34.135695058753022 ], [ 74.836317777387592, 34.135711451586914 ], [ 74.836307874874791, 34.135949147321114 ], [ 74.836297972362033, 34.136203235125265 ], [ 74.836253411054528, 34.1362073333094 ], [ 74.836253411054528, 34.136248315139767 ], [ 74.836649511565668, 34.136264707866346 ], [ 74.8366841703604, 34.135600799896409 ] ] ] } }
]
}
