{
"type": "FeatureCollection",
"name": "buildings",
"crs": { "type": "name", "properties": { "name": "urn:ogc:def:crs:OGC:1.3:CRS84" } },
"features": [
{ "type": "Feature", "properties": { "fid": 1, "building_name": "Teachers Hostel", "departments": null, "type": "hostel", "floor": 2 }, "geometry": { "type": "Polygon", "coordinates": [ [ [ 74.836049803814149, 34.128134369988857 ], [ 74.836156621413281, 34.128139696615193 ], [ 74.836183647552815, 34.12781477179481 ], [ 74.836080690830784, 34.127805183830318 ], [ 74.836074256035658, 34.127861646272216 ], [ 74.836061386445408, 34.127859515614709 ], [ 74.836053664691249, 34.127882952844253 ], [ 74.836056238609288, 34.12790745539548 ], [ 74.836067821240505, 34.127913847364184 ], [ 74.836057525568307, 34.128023576085077 ], [ 74.836045942937091, 34.128023576085077 ], [ 74.836038221182932, 34.128050209248286 ], [ 74.836044655978071, 34.128067254468327 ], [ 74.83605237773223, 34.128070450446707 ], [ 74.836049803814149, 34.128134369988857 ] ] ] } },
{ "type": "Feature", "properties": { "fid": 2, "building_name": "Rabia Basri Girls Hostel", "departments": null, "type": "hostel", "floor": 3,"image":"rabia.png"}, "geometry": { "type": "Polygon", "coordinates": [ [ [ 74.834606031308084, 34.128089311676284 ], [ 74.834841589996032, 34.128114780020319 ], [ 74.834851204636365, 34.128047129714609 ], [ 74.834890624661682, 34.128047129714609 ], [ 74.834946389575563, 34.127743100613593 ], [ 74.834659873293887, 34.127712856821219 ], [ 74.834606031308084, 34.128089311676284 ] ] ] } },
{ "type": "Feature", "properties": { "fid": 3, "building_name": "Habba Khatoon Girls Hostel", "departments": null, "type": "hostel", "floor": 3,"image":"habbaKhatoon.png"}, "geometry": { "type": "Polygon", "coordinates": [ [ [ 74.83461077323723, 34.128039978778268 ], [ 74.834207704918782, 34.127989794993105 ], [ 74.834279918259966, 34.127666816230729 ], [ 74.834666281360924, 34.127713089107687 ], [ 74.83461077323723, 34.128039978778268 ] ] ] } },
{ "type": "Feature", "properties": { "fid": 4, "building_name": "Qurat ul Ain Girls Hostel", "departments": null, "type": "hostel", "floor": 3,"image":"qurat.png"}, "geometry": { "type": "Polygon", "coordinates": [ [ [ 74.833925238434432, 34.128502225616089 ], [ 74.833997136204047, 34.12850966506975 ], [ 74.833996012801421, 34.128531983426818 ], [ 74.834060046752484, 34.128536633083804 ], [ 74.834115093482382, 34.128058647007933 ], [ 74.834025221270309, 34.128040048273299 ], [ 74.833978038358993, 34.128067016437171 ], [ 74.833956693708657, 34.12807910561127 ], [ 74.833925238434432, 34.128502225616089 ] ] ] } },
{ "type": "Feature", "properties": { "fid": 5, "building_name": "Bi Bi Aamina Girls Hostel", "departments": null, "type": "hostel", "floor": 3 ,"image":"bibi.png"}, "geometry": { "type": "Polygon", "coordinates": [ [ [ 74.83432860571709, 34.128559828583072 ], [ 74.834873446092402, 34.128573400593638 ], [ 74.83486966247871, 34.12848988049403 ], [ 74.834870923683283, 34.128439768394642 ], [ 74.834326083307928, 34.12841888834447 ], [ 74.834317254875941, 34.128475264468094 ], [ 74.83432860571709, 34.128559828583072 ] ] ] } },
{ "type": "Feature", "properties": { "fid": 6, "building_name": "Health Care", "departments": null, "type": "emergency", "floor": 1 }, "geometry": { "type": "Polygon", "coordinates": [ [ [ 74.835138684868397, 34.129109476528676 ], [ 74.835240473237889, 34.129205965367596 ], [ 74.835365246077927, 34.129123066512655 ], [ 74.835370171321628, 34.129108117530166 ], [ 74.835462109203746, 34.12910675853162 ], [ 74.835463750951632, 34.129036090577451 ], [ 74.835478526682692, 34.128962704562518 ], [ 74.835386588800546, 34.128959986560744 ], [ 74.835260174212635, 34.128862138438578 ], [ 74.835156744095258, 34.128949114552768 ], [ 74.83520599653211, 34.128998038577663 ], [ 74.835207638279996, 34.129025218579258 ], [ 74.835209280027897, 34.129052398572121 ], [ 74.835138684868397, 34.129109476528676 ] ] ] } },
{ "type": "Feature", "properties": { "fid": 7, "building_name": "Doctor Quarters", "departments": null, "type": "hostel", "floor": 2 }, "geometry": { "type": "Polygon", "coordinates": [ [ [ 74.835210966882784, 34.128726525691782 ], [ 74.8353453871255, 34.128732382021745 ], [ 74.835352461875118, 34.128632824357233 ], [ 74.835221579007225, 34.128615255345437 ], [ 74.835210966882784, 34.128726525691782 ] ] ] } },
{ "type": "Feature", "properties": { "fid": 8, "building_name": "University Masjid", "departments": null, "type": "religious", "floor": 2 ,"image":"masjid.png"}, "geometry": { "type": "Polygon", "coordinates": [ [ [ 74.835354179243041, 34.13017334160542 ], [ 74.835440923271221, 34.12992975412687 ], [ 74.835593548839768, 34.129967928330331 ], [ 74.835608921199182, 34.129940661043911 ], [ 74.835674802739561, 34.129953385778663 ], [ 74.835562804120926, 34.130268776806751 ], [ 74.835418962757743, 34.13023605617844 ], [ 74.83543213906583, 34.130199699909888 ], [ 74.835354179243041, 34.13017334160542 ] ] ] } },
{ "type": "Feature", "properties": { "fid": 9, "building_name": "Center for Interdisciplinary Research and Innovation (CIRI)", "departments": "Nanotechnology Research Lab", "type": "academic", "floor": 2, "image":"ciri.png" }, "geometry": { "type": "Polygon", "coordinates": [ [ [ 74.834628621159553, 34.130155513291108 ], [ 74.834872852485532, 34.130183347760557 ], [ 74.834874622277752, 34.130088124537643 ], [ 74.834867543108899, 34.130038315424478 ], [ 74.834894089992133, 34.129972391553075 ], [ 74.834913557706557, 34.129900607723556 ], [ 74.834651628458374, 34.129874238138193 ], [ 74.834633930536199, 34.129951881893724 ], [ 74.8346215419907, 34.130007550957551 ], [ 74.834625081575126, 34.13006468495864 ], [ 74.834628621159553, 34.130155513291108 ] ] ] } },
{ "type": "Feature", "properties": { "fid": 10, "building_name": "Department of Botany and Zoology", "departments": "Botany;  Zoology", "type": "academic", "floor": 2 ,"image":"zoology.png"}, "geometry": { "type": "Polygon", "coordinates": [ [ [ 74.833858761545017, 34.130718060789057 ], [ 74.834368461703619, 34.130740035224733 ], [ 74.834368461703619, 34.130756149807233 ], [ 74.834501196119888, 34.130767869501682 ], [ 74.83451181487321, 34.130748824997397 ], [ 74.835003817109609, 34.130770799425051 ], [ 74.834991428564109, 34.130688761532632 ], [ 74.835012666070696, 34.13061844327575 ], [ 74.834497656535461, 34.130589143984793 ], [ 74.834517124249871, 34.130375258853086 ], [ 74.834683484718298, 34.130379653758489 ], [ 74.834678175341637, 34.130310800214112 ], [ 74.83469056388715, 34.130247806496719 ], [ 74.834235727287307, 34.130224366961983 ], [ 74.834232187702852, 34.130274175965518 ], [ 74.834237497079513, 34.130347424446825 ], [ 74.834410936716822, 34.130354749291463 ], [ 74.834395008586853, 34.130583284125372 ], [ 74.833869380298324, 34.130567169509895 ], [ 74.833858761545017, 34.130633092917421 ], [ 74.833858761545017, 34.130718060789057 ] ] ] } },
{ "type": "Feature", "properties": { "fid": 11, "building_name": "Directorate of Information Technology & Support System", "departments": null, "type": "Administrative", "floor": 3,"image":"infoTech.png"}, "geometry": { "type": "Polygon", "coordinates": [ [ [ 74.835124162980392, 34.130984683555909 ], [ 74.835476351631655, 34.131016912624602 ], [ 74.835504668307124, 34.13076933446338 ], [ 74.835432106826218, 34.130760544692862 ], [ 74.835432106826218, 34.130650672484087 ], [ 74.835313530747655, 34.130643347665092 ], [ 74.835226810929015, 34.13064481262893 ], [ 74.835210882799046, 34.130745895073261 ], [ 74.835140091110361, 34.130742965149047 ], [ 74.835136551525935, 34.130797168730716 ], [ 74.835137754189176, 34.130812989953412 ], [ 74.83512858094231, 34.130864623935587 ], [ 74.835125932772598, 34.130949524557877 ], [ 74.835125932772598, 34.130949524557877 ], [ 74.835124162980392, 34.130984683555909 ] ] ] } },
{ "type": "Feature", "properties": { "fid": 12, "building_name": "Office Of The Internal Complaints Committee", "departments": null, "type": "Administrative", "floor": 1 ,"image":"itSection.png"}, "geometry": { "type": "Polygon", "coordinates": [ [ [ 74.836898675374414, 34.1308427558006 ], [ 74.837036716748713, 34.130847583895239 ], [ 74.837122263515866, 34.130773553080502 ], [ 74.837065880419345, 34.130648022420395 ], [ 74.837085322866429, 34.130615835041603 ], [ 74.837040605238116, 34.130577210170905 ], [ 74.836900619619129, 34.130562725839837 ], [ 74.836846180767296, 34.130614225672353 ], [ 74.836869511703782, 34.130639975576848 ], [ 74.836811184362531, 34.130704350303759 ], [ 74.836805351628428, 34.130763896882492 ], [ 74.836898675374414, 34.1308427558006 ] ] ] } },
{ "type": "Feature", "properties": { "fid": 13, "building_name": "Department of Persian", "departments": "Persian", "type": "academic", "floor": 2, "image":"persian.png"}, "geometry": { "type": "Polygon", "coordinates": [ [ [ 74.833861619152032, 34.131654066810498 ], [ 74.833844612230706, 34.131814198075311 ], [ 74.833746822433184, 34.131819477122832 ], [ 74.833721312051225, 34.131965530640159 ], [ 74.833608641197557, 34.131956732242649 ], [ 74.833627773984006, 34.131798360930773 ], [ 74.83361289292786, 34.131798360930773 ], [ 74.833606515332391, 34.131683981465436 ], [ 74.83372343791639, 34.131680462094813 ], [ 74.833734067242204, 34.131636469949726 ], [ 74.833861619152032, 34.131654066810498 ] ] ] } },
{ "type": "Feature", "properties": { "fid": 14, "building_name": "Department of Sanskrit", "departments": "Sanskrit", "type": "academic", "floor": 2,"image":"persian.png"}, "geometry": { "type": "Polygon", "coordinates": [ [ [ 74.8333599149734, 34.132166133854987 ], [ 74.833474711692233, 34.132174932230711 ], [ 74.833487466883213, 34.132046475854317 ], [ 74.833583130815569, 34.132048235532011 ], [ 74.83358950841108, 34.132018321006008 ], [ 74.833717060320893, 34.132025359718973 ], [ 74.833719186186045, 34.131969049998908 ], [ 74.833504473804524, 34.131956732242649 ], [ 74.833512977265173, 34.131815957757858 ], [ 74.833400306411505, 34.131824756170033 ], [ 74.8333599149734, 34.132166133854987 ] ] ] } },
{ "type": "Feature", "properties": { "fid": 15, "building_name": "Arts Block", "departments": null, "type": "academic", "floor": 2,"image":"persian.png"}, "geometry": { "type": "Polygon", "coordinates": [ [ [ 74.833572501489755, 34.132342101195306 ], [ 74.83366603955696, 34.132343860866861 ], [ 74.833668165422111, 34.132382573631766 ], [ 74.833785088006138, 34.132393131655483 ], [ 74.833795717331952, 34.132220683769674 ], [ 74.83370855686023, 34.132204846701299 ], [ 74.833717060320893, 34.132028879075229 ], [ 74.83360013773688, 34.132021840362562 ], [ 74.833572501489755, 34.132342101195306 ] ] ] } },
{ "type": "Feature", "properties": { "fid": 16, "building_name": "Humanities Block", "departments": "Electronics; English; Linguistics", "type": "academic", "floor": 4, "image":"humanities.png"}, "geometry": { "type": "Polygon", "coordinates": [ [ [ 74.833512549541595, 34.132941741161751 ], [ 74.833865865166729, 34.132964114590955 ], [ 74.833883241345021, 34.13279311751738 ], [ 74.833686311324442, 34.132770744042908 ], [ 74.833694034070334, 34.132572578724762 ], [ 74.833744231918715, 34.132574176834027 ], [ 74.833755816037566, 34.132446327997513 ], [ 74.83354730189815, 34.13243833743882 ], [ 74.833518341601021, 34.132497467555318 ], [ 74.833348441191106, 34.132499065666003 ], [ 74.833323342266922, 34.132809098566952 ], [ 74.83346428237968, 34.132823481508979 ], [ 74.833475866498532, 34.132788323201922 ], [ 74.833518341601021, 34.13279950993757 ], [ 74.833512549541595, 34.132941741161751 ] ] ] } },
{ "type": "Feature", "properties": { "fid": 17, "building_name": "Urdu Department", "departments": "Urdu", "type": "academic", "floor": 2, "image":"urdu.png"}, "geometry": { "type": "Polygon", "coordinates": [ [ [ 74.832636762307587, 34.1327400961354 ], [ 74.832704996975096, 34.132742851284263 ], [ 74.832719975316749, 34.132686370714609 ], [ 74.832899715416545, 34.132702901616959 ], [ 74.832884737074906, 34.132534837292503 ], [ 74.832743274959327, 34.132523816669391 ], [ 74.832743274959327, 34.132470091111131 ], [ 74.832648412128862, 34.132471468689978 ], [ 74.832636762307587, 34.1327400961354 ] ] ] } },
{ "type": "Feature", "properties": { "fid": 18, "building_name": "Department of Computer Science", "departments": "Computer Science", "type": "academic", "floor": 2, "image": "cs.png"}, "geometry": { "type": "Polygon", "coordinates": [ [ [ 74.833528951144388, 34.133604865943852 ], [ 74.833541615852923, 34.13331920435057 ], [ 74.833408636413253, 34.133298238324052 ], [ 74.83338647317332, 34.133303479831163 ], [ 74.833364309933387, 34.133298238324052 ], [ 74.833259826087954, 34.133298238324052 ], [ 74.833247161379404, 34.133604865943852 ], [ 74.833528951144388, 34.133604865943852 ] ] ] } },
{ "type": "Feature", "properties": { "fid": 19, "building_name": "Media & Library Sciences Building", "departments": "MERC; EMMRC; Library & Information Science", "type": "academic", "floor": 3 ,"image":"media.png"}, "geometry": { "type": "Polygon", "coordinates": [ [ [ 74.832687831484435, 34.134315845666343 ], [ 74.832894589344917, 34.134331286735048 ], [ 74.832900807626444, 34.134247647579116 ], [ 74.832924126182135, 34.134246360822218 ], [ 74.832922571611746, 34.134257941633543 ], [ 74.833022064116051, 34.13426308866029 ], [ 74.833029836967938, 34.134242500551444 ], [ 74.833121556620355, 34.134239927037484 ], [ 74.833138656894505, 34.134077795500033 ], [ 74.832907025907971, 34.134073935221551 ], [ 74.832896143915292, 34.134034045666809 ], [ 74.832810642544416, 34.134036619187036 ], [ 74.832642748943428, 34.134023751585104 ], [ 74.832636530661901, 34.134048200027081 ], [ 74.832421999949517, 34.134045626507209 ], [ 74.832398681393812, 34.134200037561087 ], [ 74.832487291905466, 34.134206471348861 ], [ 74.832495064757353, 34.134241213794468 ], [ 74.832656740076857, 34.134246360822218 ], [ 74.832687831484435, 34.134315845666343 ] ] ] } },
{ "type": "Feature", "properties": { "fid": 20, "building_name": "Education & Distance Learning Building", "departments": "Education; Distance & Online Education", "type": "academic", "floor": 3 , "image": "education.png"}, "geometry": { "type": "Polygon", "coordinates": [ [ [ 74.833999978906476, 34.134157773471998 ], [ 74.834001667415222, 34.134094880435953 ], [ 74.833898668382389, 34.134093482812389 ], [ 74.833902045399853, 34.134375802301236 ], [ 74.833988159345338, 34.13437440468234 ], [ 74.833996601889027, 34.134343657060484 ], [ 74.834114797500447, 34.134343657060484 ], [ 74.834114797500447, 34.134375802301236 ], [ 74.834270140304071, 34.134377199920131 ], [ 74.834281959865208, 34.134340861821578 ], [ 74.83438833591552, 34.134356235634407 ], [ 74.834393401441716, 34.134389778489066 ], [ 74.834481203895919, 34.134392573726352 ], [ 74.834499777491999, 34.134279366542295 ], [ 74.834553809771535, 34.134273776060127 ], [ 74.834557186788999, 34.134238835538298 ], [ 74.834513285561883, 34.134227654568242 ], [ 74.834508220035687, 34.134115844786493 ], [ 74.834403532494122, 34.134101868553365 ], [ 74.834403532494122, 34.134173147318116 ], [ 74.833999978906476, 34.134157773471998 ] ] ] } },
{ "type": "Feature", "properties": { "fid": 21, "building_name": "Department of Physics & Mathematics", "departments": "Physics; Mathematics", "type": "academic", "floor": 2,"image":"physics.png" }, "geometry": { "type": "Polygon", "coordinates": [ [ [ 74.834405727205692, 34.133809409540902 ], [ 74.834528424373019, 34.133820852925872 ], [ 74.834575083859178, 34.133500437561146 ], [ 74.834542249405956, 34.133488994132804 ], [ 74.834547433793304, 34.133454663838464 ], [ 74.834632112120033, 34.133461815984255 ], [ 74.834639024636502, 34.133377420625209 ], [ 74.833842357113525, 34.133331646835892 ], [ 74.833842357113525, 34.133414611810778 ], [ 74.833987519959351, 34.133410320520959 ], [ 74.834008257508785, 34.133491854990041 ], [ 74.834068742027881, 34.13350186798958 ], [ 74.834127498417857, 34.133514741844415 ], [ 74.834213904873707, 34.133521893985133 ], [ 74.834352155203078, 34.133530476553204 ], [ 74.834355611461305, 34.133517602700778 ], [ 74.83442300849687, 34.133520463557041 ], [ 74.834405727205692, 34.133809409540902 ] ] ] } },
{ "type": "Feature", "properties": { "fid": 22, "building_name": "Allama Iqbal Library", "departments": null, "type": "Library", "floor": 6 ,"image": "library.png"}, "geometry": { "type": "Polygon", "coordinates": [ [ [ 74.835823443116979, 34.134135995629457 ], [ 74.836373267451236, 34.134165908562395 ], [ 74.836450707498315, 34.133691573664457 ], [ 74.836239038036297, 34.13368730036499 ], [ 74.836218387357079, 34.133843275655586 ], [ 74.836153853984527, 34.13383045577956 ], [ 74.836177085998628, 34.133689437014745 ], [ 74.835869907145224, 34.133665933864407 ], [ 74.835823443116979, 34.134135995629457 ] ] ] } },
{ "type": "Feature", "properties": { "fid": 23, "building_name": "Biochemistry & Pharmaceutical Sciences Building", "departments": "Biochemistry; Pharmaceutical Sciences", "type": "academic", "floor": 2, "image": "biochemistry.png" }, "geometry": { "type": "Polygon", "coordinates": [ [ [ 74.834506670010683, 34.134088308757285 ], [ 74.834600054123442, 34.13409747953002 ], [ 74.834604802468164, 34.134121061512516 ], [ 74.834688689891479, 34.134124991842292 ], [ 74.834693438236201, 34.134105340191596 ], [ 74.834715597178217, 34.134109270522089 ], [ 74.834706100488788, 34.134168225457756 ], [ 74.834767828970087, 34.134178706330907 ], [ 74.834782074004252, 34.134111890742332 ], [ 74.834845385267116, 34.134118441292571 ], [ 74.834845385267116, 34.134208838833949 ], [ 74.834911862093136, 34.134207528725348 ], [ 74.834992583953337, 34.134219319702076 ], [ 74.83500524620591, 34.134136782830531 ], [ 74.835049564089928, 34.13412368173239 ], [ 74.835043232963642, 34.134084378425804 ], [ 74.835043232963642, 34.134043764989798 ], [ 74.83501316011376, 34.134025423431652 ], [ 74.835017908458497, 34.134005771757806 ], [ 74.835036901837356, 34.134014942539508 ], [ 74.835030570711069, 34.133936335806922 ], [ 74.835057477997793, 34.13393371558125 ], [ 74.835060643560936, 34.133878690823224 ], [ 74.835074888595074, 34.133843317745594 ], [ 74.835006828987474, 34.133839387402723 ], [ 74.835003663424317, 34.133822355914816 ], [ 74.835009994550617, 34.133814495226929 ], [ 74.835035319055763, 34.13381711545631 ], [ 74.835043232963642, 34.133746369234679 ], [ 74.834891285932713, 34.13373981865562 ], [ 74.83488812036957, 34.133809254767939 ], [ 74.834886537587991, 34.133828906487487 ], [ 74.834850133611823, 34.133830216601972 ], [ 74.834837471359251, 34.133885241391546 ], [ 74.834877040898562, 34.133878690823224 ], [ 74.834873875335418, 34.133914063886067 ], [ 74.834839054140843, 34.13391275377289 ], [ 74.834837471359251, 34.133965158284028 ], [ 74.834875458116997, 34.133962538059237 ], [ 74.834870709772289, 34.133996600975109 ], [ 74.834843802485551, 34.133991360527411 ], [ 74.834826391888271, 34.134018872874215 ], [ 74.83472825943079, 34.13401101220461 ], [ 74.834691855454622, 34.133988740303437 ], [ 74.834690272673058, 34.133949436934088 ], [ 74.834687107109914, 34.133928475129643 ], [ 74.834664948167912, 34.133921924564682 ], [ 74.834664948167912, 34.133902272866763 ], [ 74.834642789225896, 34.133893102072832 ], [ 74.834519332263284, 34.133894412186322 ], [ 74.834506670010683, 34.134088308757285 ] ] ] } },
{ "type": "Feature", "properties": { "fid": 24, "building_name": "Department of Bio-resources and Clinical Biochemistry", "departments": "Bio-resources; Clinical Biochemistry", "type": "academic", "floor": 3, "image":"cbc.png"}, "geometry": { "type": "Polygon", "coordinates": [ [ [ 74.834770994533244, 34.134440727737129 ], [ 74.834907113748443, 34.134456448995671 ], [ 74.834956179977155, 34.134459069205143 ], [ 74.835070140250352, 34.134462999519201 ], [ 74.835074888595074, 34.134388323520866 ], [ 74.835093881973947, 34.134309717135565 ], [ 74.83502265680319, 34.134299236278665 ], [ 74.83498941839018, 34.134297926171463 ], [ 74.83498941839018, 34.134304476707278 ], [ 74.834934021035153, 34.134299236278665 ], [ 74.83488812036957, 34.134296616064233 ], [ 74.834886537587991, 34.134291375635136 ], [ 74.834846968048694, 34.134287445313099 ], [ 74.834823226325099, 34.134284825098305 ], [ 74.834793153475232, 34.134288755420464 ], [ 74.834770994533244, 34.134440727737129 ] ] ] } },
{ "type": "Feature", "properties": { "fid": 25, "building_name": "Department of Home Science and Food Technology", "departments": "Home Science; Food Technology", "type": "academic", "floor": 3,"image":"footTech.png"}, "geometry": { "type": "Polygon", "coordinates": [ [ [ 74.83516510714469, 34.134309717135565 ], [ 74.835271153510021, 34.134311027242575 ], [ 74.835323385301905, 34.134313647456565 ], [ 74.835317054175619, 34.134350330443766 ], [ 74.835282232981029, 34.13435164055015 ], [ 74.835282232981029, 34.134418455949195 ], [ 74.835312305830882, 34.134417145843841 ], [ 74.835317054175619, 34.134464309623851 ], [ 74.835378782656903, 34.134462999519201 ], [ 74.835393027691069, 34.13448134098239 ], [ 74.835424683322515, 34.134482651086742 ], [ 74.835426266104093, 34.134443347947077 ], [ 74.835499074056386, 34.134438107527089 ], [ 74.835521232998417, 34.134292685742444 ], [ 74.83561619989274, 34.134291375635136 ], [ 74.835620948237434, 34.134225870243981 ], [ 74.835554471411413, 34.134218009593631 ], [ 74.83553389525099, 34.134198357964557 ], [ 74.835540226377276, 34.134043764989798 ], [ 74.835478497895977, 34.134035904322523 ], [ 74.835478497895977, 34.134005771757806 ], [ 74.83541676941465, 34.133996600975117 ], [ 74.835393027691069, 34.133995290863211 ], [ 74.835391444909504, 34.134011012204624 ], [ 74.835159607690883, 34.134002039272254 ], [ 74.835147675640869, 34.13412055701729 ], [ 74.835269596293898, 34.134118358177169 ], [ 74.835337630336056, 34.134117131182556 ], [ 74.835339213117621, 34.134147263707582 ], [ 74.835169855489411, 34.134148573817114 ], [ 74.83516510714469, 34.134309717135565 ] ] ] } },
{ "type": "Feature", "properties": { "fid": 26, "building_name": "Department of Chemistry", "departments": "Chemistry", "type": "academic", "floor": 2,"image":"chemistry.png" }, "geometry": { "type": "Polygon", "coordinates": [ [ [ 74.834892315908448, 34.133461045643536 ], [ 74.835585081183453, 34.133501936603096 ], [ 74.835602314150492, 34.133589424171056 ], [ 74.835325437813381, 34.133575159899841 ], [ 74.835328884406792, 34.133594178927588 ], [ 74.835350712831712, 34.133596080830131 ], [ 74.835350712831712, 34.133615099853159 ], [ 74.83550695839952, 34.133627462215834 ], [ 74.835543722062567, 34.13363411887191 ], [ 74.835539126604672, 34.133654088836991 ], [ 74.83559197437026, 34.133661696441493 ], [ 74.835590825505804, 34.133706391104127 ], [ 74.835531084553381, 34.133702587303979 ], [ 74.835521893637633, 34.133707342054137 ], [ 74.83537713671447, 34.133700685403838 ], [ 74.835370243527677, 34.133726361052133 ], [ 74.835271441183323, 34.13371209680404 ], [ 74.835207104773019, 34.133715900603761 ], [ 74.835207104773019, 34.133707342054137 ], [ 74.835188722941538, 34.13370544015411 ], [ 74.835189871806008, 34.133691175902484 ], [ 74.835164596787678, 34.133690224952289 ], [ 74.835163447923193, 34.133680715449756 ], [ 74.835061198985443, 34.133674058797354 ], [ 74.835070389901176, 34.133597982732617 ], [ 74.835259952538635, 34.133604639391017 ], [ 74.835264547996502, 34.133570405142251 ], [ 74.834903804553136, 34.133553288012649 ], [ 74.834892315908448, 34.133461045643536 ] ] ] } },
{ "type": "Feature", "properties": { "fid": 27, "building_name": "Markazi-i-Noor", "departments": "Center for Sheikh-ul-Alam Studies", "type": "academic", "floor": 1,"image":"sheikh.png" }, "geometry": { "type": "Polygon", "coordinates": [ [ [ 74.837038323870132, 34.128663768486966 ], [ 74.837265712386937, 34.128689367438184 ], [ 74.837294818117101, 34.128485328523425 ], [ 74.837051057627079, 34.128465752808296 ], [ 74.837038323870132, 34.128663768486966 ] ] ] } },
{ "type": "Feature", "properties": { "fid": 28, "building_name": "Convocation Complex", "departments": "Auditorium; Event Hall", "type": "Administrative", "floor": 1,"image":"convocation.png"}, "geometry": { "type": "Polygon", "coordinates": [ [ [ 74.837245610922878, 34.129813978730333 ], [ 74.837367715896704, 34.129722092634779 ], [ 74.837498701232249, 34.129615504638842 ], [ 74.837565303945254, 34.129571399221888 ], [ 74.837636346839119, 34.129578750126306 ], [ 74.837751791541649, 34.129508916508478 ], [ 74.837769552265129, 34.129382113212827 ], [ 74.837676308466925, 34.129292064380124 ], [ 74.837576404397439, 34.129282875718339 ], [ 74.837301113183699, 34.129021917306474 ], [ 74.837201209114212, 34.129122992843278 ], [ 74.837179008209873, 34.129115641899226 ], [ 74.837101305044698, 34.129128506050904 ], [ 74.837061343416906, 34.129174449433783 ], [ 74.837079104140386, 34.129238770127841 ], [ 74.837099084954275, 34.129247958794423 ], [ 74.837083544321246, 34.129321468091156 ], [ 74.837045802783862, 34.129325143554304 ], [ 74.836990300523041, 34.129369249099753 ], [ 74.836985860342182, 34.12943540737475 ], [ 74.837030262150847, 34.129473999677941 ], [ 74.837068003688202, 34.129486863775085 ], [ 74.837083544321246, 34.129553021958039 ], [ 74.83705468314561, 34.129569561495671 ], [ 74.83703248224127, 34.129626530989484 ], [ 74.837061343416906, 34.129679824997297 ], [ 74.837123505949037, 34.129698202233591 ], [ 74.837159027395955, 34.129690851339554 ], [ 74.837183448390732, 34.129725768080533 ], [ 74.837172347938562, 34.129745983029245 ], [ 74.837245610922878, 34.129813978730333 ] ] ] } },
{ "type": "Feature", "properties": { "fid": 29, "building_name": "Gandhi Bhawan", "departments": null, "type": "Administrative", "floor": 1 ,"image":"gandhiBhawan.png"}, "geometry": { "type": "Polygon", "coordinates": [ [ [ 74.838169247676859, 34.133668339912546 ], [ 74.838133831305441, 34.133661677362383 ], [ 74.838112903449613, 34.133653682301492 ], [ 74.838101634604158, 34.133647019750178 ], [ 74.838093585428823, 34.133639024687895 ], [ 74.838091975593755, 34.133627032093052 ], [ 74.838091975593755, 34.133612374474836 ], [ 74.838091975593755, 34.133601714387268 ], [ 74.838091975593755, 34.133592386809532 ], [ 74.838096805098942, 34.133587056764647 ], [ 74.838104854274292, 34.133579061696707 ], [ 74.838112903449613, 34.133573731650984 ], [ 74.83813222147036, 34.13356973411647 ], [ 74.838159588666457, 34.133564404070171 ], [ 74.838178906687247, 34.133564404070171 ], [ 74.838193395202836, 34.133564404070171 ], [ 74.83822559190412, 34.133568401604926 ], [ 74.838272277120964, 34.133572399139503 ], [ 74.838335060688479, 34.133576396673881 ], [ 74.838404283596262, 34.133577729185305 ], [ 74.83841716227677, 34.133583059230773 ], [ 74.838430040957277, 34.133589721787125 ], [ 74.838439699967665, 34.133600381876221 ], [ 74.838447749142986, 34.133612374474836 ], [ 74.838449358978067, 34.133623034561083 ], [ 74.838447749142986, 34.133635027156473 ], [ 74.838446139307919, 34.133644354729498 ], [ 74.838438090132598, 34.133657679832041 ], [ 74.838426821287158, 34.133669672422513 ], [ 74.838415552441688, 34.133675002462191 ], [ 74.838413942606635, 34.133690992579183 ], [ 74.838409113101449, 34.133710980221167 ], [ 74.838349549204054, 34.133705650183764 ], [ 74.838325401678077, 34.133798925789755 ], [ 74.838322182007971, 34.133817580898608 ], [ 74.838335060688479, 34.13387887622725 ], [ 74.838306083657329, 34.13387887622725 ], [ 74.838302863987181, 34.133916186405521 ], [ 74.838212713223584, 34.133910856381057 ], [ 74.838211103388531, 34.133880208733892 ], [ 74.838186955862554, 34.133873546200434 ], [ 74.838169247676859, 34.133668339912546 ] ] ] } },
{ "type": "Feature", "properties": { "fid": 30, "building_name": "Social Sciences Block", "departments": "History & Heritage; Economics; Iqbal Institute of Culture and Phillosophy", "type": "academic", "floor": 2 ,"image":"history.png"}, "geometry": { "type": "Polygon", "coordinates": [ [ [ 74.838404879462431, 34.13406946272395 ], [ 74.838390254328871, 34.134090647548035 ], [ 74.838320784944457, 34.134148149186622 ], [ 74.838317128661046, 34.134248020360694 ], [ 74.838181846175573, 34.134238941167929 ], [ 74.838145283341674, 34.134350917810522 ], [ 74.838156252191837, 34.134408419272049 ], [ 74.838251315560015, 34.134441709573998 ], [ 74.838361004061753, 34.134444735964436 ], [ 74.838379285478695, 34.134356970597786 ], [ 74.838507255397374, 34.134378155349808 ], [ 74.838525536814359, 34.13427828432954 ], [ 74.83858403734861, 34.134275257933119 ], [ 74.838605975048949, 34.134214729982446 ], [ 74.838722976117467, 34.134214729982446 ], [ 74.838741257534451, 34.134126964376961 ], [ 74.838792445501923, 34.134114858769038 ], [ 74.838818039485645, 34.134102753159411 ], [ 74.838850946036175, 34.134117885171186 ], [ 74.838854602319557, 34.13416933399099 ], [ 74.838971603388075, 34.134178413191229 ], [ 74.838986228521648, 34.133945380076263 ], [ 74.838975259671486, 34.133933274442342 ], [ 74.838627912749303, 34.133912089578821 ], [ 74.8386315690327, 34.134090647548035 ], [ 74.838404879462431, 34.13406946272395 ] ] ] } },
{ "type": "Feature", "properties": { "fid": 31, "building_name": "Centre for Distance Education & Geography Building", "departments": "CDE, Geography & Disaster Management Building", "type": "academic", "floor": 2,"image":"distanceEducation.png" }, "geometry": { "type": "Polygon", "coordinates": [ [ [ 74.836476864969526, 34.135360083105809 ], [ 74.836518844899288, 34.135363740725005 ], [ 74.836523263839254, 34.135376542390929 ], [ 74.836571872178979, 34.135382028818604 ], [ 74.836571872178979, 34.135363740725005 ], [ 74.836600595288843, 34.135372884772295 ], [ 74.836602804758826, 34.135360083105809 ], [ 74.836629318398678, 34.135360083105809 ], [ 74.836642575218605, 34.135140625664519 ], [ 74.836697811968307, 34.135147940921755 ], [ 74.836722116138176, 34.134912023557213 ], [ 74.836646994158571, 34.134895564181633 ], [ 74.836675717268406, 34.134688907304216 ], [ 74.836653622568548, 34.134674276709681 ], [ 74.836633737338659, 34.134652330813111 ], [ 74.83659838581886, 34.134643186687853 ], [ 74.836576291118973, 34.134654159638039 ], [ 74.836567453239013, 34.134674276709681 ], [ 74.836538730129192, 34.134688907304216 ], [ 74.836534311189212, 34.134716339662162 ], [ 74.836492331259436, 34.134747429657068 ], [ 74.83648349337949, 34.134782177284912 ], [ 74.836476864969526, 34.134829726647212 ], [ 74.836456979739637, 34.134837041931348 ], [ 74.836476864969526, 34.135360083105809 ] ] ] } },
{ "type": "Feature", "properties": { "fid": 32, "building_name": "Chief Proctors Office", "departments": null, "type": "administrative", "floor": 1 }, "geometry": { "type": "Polygon", "coordinates": [ [ [ 74.837333429308899, 34.135422542599869 ], [ 74.837401347884921, 34.135424884980118 ], [ 74.837395688003568, 34.135214070497398 ], [ 74.837339089190223, 34.135202358566275 ], [ 74.837344749071548, 34.135232809583819 ], [ 74.837313619724199, 34.135239836740148 ], [ 74.837333429308899, 34.135422542599869 ] ] ] } },
{ "type": "Feature", "properties": { "fid": 33, "building_name": "University Post Office", "departments": null, "type": "Administrative", "floor": 1 ,"image":"postoffice.png"}, "geometry": { "type": "Polygon", "coordinates": [ [ [ 74.837319279605552, 34.135080554386356 ], [ 74.837361728715564, 34.135085239165747 ], [ 74.837364558656247, 34.135064157656416 ], [ 74.837390028122257, 34.135066500046605 ], [ 74.837392858062927, 34.134916586943845 ], [ 74.837330599368215, 34.134909559760636 ], [ 74.837319279605552, 34.135080554386356 ] ] ] } },
{ "type": "Feature", "properties": { "fid": 34, "building_name": "Sheikh Hamza Makhdoom Guest House", "departments": null, "type": "Hostel", "floor": 2,"image":"sheikhGuest.png"}, "geometry": { "type": "Polygon", "coordinates": [ [ [ 74.836355048831891, 34.137548076065791 ], [ 74.836483100445847, 34.137555646593484 ], [ 74.83650322284231, 34.137367897306682 ], [ 74.836530662473876, 34.137107470186031 ], [ 74.836387976389759, 34.1370998996182 ], [ 74.836380659154656, 34.137202859282681 ], [ 74.836305657495089, 34.137196802835298 ], [ 74.836303828186317, 34.137260395511127 ], [ 74.836276388554751, 34.137264937843284 ], [ 74.836261754084575, 34.137366383197836 ], [ 74.836291023024913, 34.137375467850518 ], [ 74.836285535098611, 34.137457229680656 ], [ 74.836356878140677, 34.13747085664464 ], [ 74.836355048831891, 34.137548076065791 ] ] ] } },
{ "type": "Feature", "properties": { "fid": 35, "building_name": "Maulana Anwar Shah Kashmiri Boys Hostel", "departments": null, "type": "Hostel", "floor": 2,"image":"anwarShah.png"}, "geometry": { "type": "Polygon", "coordinates": [ [ [ 74.835858608406525, 34.140447261518091 ], [ 74.83586223231022, 34.140009351501263 ], [ 74.835882163780568, 34.140000353326428 ], [ 74.83590390720272, 34.139944864560498 ], [ 74.836101409954196, 34.13995386274123 ], [ 74.836106845809752, 34.140061840835315 ], [ 74.835996316747, 34.140063340530098 ], [ 74.835994504795138, 34.140075338087378 ], [ 74.835981821132208, 34.140085835948597 ], [ 74.835981821132208, 34.140094834114322 ], [ 74.836025307976556, 34.140124827993155 ], [ 74.836019872121028, 34.140204311720538 ], [ 74.836056111158001, 34.14021031048938 ], [ 74.836057923109848, 34.140259800316109 ], [ 74.836023496024723, 34.140259800316109 ], [ 74.83600537650625, 34.140354280813895 ], [ 74.835963701613721, 34.140355780503477 ], [ 74.835961889661874, 34.14042926526075 ], [ 74.836204691209545, 34.14045176058184 ], [ 74.836199255353989, 34.140558238353698 ], [ 74.835972761372972, 34.140546240864985 ], [ 74.835972761372972, 34.140519246509143 ], [ 74.835909343058276, 34.14051174807544 ], [ 74.835893035491637, 34.140471256521934 ], [ 74.835893035491637, 34.140456259645333 ], [ 74.835858608406525, 34.140447261518091 ] ] ] } },
{ "type": "Feature", "properties": { "fid": 36, "building_name": "Mehboob ul Alam Boys Hostel", "departments": null, "type": "hostel", "floor": 2,"image":"maHostel.png"}, "geometry": { "type": "Polygon", "coordinates": [ [ [ 74.836240930246518, 34.14054774055117 ], [ 74.836434809094285, 34.140555238981676 ], [ 74.836434809094285, 34.140454759957528 ], [ 74.836418501527632, 34.14045176058184 ], [ 74.836416689575813, 34.140391773045629 ], [ 74.836436621046133, 34.140391773045629 ], [ 74.836440244949813, 34.140412768688144 ], [ 74.836652243316067, 34.140427765572468 ], [ 74.836654055267928, 34.140367778019233 ], [ 74.836655867219775, 34.140334784846814 ], [ 74.836588825001385, 34.140321287636191 ], [ 74.836585201097691, 34.140225307409622 ], [ 74.836514534975606, 34.140216309257809 ], [ 74.836447492757216, 34.14021031048938 ], [ 74.836436621046133, 34.140304791042517 ], [ 74.836278981235338, 34.140298792280369 ], [ 74.836273545379782, 34.14019981264363 ], [ 74.836204691209545, 34.140192314181576 ], [ 74.836110469713418, 34.140192314181576 ], [ 74.836094162146793, 34.140283795373165 ], [ 74.83606335896539, 34.140282295682297 ], [ 74.836057923109848, 34.140328786086791 ], [ 74.836052487254292, 34.14039027335668 ], [ 74.836110469713418, 34.14039927148999 ], [ 74.836114093617127, 34.140372277087209 ], [ 74.836130401183752, 34.140367778019233 ], [ 74.83613402508746, 34.14039927148999 ], [ 74.83624636610206, 34.14040976931097 ], [ 74.83624636610206, 34.140378275844128 ], [ 74.836268109524241, 34.140378275844128 ], [ 74.836277169283477, 34.140406769933684 ], [ 74.836262673668699, 34.140415768065232 ], [ 74.836262673668699, 34.140442762454107 ], [ 74.836249990005768, 34.140442762454107 ], [ 74.836240930246518, 34.14054774055117 ] ] ] } },
{ "type": "Feature", "properties": { "fid": 37, "building_name": "Hostel Masjid", "departments": null, "type": "religious", "floor": 1 }, "geometry": { "type": "Polygon", "coordinates": [ [ [ 74.835858608406525, 34.139743904941078 ], [ 74.836054299206126, 34.139755902543705 ], [ 74.836056111157973, 34.139671919289498 ], [ 74.836074230676459, 34.139592435061303 ], [ 74.835869480117609, 34.139575938325336 ], [ 74.835847736695428, 34.139613430902429 ], [ 74.835858608406525, 34.139743904941078 ] ] ] } },
{ "type": "Feature", "properties": { "fid": 38, "building_name": "Examination Block", "departments": "Single Window; Controller of Examinations", "type": "Administrative", "floor": 2,"image":"examination.png"}, "geometry": { "type": "Polygon", "coordinates": [ [ [ 74.837682177200023, 34.129774147472062 ], [ 74.837680990782829, 34.129747631328101 ], [ 74.837683363617259, 34.129685760293142 ], [ 74.837703532709909, 34.129685760293142 ], [ 74.83770827837877, 34.129657279960242 ], [ 74.837689295703328, 34.129655315798999 ], [ 74.837690482120522, 34.129587552208157 ], [ 74.837713024047616, 34.129588534289574 ], [ 74.837717769716477, 34.129571838903964 ], [ 74.83778420908051, 34.129571838903964 ], [ 74.837791327583773, 34.129588534289574 ], [ 74.837829292934657, 34.129592462615115 ], [ 74.837830479351879, 34.129574785148719 ], [ 74.837901664384759, 34.129575767230293 ], [ 74.837905223636383, 34.129595408859153 ], [ 74.837919460642965, 34.129597373021795 ], [ 74.837925392729048, 34.129656297879627 ], [ 74.837911155722466, 34.129663172443685 ], [ 74.837906410053606, 34.129682814052245 ], [ 74.837925392729048, 34.129681831971929 ], [ 74.837944375404476, 34.129699509415921 ], [ 74.837988272841429, 34.129684778212841 ], [ 74.837987086424192, 34.129728971814387 ], [ 74.838001323430774, 34.129731918053665 ], [ 74.838009628351287, 34.129672993248541 ], [ 74.837994204927497, 34.129671029087675 ], [ 74.837996577761913, 34.129602283428177 ], [ 74.838015560437356, 34.129602283428177 ], [ 74.838016746854578, 34.129584605963842 ], [ 74.838093863973526, 34.129586570126733 ], [ 74.838098609642387, 34.129602283428177 ], [ 74.838131829324411, 34.129605229671874 ], [ 74.838135388576049, 34.129586570126733 ], [ 74.838212505695012, 34.129590498452373 ], [ 74.838214878529428, 34.129607193834282 ], [ 74.838235047622078, 34.129608175915472 ], [ 74.83823386120487, 34.129671029087675 ], [ 74.838211319277789, 34.129679867811248 ], [ 74.838211319277789, 34.12970638397649 ], [ 74.83826945372131, 34.129708348136546 ], [ 74.838280131476239, 34.129561036005654 ], [ 74.838390468277211, 34.129570856822362 ], [ 74.838377417687838, 34.129858606245584 ], [ 74.838257589549144, 34.129856642089024 ], [ 74.838256403131936, 34.129826197656421 ], [ 74.838216064946636, 34.129823251420426 ], [ 74.838207760026151, 34.129792806975793 ], [ 74.838117592317829, 34.129790842817712 ], [ 74.838105728145678, 34.129844857148676 ], [ 74.838128270072758, 34.12983896467788 ], [ 74.838193523019569, 34.129843875070229 ], [ 74.838193523019569, 34.129857624167315 ], [ 74.838211319277789, 34.12986253455859 ], [ 74.838210132860567, 34.12992244130912 ], [ 74.838191150185139, 34.129926369619135 ], [ 74.838188777350709, 34.129957796092782 ], [ 74.838201827940068, 34.129958778169893 ], [ 74.83819826868843, 34.130029487692049 ], [ 74.838187590933487, 34.130030469768343 ], [ 74.838185218099056, 34.130034398073349 ], [ 74.838103355311247, 34.130032433920867 ], [ 74.83810454172847, 34.130023595234135 ], [ 74.838076067715306, 34.130023595234135 ], [ 74.838071322046446, 34.130032433920867 ], [ 74.837989459258637, 34.130030469768343 ], [ 74.837982340755332, 34.130020649005012 ], [ 74.837965730914334, 34.130016720699373 ], [ 74.837976408669263, 34.129945029089271 ], [ 74.837911155722466, 34.12993913662546 ], [ 74.837902850801967, 34.130005917857915 ], [ 74.837827686530304, 34.130012118537543 ], [ 74.837825854328429, 34.130039417970963 ], [ 74.837813028915249, 34.130125866118625 ], [ 74.837582171478203, 34.130122832851782 ], [ 74.837598661295146, 34.13000453536003 ], [ 74.837673781572278, 34.130009085266614 ], [ 74.837665567359039, 34.129945029089271 ], [ 74.837685736451689, 34.129945029089271 ], [ 74.837689295703328, 34.129934226238653 ], [ 74.837678617948399, 34.129934226238653 ], [ 74.837673872279538, 34.129846821305506 ], [ 74.83769285495498, 34.129846821305506 ], [ 74.837697600623841, 34.129827179735081 ], [ 74.837755735067347, 34.129828161813684 ], [ 74.837758107901777, 34.129848785462308 ], [ 74.837791327583773, 34.129849767540676 ], [ 74.837793700418203, 34.129833072206679 ], [ 74.837792514000995, 34.129781022026556 ], [ 74.837682177200023, 34.129774147472062 ] ] ] } },
{ "type": "Feature", "properties": { "fid": 39, "building_name": "Life Sciences & Nanotechnology Building", "departments": "Biotechnology; Nanotechnology; Environmental Science (EVS); Bioinformatics Centre", "type": "academic", "floor": 2, "image": "biotech.png"}, "geometry": { "type": "Polygon", "coordinates": [ [ [ 74.833456847052048, 34.134316146824524 ], [ 74.833450949417795, 34.134256591090981 ], [ 74.833269302283085, 34.134244875204033 ], [ 74.833272840863629, 34.134223396073743 ], [ 74.833256327487746, 34.134221443425275 ], [ 74.833256327487746, 34.134202893262476 ], [ 74.83320560783325, 34.134193130017259 ], [ 74.83320560783325, 34.134099402805838 ], [ 74.833228018843371, 34.134098426480179 ], [ 74.833231557423929, 34.134086710571317 ], [ 74.833279918024715, 34.134089639548677 ], [ 74.833281097551577, 34.13402813100258 ], [ 74.833370741592077, 34.134032036308433 ], [ 74.833367203011534, 34.134064255074762 ], [ 74.833525259609303, 34.134070113030958 ], [ 74.833596031220225, 34.134074994660807 ], [ 74.833703368163484, 34.134072065682936 ], [ 74.833708086270875, 34.134060349770408 ], [ 74.833805986999323, 34.134059373444295 ], [ 74.833798909838237, 34.134118929316784 ], [ 74.833869681449173, 34.134122834618431 ], [ 74.833866142868629, 34.134230230343064 ], [ 74.833815423214105, 34.134230230343064 ], [ 74.833811884633576, 34.134246827851975 ], [ 74.833794191730831, 34.13424878049986 ], [ 74.833793012203984, 34.134271235947374 ], [ 74.833618442230346, 34.134261472710058 ], [ 74.833611365069245, 34.134327862701582 ], [ 74.833456847052048, 34.134316146824524 ] ] ] } },
{ "type": "Feature", "properties": { "id": null, "name": "Indoor Stadium", "type": "sports", "department": null, "floor": "3" }, "geometry": { "type": "Polygon", "coordinates": [ [ [ 74.8366841703604, 34.135600799896409 ], [ 74.836302923618419, 34.135584407041023 ], [ 74.836293021105632, 34.135695058753022 ], [ 74.836317777387592, 34.135711451586914 ], [ 74.836307874874791, 34.135949147321114 ], [ 74.836297972362033, 34.136203235125265 ], [ 74.836253411054528, 34.1362073333094 ], [ 74.836253411054528, 34.136248315139767 ], [ 74.836649511565668, 34.136264707866346 ], [ 74.8366841703604, 34.135600799896409 ] ] ] } },
{ "type": "Feature", "properties": { "id": null, "name": "12 SET Residential Building", "type": "hostel", "department": null, "floor": "3" }, "geometry": { "type": "Polygon", "coordinates": [ [ [ 74.833873738714004, 34.128956781096164 ], [ 74.83392046713854, 34.128958623034713 ], [ 74.833969420726135, 34.128963227880881 ], [ 74.834047301433685, 34.128967832726808 ], [ 74.834057314667504, 34.128905206800731 ], [ 74.833996122683018, 34.128901522921275 ], [ 74.834003910753765, 34.128845343739776 ], [ 74.834057314667504, 34.128845343739776 ], [ 74.834057314667504, 34.128805741999237 ], [ 74.834072890809011, 34.128775349953209 ], [ 74.834020599476801, 34.128763377326024 ], [ 74.834013923987598, 34.128729301377817 ], [ 74.834025049802946, 34.128688778610709 ], [ 74.834074003390555, 34.128688778610709 ], [ 74.834081791461287, 34.128644571933542 ], [ 74.834036175618309, 34.128642729988158 ], [ 74.833971645889221, 34.128635362206218 ], [ 74.833918241975468, 34.128628915396504 ], [ 74.833873738714004, 34.128956781096164 ] ] ] } },
{ "type": "Feature", "properties": { "id": null, "name": "New Prof Quarter 1", "type": "hostel", "department": null, "floor": "2" }, "geometry": { "type": "Polygon", "coordinates": [ [ [ 74.83372402653832, 34.129531335530309 ], [ 74.833778301260807, 34.129535419807972 ], [ 74.83378076829365, 34.129519082696099 ], [ 74.833923856198396, 34.129525209113439 ], [ 74.833931257296925, 34.129545630501291 ], [ 74.833995400150769, 34.129551756916676 ], [ 74.833995400150769, 34.129504787720634 ], [ 74.833980597953712, 34.129490492742747 ], [ 74.833978130920883, 34.129449649935466 ], [ 74.833775834227964, 34.129419017817035 ], [ 74.833756097965235, 34.129461902779717 ], [ 74.833719092472634, 34.129476197762443 ], [ 74.83372402653832, 34.129531335530309 ] ] ] } },
{ "type": "Feature", "properties": { "id": null, "name": "New Prof Quarter 2", "type": "hostel", "department": null, "floor": "2" }, "geometry": { "type": "Polygon", "coordinates": [ [ [ 74.834042273774756, 34.129551756916676 ], [ 74.834096548497257, 34.129557883331636 ], [ 74.834103949595772, 34.129533377669162 ], [ 74.834247037500504, 34.129547672639802 ], [ 74.834251971566204, 34.12956809402224 ], [ 74.834308713321548, 34.129572178298133 ], [ 74.834316114420048, 34.129527251252426 ], [ 74.834288977058819, 34.129517040556905 ], [ 74.834291444091662, 34.129474155622198 ], [ 74.834096548497257, 34.12944556565364 ], [ 74.8340817463002, 34.129484366322906 ], [ 74.834047207840428, 34.129496619162133 ], [ 74.834042273774756, 34.129551756916676 ] ] ] } },
{ "type": "Feature", "properties": { "id": null, "name": "New Prof Quarter 3", "type": "hostel", "department": null, "floor": "2" }, "geometry": { "type": "Polygon", "coordinates": [ [ [ 74.834355586945506, 34.129574220436005 ], [ 74.834417262766522, 34.129580346849316 ], [ 74.834417262766522, 34.129557883331636 ], [ 74.834565284736954, 34.12956809402224 ], [ 74.834565284736954, 34.129592599674638 ], [ 74.834602290229569, 34.129596683949337 ], [ 74.834602290229569, 34.12948845060285 ], [ 74.834412328700822, 34.129470071341572 ], [ 74.834387658372435, 34.129484366322906 ], [ 74.834355586945506, 34.129574220436005 ] ] ] } },
{ "type": "Feature", "properties": { "id": null, "name": "New Prof Quarter 4", "type": "hostel", "department": null, "floor": "3" }, "geometry": { "type": "Polygon", "coordinates": [ [ [ 74.834626739979072, 34.129559756727247 ], [ 74.834676280882206, 34.129569220231808 ], [ 74.834702956753134, 34.129594456238806 ], [ 74.834821092752918, 34.129610228739324 ], [ 74.83482871443033, 34.129600765239367 ], [ 74.834840146946433, 34.129592878988575 ], [ 74.834851579462551, 34.129573951983687 ], [ 74.834910647462451, 34.129570797482472 ], [ 74.834925890817246, 34.129439885577781 ], [ 74.834815376494873, 34.129433576565205 ], [ 74.834815376494873, 34.129454080854359 ], [ 74.834794416881991, 34.129455658107162 ], [ 74.834782984365887, 34.129499821173773 ], [ 74.834735348882091, 34.129495089417738 ], [ 74.834735348882091, 34.129433576565205 ], [ 74.834628645398425, 34.129428844805481 ], [ 74.834626739979072, 34.129559756727247 ] ] ] } },
{ "type": "Feature", "properties": { "id": null, "name": "New Prof Quarter 5", "type": "hostel", "department": null, "floor": "2" }, "geometry": { "type": "Polygon", "coordinates": [ [ [ 74.833971275722163, 34.129239574198664 ], [ 74.834169439334715, 34.129256924021931 ], [ 74.834163723076657, 34.129178061160211 ], [ 74.834182777270172, 34.129138629701757 ], [ 74.833965559464104, 34.129122857113224 ], [ 74.833971275722163, 34.129239574198664 ] ] ] } },
{ "type": "Feature", "properties": { "id": null, "name": "New Prof  Quarter 6", "type": "hostel", "department": null, "floor": "2" }, "geometry": { "type": "Polygon", "coordinates": [ [ [ 74.834306629528029, 34.129261655791296 ], [ 74.834491455205125, 34.12927742835393 ], [ 74.834508603979287, 34.129174906644216 ], [ 74.834302818689324, 34.129143361477738 ], [ 74.834306629528029, 34.129261655791296 ] ] ] } },
{ "type": "Feature", "properties": { "id": null, "name": "New Prof Quarter 7", "type": "hostel", "department": null, "floor": "2" }, "geometry": { "type": "Polygon", "coordinates": [ [ [ 74.83463817249519, 34.129286891890104 ], [ 74.834830619849697, 34.129299509936665 ], [ 74.834838241527095, 34.129170174869991 ], [ 74.834636267075837, 34.129162288579039 ], [ 74.83463817249519, 34.129286891890104 ] ] ] } },
{ "type": "Feature", "properties": { "id": null, "name": "Teacher Quarter 1", "type": "hostel", "department": null, "floor": "2" }, "geometry": { "type": "Polygon", "coordinates": [ [ [ 74.833441569142437, 34.129457235359943 ], [ 74.833548272626118, 34.129471430633608 ], [ 74.833578759335737, 34.129266387560399 ], [ 74.833475866690776, 34.129258501278429 ], [ 74.833464434174644, 34.129302664448026 ], [ 74.83340346075542, 34.129307396214841 ], [ 74.833386311981243, 34.129395722479877 ], [ 74.83344347456179, 34.129409917763873 ], [ 74.833441569142437, 34.129457235359943 ] ] ] } },
{ "type": "Feature", "properties": { "id": null, "name": "Teacher Quarter 2", "type": "hostel", "department": null, "floor": "2" }, "geometry": { "type": "Polygon", "coordinates": [ [ [ 74.833483488368174, 34.129135475184292 ], [ 74.833588286432501, 34.129143361477738 ], [ 74.833616867722768, 34.128947781182902 ], [ 74.83351206965844, 34.128935163083817 ], [ 74.833500637142336, 34.12899036725338 ], [ 74.833447285400496, 34.128988789991887 ], [ 74.833433947465039, 34.129072384810151 ], [ 74.833481582948821, 34.129086580148432 ], [ 74.833483488368174, 34.129135475184292 ] ] ] } },
{ "type": "Feature", "properties": { "id": null, "name": "Teacher Quarter 3", "type": "hostel", "department": null, "floor": "2" }, "geometry": { "type": "Polygon", "coordinates": [ [ [ 74.833536840110014, 34.128805827459679 ], [ 74.83363782733565, 34.128816868313372 ], [ 74.833674030303314, 34.128618132726366 ], [ 74.833574948497045, 34.128603937309421 ], [ 74.833561610561574, 34.128662296230523 ], [ 74.833504447981028, 34.128662296230523 ], [ 74.833489204626233, 34.12874746863767 ], [ 74.833544461787426, 34.128756932233159 ], [ 74.833536840110014, 34.128805827459679 ] ] ] } },
{ "type": "Feature", "properties": { "id": null, "name": "Teacher Quarter 4", "type": "hostel", "department": null, "floor": "2" }, "geometry": { "type": "Polygon", "coordinates": [ [ [ 74.833597813529252, 34.128477755720645 ], [ 74.833696895335535, 34.12849510570026 ], [ 74.833729287464493, 34.128294792082364 ], [ 74.833628300238871, 34.128283751160502 ], [ 74.833616867722768, 34.128349996670131 ], [ 74.833607340626017, 34.12833737848181 ], [ 74.833563515980927, 34.128334223934438 ], [ 74.833542556368073, 34.128422551216325 ], [ 74.833588286432501, 34.128427283032401 ], [ 74.833597813529252, 34.128477755720645 ] ] ] } },
{ "type": "Feature", "properties": { "id": null, "name": "Teacher Quarter 5", "type": "hostel", "department": null, "floor": "2" }, "geometry": { "type": "Polygon", "coordinates": [ [ [ 74.833647354432387, 34.128159146370798 ], [ 74.833746436238684, 34.128167032755343 ], [ 74.833778828367656, 34.127971450201635 ], [ 74.833694989916182, 34.127955677395335 ], [ 74.833672124883975, 34.128006150365152 ], [ 74.833614962303443, 34.128004573085299 ], [ 74.833599718948605, 34.12808028248493 ], [ 74.833641638174342, 34.128094477989819 ], [ 74.833647354432387, 34.128159146370798 ] ] ] } },
{ "type": "Feature", "properties": { "id": null, "name": "NT Quarters 1", "type": "hostel", "department": null, "floor": "1" }, "geometry": { "type": "Polygon", "coordinates": [ [ [ 74.833172210108884, 34.129746274646358 ], [ 74.833376641273247, 34.129766077196535 ], [ 74.83337881607288, 34.129717470928703 ], [ 74.833389690070987, 34.129674265333833 ], [ 74.833183084107006, 34.129645461591643 ], [ 74.833172210108884, 34.129746274646358 ] ] ] } },
{ "type": "Feature", "properties": { "id": null, "name": "NT Quarter 2", "type": "hostel", "department": null, "floor": "1" }, "geometry": { "type": "Polygon", "coordinates": [ [ [ 74.833441885261877, 34.12976247673322 ], [ 74.833657190424361, 34.129789480204437 ], [ 74.833663714823217, 34.129706669532048 ], [ 74.833448409660747, 34.129681466267847 ], [ 74.833441885261877, 34.12976247673322 ] ] ] } },
{ "type": "Feature", "properties": { "id": null, "name": "Prof Quarter 1", "type": "hostel", "department": null, "floor": "1" }, "geometry": { "type": "Polygon", "coordinates": [ [ [ 74.833373925152216, 34.128642246127377 ], [ 74.833287964438085, 34.128633351557255 ], [ 74.833301395799694, 34.128531063933814 ], [ 74.833390042786121, 34.128539958514672 ], [ 74.833384670241486, 34.128577760472908 ], [ 74.833408846692336, 34.128577760472908 ], [ 74.833408846692336, 34.128617786057333 ], [ 74.833381983969161, 34.128615562414254 ], [ 74.833373925152216, 34.128642246127377 ] ] ] } },
{ "type": "Feature", "properties": { "id": null, "name": "Prof Quarter 2", "type": "hostel", "department": null, "floor": "1" }, "geometry": { "type": "Polygon", "coordinates": [ [ [ 74.833314827161274, 34.128459907253188 ], [ 74.833395415330756, 34.128479920075662 ], [ 74.833403474147701, 34.128448789016431 ], [ 74.833427650598537, 34.128448789016431 ], [ 74.833430336870848, 34.128417657945725 ], [ 74.833414219236957, 34.128404316054777 ], [ 74.833419591781592, 34.128350948469901 ], [ 74.83332557225053, 34.128350948469901 ], [ 74.833314827161274, 34.128459907253188 ] ] ] } },
{ "type": "Feature", "properties": { "id": null, "name": "Prof Quarter 3", "type": "hostel", "department": null, "floor": "1" }, "geometry": { "type": "Polygon", "coordinates": [ [ [ 74.83333900361211, 34.128290909896648 ], [ 74.833427650598537, 34.128299804502781 ], [ 74.833433023143172, 34.12827089702941 ], [ 74.833451827049387, 34.128273120681563 ], [ 74.833451827049387, 34.128235318587102 ], [ 74.833441081960132, 34.128235318587102 ], [ 74.833441081960132, 34.12819751647573 ], [ 74.833344376156745, 34.128195292821594 ], [ 74.83333900361211, 34.128290909896648 ] ] ] } },
{ "type": "Feature", "properties": { "id": null, "name": "Prof Quarter 4", "type": "hostel", "department": null, "floor": "1" }, "geometry": { "type": "Polygon", "coordinates": [ [ [ 74.83336049379065, 34.128126359514354 ], [ 74.833449140777077, 34.128139701449165 ], [ 74.833457199594037, 34.128106346608156 ], [ 74.833476003500223, 34.128106346608156 ], [ 74.833481376044872, 34.128068544439117 ], [ 74.833467944683278, 34.128066320781585 ], [ 74.833473317227927, 34.128021847618719 ], [ 74.833371238879906, 34.128015176642279 ], [ 74.83336049379065, 34.128126359514354 ] ] ] } },
{ "type": "Feature", "properties": { "id": null, "name": "Prof Quarter 5", "type": "hostel", "department": null, "floor": "1" }, "geometry": { "type": "Polygon", "coordinates": [ [ [ 74.833371238879906, 34.127981821752137 ], [ 74.833476003500223, 34.127988492731212 ], [ 74.833500179951102, 34.127819494432266 ], [ 74.833403474147701, 34.127799481453437 ], [ 74.833371238879906, 34.127981821752137 ] ] ] } },
{ "type": "Feature", "properties": { "id": null, "name": "NT Quarter", "type": "hostel", "department": null, "floor": "1" }, "geometry": { "type": "Polygon", "coordinates": [ [ [ 74.833576359705731, 34.127618337896976 ], [ 74.833520507435509, 34.127613091491099 ], [ 74.833514565704633, 34.127627847006792 ], [ 74.833470993011602, 34.127627519106476 ], [ 74.833465447396108, 34.127600959176256 ], [ 74.833470026180137, 34.127516194861073 ], [ 74.833586160792535, 34.127528254829805 ], [ 74.833576359705731, 34.127618337896976 ] ] ] } },
{ "type": "Feature", "properties": { "fid": 40, "building_name": "Central Animal House", "departments": null, "type": "academic", "floor": 3 }, "geometry": { "type": "Polygon", "coordinates": [ [ [ 74.833436795095622, 34.134379607805862 ], [ 74.83343797462247, 34.13427904653642 ], [ 74.833229198370219, 34.134267330652584 ], [ 74.833212684994322, 34.134312241531802 ], [ 74.833231557423929, 34.13437277354862 ], [ 74.833436795095622, 34.134379607805862 ] ] ] } },
{ "type": "Feature", "properties": { "fid": 41, "building_name": "Department of Statistics and Earth Science", "departments": "Statistics; Earth Science", "type": "academic", "floor": 2, "image":"statistics.png"}, "geometry": { "type": "Polygon", "coordinates": [ [ [ 74.832597880820956, 34.133721476008233 ], [ 74.83267998204137, 34.133727046308195 ], [ 74.832681327963016, 34.133684712019267 ], [ 74.832729781142277, 34.13369139638209 ], [ 74.832731127063937, 34.133705879166385 ], [ 74.83274593220203, 34.133727046308195 ], [ 74.832776888399891, 34.133725932248232 ], [ 74.832797077224583, 34.133712563527524 ], [ 74.832829379344091, 34.133717019768 ], [ 74.832825341579138, 34.133758239981212 ], [ 74.832908788721198, 34.133763810278751 ], [ 74.832916864251075, 34.133693624502918 ], [ 74.832935707154121, 34.133695852623674 ], [ 74.832935707154121, 34.133708107286822 ], [ 74.833024537982766, 34.133711449467377 ], [ 74.833035305355921, 34.133663544866863 ], [ 74.833058186023919, 34.133668001109911 ], [ 74.83307029931872, 34.133577762142281 ], [ 74.83304741865075, 34.133569963708453 ], [ 74.832950512292228, 34.133559937149627 ], [ 74.832915518329443, 34.133575534018405 ], [ 74.832732472985569, 34.133565507460226 ], [ 74.832732472985569, 34.133537655903517 ], [ 74.832649025843523, 34.133530971528536 ], [ 74.832579037917938, 34.13352205902774 ], [ 74.83259363025202, 34.133676491705806 ], [ 74.832597880820956, 34.133721476008233 ] ] ] } },
{ "type": "Feature", "properties": { "fid": 42, "building_name": "Himalayan Cryospheric Research Lab", "departments": null, "type": "academic", "floor": 1 }, "geometry": { "type": "Polygon", "coordinates": [ [ [ 74.832640950313632, 34.133358291658396 ], [ 74.832513087757249, 34.133347151009495 ], [ 74.832509049992311, 34.133510918400439 ], [ 74.832506358149033, 34.133535427778583 ], [ 74.832453867204848, 34.133534313716098 ], [ 74.832445791674971, 34.133561051211778 ], [ 74.832445791674971, 34.133592244946051 ], [ 74.832499628540788, 34.133596701192857 ], [ 74.832502320384094, 34.133612298054842 ], [ 74.832491553010925, 34.133632351158901 ], [ 74.832468672342955, 34.1336334652201 ], [ 74.832472710107893, 34.13368136983766 ], [ 74.832570962388033, 34.133682483898212 ], [ 74.832573654231339, 34.133674685474041 ], [ 74.83259363025202, 34.133676491705806 ], [ 74.832640950313632, 34.133358291658396 ] ] ] } },
{ "type": "Feature", "properties": { "fid": 43, "building_name": "Directorate of Life Long Learning", "departments": null, "type": "academic", "floor": 1 }, "geometry": { "type": "Polygon", "coordinates": [ [ [ 74.832730111176119, 34.133302284638049 ], [ 74.832777679389338, 34.133302284638049 ], [ 74.832929665631625, 34.133310927676376 ], [ 74.832951709437765, 34.133020905241416 ], [ 74.83274751418098, 34.133012262173452 ], [ 74.832730111176119, 34.133302284638049 ] ] ] } },
{ "type": "Feature", "properties": { "fid": 44, "building_name": "DLL", "departments": null, "type": "academic", "floor": 1 }, "geometry": { "type": "Polygon", "coordinates": [ [ [ 74.83269730295217, 34.132913864941131 ], [ 74.83294520340273, 34.132926176739659 ], [ 74.832951400913998, 34.132885137404308 ], [ 74.832984867474835, 34.132887189371544 ], [ 74.832989825483835, 34.132852305921681 ], [ 74.832961316932028, 34.132848201985439 ], [ 74.832956358922999, 34.132812292534972 ], [ 74.832703500463438, 34.132801006704533 ], [ 74.83269730295217, 34.132913864941131 ] ] ] } },
{ "type": "Feature", "properties": { "fid": 45, "building_name": "Vice Chancellors Sectretariat", "departments": null, "type": "administrative", "floor": 3 }, "geometry": { "type": "Polygon", "coordinates": [ [ [ 74.837295407588257, 34.130886586664992 ], [ 74.838162189729005, 34.13093606843271 ], [ 74.838162189729005, 34.130957274895721 ], [ 74.838281745886349, 34.130960809305705 ], [ 74.838307365062931, 34.130798226293464 ], [ 74.837948696590885, 34.130780554208059 ], [ 74.837436313059413, 34.130759347700717 ], [ 74.837423503471115, 34.130713400249874 ], [ 74.837291137725487, 34.130702796988444 ], [ 74.837295407588257, 34.130886586664992 ] ] ] } },
{ "type": "Feature", "properties": { "fid": 46, "building_name": "New Administration Block", "departments": null, "type": "administrative", "floor": 3 }, "geometry": { "type": "Polygon", "coordinates": [ [ [ 74.837781474097014, 34.13069095727441 ], [ 74.837824594823118, 34.130697649825663 ], [ 74.837870410594576, 34.130699880675969 ], [ 74.837883885821483, 34.130686495573279 ], [ 74.837902751139154, 34.13066418706407 ], [ 74.837921616456825, 34.13068872642387 ], [ 74.83794856691064, 34.13069095727441 ], [ 74.837959347092166, 34.13065303280726 ], [ 74.838177645768013, 34.13067311046845 ], [ 74.838180340813381, 34.130717727476267 ], [ 74.838215376403312, 34.130722189175756 ], [ 74.83826388722018, 34.130724420025409 ], [ 74.838288142628613, 34.130583876382197 ], [ 74.83834204353623, 34.130601723206972 ], [ 74.838352823717742, 34.130577183821927 ], [ 74.838371689035412, 34.130554875283877 ], [ 74.838293532719362, 34.130516950755663 ], [ 74.838277362447101, 34.130494642201718 ], [ 74.838298922810139, 34.130472333641883 ], [ 74.838331263354704, 34.130300557533936 ], [ 74.838037503408202, 34.130276018061444 ], [ 74.838002467818242, 34.130443332505294 ], [ 74.838166865586487, 34.130463410216301 ], [ 74.838166865586487, 34.130559336991951 ], [ 74.837778779051632, 34.130543721012636 ], [ 74.837781474097014, 34.13069095727441 ] ] ] } },
{ "type": "Feature", "properties": { "fid": 47, "building_name": "Directorate of Physical Education & Sports", "departments": "Gymnasium", "type": "academic", "floor": 3,"image":"gym.png" }, "geometry": { "type": "Polygon", "coordinates": [ [ [ 74.838199206131051, 34.130115395883777 ], [ 74.838366298944663, 34.130139935402894 ], [ 74.838382469216938, 34.130088625491155 ], [ 74.838433675079187, 34.130090856357533 ], [ 74.838449845351462, 34.130019468604324 ], [ 74.838404029579991, 34.13000831426244 ], [ 74.838395944443832, 34.129957004270807 ], [ 74.838210132860567, 34.12992244130912 ], [ 74.83819826868843, 34.130029487692049 ], [ 74.838199206131051, 34.130115395883777 ] ] ] } },
{ "type": "Feature", "properties": { "fid": 48, "building_name": "Directorate of Physical Education & Sports", "departments": "Physical Education & Sports", "type": "academic", "floor": 2,"image":"sports.png"}, "geometry": { "type": "Polygon", "coordinates": [ [ [ 74.838533391758261, 34.129892309019567 ], [ 74.838668144027309, 34.129925772086743 ], [ 74.83868700934498, 34.12990346337677 ], [ 74.838800201250962, 34.12993692643952 ], [ 74.838862187294723, 34.129796381486955 ], [ 74.838474100759882, 34.129707146475162 ], [ 74.838425589943043, 34.129836537211531 ], [ 74.838538781849024, 34.129867769428579 ], [ 74.838533391758261, 34.129892309019567 ] ] ] } },
{ "type": "Feature", "properties": { "fid": 49, "building_name": "Hospitality & Tourism Building", "departments": "Hospitality & Tourism; Yoga Centre; Physiotherapy Lab", "type": "academic", "floor": 1 }, "geometry": { "type": "Polygon", "coordinates": [ [ [ 74.838603462938153, 34.130068547691145 ], [ 74.838665448981928, 34.130084163758234 ], [ 74.838665448981928, 34.130097548956314 ], [ 74.838757080524871, 34.130117626749445 ], [ 74.83876516566103, 34.130102010688539 ], [ 74.838786726024068, 34.130106472420515 ], [ 74.838802896296329, 34.130104241554555 ], [ 74.838829846750144, 34.13011985761505 ], [ 74.838862187294723, 34.130104241554555 ], [ 74.838862187294723, 34.130090856357533 ], [ 74.838854102158592, 34.130052931621151 ], [ 74.838867577385471, 34.130019468604324 ], [ 74.838854102158592, 34.129983774705103 ], [ 74.838816371523251, 34.129983774705103 ], [ 74.838816371523251, 34.130003852525263 ], [ 74.838708569708018, 34.129977082097327 ], [ 74.838708569708018, 34.129977082097327 ], [ 74.838700484571874, 34.129994929050241 ], [ 74.838630413391968, 34.129983774705103 ], [ 74.838603462938153, 34.130068547691145 ] ] ] } },
{ "type": "Feature", "properties": { "fid": 50, "building_name": "The Business School", "departments": "Management Studies", "type": "academic", "floor": 2 }, "geometry": { "type": "Polygon", "coordinates": [ [ [ 74.83666365798527, 34.134484506931038 ], [ 74.836703542054579, 34.134489585846538 ], [ 74.836703542054579, 34.134459112349006 ], [ 74.836721950086556, 34.134459112349006 ], [ 74.836721950086556, 34.134479428015247 ], [ 74.836906030406453, 34.134487046388827 ], [ 74.836915234422449, 34.134398165320981 ], [ 74.836988866550413, 34.134395625860535 ], [ 74.837007274582405, 34.134273731668983 ], [ 74.836927506443786, 34.134263573811758 ], [ 74.836930574449099, 34.134161995172292 ], [ 74.836678998011919, 34.134151837301623 ], [ 74.836675930006592, 34.134187389843611 ], [ 74.836574685830641, 34.134182310909964 ], [ 74.836562413809318, 34.134248337023621 ], [ 74.836590025857291, 34.134255955418027 ], [ 74.836590025857291, 34.134342297173369 ], [ 74.836553209793323, 34.134354994482891 ], [ 74.836553209793323, 34.134423559921338 ], [ 74.836666725990582, 34.134436257218653 ], [ 74.83666365798527, 34.134484506931038 ] ] ] } },
{ "type": "Feature", "properties": { "fid": 51, "building_name": "Social Sciences Building", "departments": "Political Science; Sociology; Central Asian Studies", "type": "academic", "floor": 2,"image":"political.png"}, "geometry": { "type": "Polygon", "coordinates": [ [ [ 74.838624299256352, 34.134657129314384 ], [ 74.838778078922587, 34.134666920596047 ], [ 74.838782021990966, 34.134644074270426 ], [ 74.839085638255085, 34.13466365683562 ], [ 74.839081695186721, 34.134693030674903 ], [ 74.839239417921334, 34.134712613228743 ], [ 74.839255190194777, 34.134552688906183 ], [ 74.838778078922587, 34.134510259953487 ], [ 74.838778078922587, 34.134484149818171 ], [ 74.838640071529824, 34.134484149818171 ], [ 74.838624299256352, 34.134657129314384 ] ] ] } },
{ "type": "Feature", "properties": { "fid": 52, "building_name": "Zabarwan Guest House", "departments": null, "type": "hostel", "floor": 1 }, "geometry": { "type": "Polygon", "coordinates": [ [ [ 74.839866067969098, 34.133940416316406 ], [ 74.839816325426284, 34.133940416316406 ], [ 74.83976396485491, 34.133936082284755 ], [ 74.839740402597812, 34.134157117615302 ], [ 74.839753492740655, 34.134167952665656 ], [ 74.839748256683521, 34.134306641187592 ], [ 74.839792763169172, 34.134310975200229 ], [ 74.839795381197732, 34.134339146276986 ], [ 74.839782291054917, 34.134349981304013 ], [ 74.839771818940633, 34.134475667515957 ], [ 74.839973407140405, 34.134497337533624 ], [ 74.839978643197554, 34.134529842549689 ], [ 74.840038857854623, 34.134547178553149 ], [ 74.840020531654659, 34.134590518546233 ], [ 74.840112162654563, 34.134601353541015 ], [ 74.840117398711698, 34.134542844552605 ], [ 74.840078128283167, 34.134536343551403 ], [ 74.840072892226019, 34.134510339541542 ], [ 74.84031898691147, 34.134523341547478 ], [ 74.840305896768626, 34.134696701435331 ], [ 74.840428944111352, 34.134705369420409 ], [ 74.84044988833989, 34.13462519052468 ], [ 74.840457742425627, 34.134558013553509 ], [ 74.840470832568457, 34.134447496484711 ], [ 74.840088600397436, 34.134408490425933 ], [ 74.839871304026246, 34.134382486376751 ], [ 74.83985297782624, 34.134382486376751 ], [ 74.839866067969098, 34.133940416316406 ] ] ] } },
{ "type": "Feature", "properties": { "fid": 53, "building_name": "Population Research Centre", "departments": null, "type": "academic", "floor": 1 }, "geometry": { "type": "Polygon", "coordinates": [ [ [ 74.838089902218343, 34.134681935999915 ], [ 74.838271286788938, 34.134695281402031 ], [ 74.838279348325401, 34.134615208957776 ], [ 74.838287409861891, 34.134555154574791 ], [ 74.838089902218343, 34.134545145506806 ], [ 74.838081840681852, 34.13460853625066 ], [ 74.838089902218343, 34.134681935999915 ] ] ] } },
{ "type": "Feature", "properties": { "fid": 54, "building_name": "Commerce & Management Studies Building", "departments": "Commerce; Tourism, Hospitality & Leisure Studies; Management Studies", "type": "academic", "floor": 2,"image":"commerce.png"}, "geometry": { "type": "Polygon", "coordinates": [ [ [ 74.837393176942214, 34.134396655753783 ], [ 74.837594324536354, 34.134408988687227 ], [ 74.837621640876307, 34.134337046550101 ], [ 74.83767130694892, 34.134341157531004 ], [ 74.83767130694892, 34.134347324002022 ], [ 74.837743322754235, 34.134349379492249 ], [ 74.837765672486924, 34.134328824587669 ], [ 74.837765672486924, 34.134226049989863 ], [ 74.837822788470447, 34.134223994496629 ], [ 74.83783768829224, 34.134176718138498 ], [ 74.837892320972131, 34.134172607149573 ], [ 74.837892320972131, 34.134178773632883 ], [ 74.837966820081064, 34.134186995609895 ], [ 74.837991653117385, 34.134154107697015 ], [ 74.837996619724649, 34.134069832361796 ], [ 74.8380636689227, 34.134057499378862 ], [ 74.838081052048125, 34.133975279446645 ], [ 74.837996619724649, 34.133958835450606 ], [ 74.837996619724649, 34.133886892930313 ], [ 74.837889837668499, 34.13385400490062 ], [ 74.837852588114032, 34.133876615422395 ], [ 74.83783768829224, 34.133938280451048 ], [ 74.8378501048104, 34.134020500419268 ], [ 74.837827755077711, 34.134045166394131 ], [ 74.837740839450618, 34.134049277389231 ], [ 74.837735872843353, 34.134041055398818 ], [ 74.837621640876307, 34.134030777909665 ], [ 74.837609224358161, 34.134110942291898 ], [ 74.837626607483571, 34.134119164275525 ], [ 74.837639024001717, 34.13421166153617 ], [ 74.837601774447251, 34.134217828016617 ], [ 74.837594324536354, 34.13421166153617 ], [ 74.83737827712045, 34.134201384067772 ], [ 74.837393176942214, 34.134396655753783 ] ] ] } },
{ "type": "Feature", "properties": { "fid": 55, "building_name": "Career Planning & Nanotechnology Building", "departments": "Career Planning & Counseling Centre (CCPC); Nanotechnology", "type": "academic", "floor": 2, "image": "ccpc.png"}, "geometry": { "type": "Polygon", "coordinates": [ [ [ 74.835407835958762, 34.129541548083516 ], [ 74.835571501901725, 34.12955914262033 ], [ 74.835588506155545, 34.129499321180212 ], [ 74.835679904019784, 34.129509877908006 ], [ 74.835682029551492, 34.129552104806038 ], [ 74.835658648702534, 34.12955386425967 ], [ 74.835656523170798, 34.129585534418673 ], [ 74.835682029551492, 34.129590812777359 ], [ 74.835682029551492, 34.129610166756379 ], [ 74.835733042312953, 34.129611926208796 ], [ 74.835737293376397, 34.129592572230187 ], [ 74.835781929542662, 34.129597850588432 ], [ 74.835781929542662, 34.129574977700337 ], [ 74.835750046566787, 34.129569699340649 ], [ 74.835750046566787, 34.129516915725816 ], [ 74.835798933796497, 34.1295204346345 ], [ 74.835796808264774, 34.129567939887366 ], [ 74.835945595485626, 34.129583774965717 ], [ 74.835981729525002, 34.129360324141217 ], [ 74.83584144443104, 34.129342729563028 ], [ 74.835599133814171, 34.129323375522773 ], [ 74.83542696574429, 34.129319856605889 ], [ 74.835407835958762, 34.129541548083516 ] ] ] } },
{ "type": "Feature", "properties": { "fid": 56, "building_name": "Biological Sciences Administration Block", "departments": "Dean, School of Biological Sciences; J&K SET Office", "type": "administrative", "floor": 1 }, "geometry": { "type": "Polygon", "coordinates": [ [ [ 74.835129391302544, 34.129494042815821 ], [ 74.835197408317811, 34.129492283360953 ], [ 74.835214412571631, 34.12939727274351 ], [ 74.835371701919399, 34.129406070027386 ], [ 74.83537595298283, 34.129367361971468 ], [ 74.835386580641483, 34.129337451188846 ], [ 74.835225040230256, 34.129328653897829 ], [ 74.835222914698534, 34.129300502560405 ], [ 74.835116638112183, 34.129298743101515 ], [ 74.835129391302544, 34.129494042815821 ] ] ] } },
{ "type": "Feature", "properties": { "fid": 57, "building_name": "Boys Hostel Proctor Office", "departments": null, "type": "administrative", "floor": 1 }, "geometry": { "type": "Polygon", "coordinates": [ [ [ 74.835896708255916, 34.129323375522773 ], [ 74.836000859310545, 34.129328653897829 ], [ 74.836009361437448, 34.129260034996442 ], [ 74.836032742286434, 34.129258275536699 ], [ 74.836041244413352, 34.129235402556709 ], [ 74.836102884833437, 34.129240680937272 ], [ 74.836128391214132, 34.128962685780138 ], [ 74.836024240159546, 34.128950369517852 ], [ 74.835954097612543, 34.128957407382238 ], [ 74.835947721017362, 34.129047140101775 ], [ 74.836007235905726, 34.129057696886036 ], [ 74.836081629516144, 34.12906825366899 ], [ 74.836075252920978, 34.12914567003704 ], [ 74.835835067835831, 34.129147429499113 ], [ 74.835826565708942, 34.129203732266525 ], [ 74.835886080597291, 34.129209010649056 ], [ 74.835894582724194, 34.129210770109822 ], [ 74.835896708255916, 34.129323375522773 ] ] ] } },
{ "type": "Feature", "properties": { "fid": 58, "building_name": "Gani Kashmiri Residential Hostel", "departments": null, "type": "hostel", "floor": 2 ,"image":"ganiKashmiri.png"}, "geometry": { "type": "Polygon", "coordinates": [ [ [ 74.835995325446973, 34.128940238925644 ], [ 74.836042789051973, 34.128938115180596 ], [ 74.836112060259296, 34.12894448641557 ], [ 74.836122322660387, 34.128788391020265 ], [ 74.836091535457129, 34.128779896024483 ], [ 74.836103080658361, 34.128680079760244 ], [ 74.835868328233531, 34.128653532861605 ], [ 74.835858065832468, 34.128707688525971 ], [ 74.835868328233531, 34.128755472906896 ], [ 74.835976083444933, 34.128763967905122 ], [ 74.835979931845344, 34.128753349157215 ], [ 74.835992759846675, 34.12875441103207 ], [ 74.835991477046548, 34.128779896024483 ], [ 74.83599917384737, 34.128779896024483 ], [ 74.835995325446973, 34.128940238925644 ] ] ] } },
{ "type": "Feature", "properties": { "fid": 59, "building_name": "Lal Ded Girls Hostel", "departments": null, "type": "hostel", "floor": 3 ,"image":"ld.png"}, "geometry": { "type": "Polygon", "coordinates": [ [ [ 74.833621146170174, 34.127816211659898 ], [ 74.833919003436947, 34.127866111236735 ], [ 74.834103391268769, 34.127874917041353 ], [ 74.834121120867991, 34.127772182597063 ], [ 74.834153034146553, 34.127637159994698 ], [ 74.833660151288427, 34.127587260282738 ], [ 74.833656605368589, 34.127622483611887 ], [ 74.833628238009865, 34.127631289441887 ], [ 74.833603416570938, 34.127775117868637 ], [ 74.833624692090012, 34.127780988411473 ], [ 74.833621146170174, 34.127816211659898 ] ] ] } },
{ "type": "Feature", "properties": { "fid": 60, "building_name": "Techers Quarter Block A", "departments": null, "type": "hostel", "floor": 2 }, "geometry": { "type": "Polygon", "coordinates": [ [ [ 74.835085611065182, 34.128312270849946 ], [ 74.83524872337793, 34.128318141355471 ], [ 74.835241631538238, 34.128265306791015 ], [ 74.835262907057313, 34.128209536937142 ], [ 74.835082065145315, 34.128180184367714 ], [ 74.835085611065182, 34.128312270849946 ] ] ] } },
{ "type": "Feature", "properties": { "fid": 61, "building_name": "Teachers Quarter Block B", "departments": null, "type": "hostel", "floor": 2 }, "geometry": { "type": "Polygon", "coordinates": [ [ [ 74.835387014251793, 34.128329882365314 ], [ 74.835557218404247, 34.128332817617512 ], [ 74.835557218404247, 34.128285853570006 ], [ 74.835564310243939, 34.128224213218061 ], [ 74.835383468331955, 34.128209536937142 ], [ 74.835387014251793, 34.128329882365314 ] ] ] } },
{ "type": "Feature", "properties": { "fid": 62, "building_name": "Teachers Quarter Block C", "departments": null, "type": "hostel", "floor": 2 }, "geometry": { "type": "Polygon", "coordinates": [ [ [ 74.835110432504081, 34.12790426971678 ], [ 74.83528063665652, 34.127910140250648 ], [ 74.835284182576359, 34.127863175968315 ], [ 74.835301912175581, 34.127801535308166 ], [ 74.835117524343772, 34.127786858953897 ], [ 74.835110432504081, 34.12790426971678 ] ] ] } },
{ "type": "Feature", "properties": { "fid": 63, "building_name": "Teachers Quarter Block D", "departments": null, "type": "hostel", "floor": 2 }, "geometry": { "type": "Polygon", "coordinates": [ [ [ 74.835426019370061, 34.127910140250648 ], [ 74.835599769442354, 34.127927751849803 ], [ 74.835582039843146, 34.127877852309361 ], [ 74.835613953121722, 34.127810341119513 ], [ 74.835411835690707, 34.127795664766765 ], [ 74.835426019370061, 34.127910140250648 ] ] ] } },
{ "type": "Feature", "properties": { "fid": 64, "building_name": "Centre for Women’s Studies & Research", "departments": "Women’s Studies", "type": "academic", "floor": 1 }, "geometry": { "type": "Polygon", "coordinates": [ [ [ 74.836215536600733, 34.137927596788408 ], [ 74.836111628475919, 34.13792482247819 ], [ 74.836114980350899, 34.137647390996825 ], [ 74.836212184725724, 34.137658488273573 ], [ 74.836218888475713, 34.13765571395453 ], [ 74.836215536600733, 34.137927596788408 ] ] ] } },
{ "type": "Feature", "properties": { "fid": 65, "building_name": "Shah-i-Hamadan Institute of Islamic Studies", "departments": "Islamic Studies; Psychology", "type": "academic", "floor": 1 }, "geometry": { "type": "Polygon", "coordinates": [ [ [ 74.836828929724632, 34.138413099673237 ], [ 74.83617866597578, 34.138368710953912 ], [ 74.836215090696754, 34.13794826199338 ], [ 74.83676934168399, 34.137982011791742 ], [ 74.836797058920325, 34.137984533509268 ], [ 74.836893512117172, 34.137993308832279 ], [ 74.836828929724632, 34.138413099673237 ] ] ] } },
{ "type": "Feature", "properties": { "fid": 66, "building_name": "Women's Studies Centre", "departments": null, "type": "academic", "floor": 1 }, "geometry": { "type": "Polygon", "coordinates": [ [ [ 74.836950742849865, 34.137801767698896 ], [ 74.836806641433384, 34.137793635561714 ], [ 74.836797058920325, 34.137984533509268 ], [ 74.836934367688897, 34.137988806637935 ], [ 74.836950742849865, 34.137801767698896 ] ] ] } },
{ "type": "Feature", "properties": { "fid": 67, "building_name": "KU Model High School Block A", "departments": null, "type": "academic", "floor": 1 }, "geometry": { "type": "Polygon", "coordinates": [ [ [ 74.836232853869063, 34.138956655455644 ], [ 74.836177393572783, 34.138956655455644 ], [ 74.836216215780183, 34.138566476335519 ], [ 74.83630495225421, 34.138566476335519 ], [ 74.836232853869063, 34.138956655455644 ] ] ] } },
{ "type": "Feature", "properties": { "fid": 68, "building_name": "KU Model High School Block B", "departments": null, "type": "academic", "floor": 1 }, "geometry": { "type": "Polygon", "coordinates": [ [ [ 74.836555106078833, 34.138980326402965 ], [ 74.836616506416576, 34.138984946380383 ], [ 74.836640428626083, 34.138806087070201 ], [ 74.836658333040546, 34.138645299319599 ], [ 74.836581344058303, 34.138642335487219 ], [ 74.836555106078833, 34.138980326402965 ] ] ] } },
{ "type": "Feature", "properties": { "fid": 69, "building_name": "KU Model High School Block C", "departments": null, "type": "academic", "floor": 1 }, "geometry": { "type": "Polygon", "coordinates": [ [ [ 74.836192704475067, 34.138992897486148 ], [ 74.836102973818285, 34.138984409697827 ], [ 74.836090155153045, 34.139283603721772 ], [ 74.836182449542846, 34.139289969540556 ], [ 74.836192704475067, 34.138992897486148 ] ] ] } },
{ "type": "Feature", "properties": { "fid": 70, "building_name": "Shri Pran Kishen Kaul Institute of Music & Fine Arts", "departments": "Santoor (Indian Classical); Vocal (Indian Classical)", "type": "academic", "floor": 1 }, "geometry": { "type": "Polygon", "coordinates": [ [ [ 74.836215778072528, 34.139746185304894 ], [ 74.836249106602168, 34.139741941448676 ], [ 74.836326018593695, 34.139746185304894 ], [ 74.83633883725895, 34.139644332696669 ], [ 74.836766980678377, 34.139682527439135 ], [ 74.836769544411439, 34.139578552821931 ], [ 74.836223469271658, 34.139540358032455 ], [ 74.836215778072528, 34.139746185304894 ] ] ] } },
{ "type": "Feature", "properties": { "fid": 71, "building_name": "Institute for Music & Fine Arts", "departments": "Applied Arts; Sculpture; Painting", "type": "academic", "floor": 1,"image":"fineArts.png"}, "geometry": { "type": "Polygon", "coordinates": [ [ [ 74.837006052314806, 34.139674498398648 ], [ 74.837099332426007, 34.139674498398648 ], [ 74.83712536408494, 34.139247174800268 ], [ 74.837027745363912, 34.139223833533073 ], [ 74.837006052314806, 34.139674498398648 ] ] ] } },
{ "type": "Feature", "properties": { "fid": 72, "building_name": "Music Studies Building", "departments": "Sufiyana Santoor; Tabla; Vocal", "type": "academic", "floor": 1 }, "geometry": { "type": "Polygon", "coordinates": [ [ [ 74.837270707514037, 34.139667316507278 ], [ 74.837340125271211, 34.13966911198019 ], [ 74.837374834149784, 34.139254356727321 ], [ 74.837281554038583, 34.139238197390576 ], [ 74.837270707514037, 34.139667316507278 ] ] ] } },
{ "type": "Feature", "properties": { "fid": 73, "building_name": "NSS Office", "departments": "National Service Scheme Office", "type": "administrative", "floor": 1 }, "geometry": { "type": "Polygon", "coordinates": [ [ [ 74.837135151057552, 34.137712979792688 ], [ 74.837355901407577, 34.137726683274629 ], [ 74.837375217063197, 34.137573660933363 ], [ 74.837132391678196, 34.137564525262427 ], [ 74.837135151057552, 34.137712979792688 ] ] ] } },
{ "type": "Feature", "properties": { "fid": 74, "building_name": "Centre Of Research For Development", "departments": null, "type": "academic", "floor": 1 ,"image":"centreOfResearch.png"}, "geometry": { "type": "Polygon", "coordinates": [ [ [ 74.838094485778868, 34.137753924148335 ], [ 74.838583412614213, 34.137781594585562 ], [ 74.838608485785244, 34.137736630120472 ], [ 74.838608485785244, 34.137688206823611 ], [ 74.838123737811742, 34.13764670111852 ], [ 74.838115380088084, 34.137695124439155 ], [ 74.838094485778868, 34.137753924148335 ] ] ] } },
{ "type": "Feature", "properties": { "fid": 75, "building_name": "Centre for Research & Development & Microbiology", "departments": "Research & Development; Microbiology", "type": "academic", "floor": 1,"image":"Micro.png"}, "geometry": { "type": "Polygon", "coordinates": [ [ [ 74.838286713423528, 34.137999498962074 ], [ 74.838403721555068, 34.138013334141618 ], [ 74.838416258140583, 34.137964911003323 ], [ 74.838428794726113, 34.137926864232348 ], [ 74.838311786594588, 34.13791648783728 ], [ 74.838286713423528, 34.137999498962074 ] ] ] } },
{ "type": "Feature", "properties": { "fid": 76, "building_name": "Cytogenetics & Molecular Biology Lab", "departments": "Cytogenetics; Molecular Biology", "type": "academic", "floor": 1 ,"image":"cord.png"}, "geometry": { "type": "Polygon", "coordinates": [ [ [ 74.838095162129008, 34.138137814713659 ], [ 74.838012843429894, 34.138142356987856 ], [ 74.837990891776784, 34.138455773318221 ], [ 74.838067722562641, 34.138469400088816 ], [ 74.838095162129008, 34.138137814713659 ] ] ] } },
{ "type": "Feature", "properties": { "fid": 77, "building_name": "Kashmir University Alumini Association", "departments": "UGC–Malaviya Mission Training Centre Library; Alumini Association", "type": "academic", "floor": 1 }, "geometry": { "type": "Polygon", "coordinates": [ [ [ 74.838067722562656, 34.13874193503942 ], [ 74.83794698847062, 34.138746477281153 ], [ 74.837930524730794, 34.13914619359727 ], [ 74.838045770909545, 34.139150735817253 ], [ 74.838067722562656, 34.13874193503942 ] ] ] } },
{ "type": "Feature", "properties": { "fid": 78, "building_name": "Law", "departments": "law", "type": "academic", "floor": 2 }, "geometry": { "type": "Polygon", "coordinates": [ [ [ 74.83749716916796, 34.135425721724204 ], [ 74.837849959114649, 34.135442126723412 ], [ 74.837853923046652, 34.135333853669813 ], [ 74.837798427998848, 34.135320729653891 ], [ 74.837790500134872, 34.13525839055044 ], [ 74.837869778774589, 34.135248547529898 ], [ 74.837865814842573, 34.135186208373192 ], [ 74.838004552462081, 34.135202613418883 ], [ 74.837996624598105, 34.135038562818636 ], [ 74.837853923046652, 34.135035281803376 ], [ 74.8378380673187, 34.135002471643844 ], [ 74.837754824747009, 34.13499590961041 ], [ 74.837750860815021, 34.135022157741091 ], [ 74.837635906787455, 34.135028719772492 ], [ 74.837612123195541, 34.135002471643844 ], [ 74.837520952759888, 34.134999190627184 ], [ 74.837505097031951, 34.135045124848759 ], [ 74.837461493780111, 34.13505168687837 ], [ 74.837457529848123, 34.135159960293443 ], [ 74.8375169888279, 34.135166522314144 ], [ 74.837532844555838, 34.135235423500731 ], [ 74.837520952759888, 34.135268233569825 ], [ 74.8375169888279, 34.135320729653891 ], [ 74.837481313440023, 34.135333853669813 ], [ 74.83749716916796, 34.135425721724204 ] ] ] } },
{ "type": "Feature", "properties": { "fid": 79, "building_name": "School Of Law", "departments": "law", "type": "academic", "floor": 2,"image":"law.png"}, "geometry": { "type": "Polygon", "coordinates": [ [ [ 74.837750860815021, 34.13473342785516 ], [ 74.837901490230465, 34.134785924271419 ], [ 74.83793320168634, 34.134510317722253 ], [ 74.837818247658774, 34.134513598757884 ], [ 74.83769932969922, 34.134503755650606 ], [ 74.837687437903256, 34.134585781509593 ], [ 74.837758788678997, 34.134592343574873 ], [ 74.837750860815021, 34.13473342785516 ] ] ] } },
{ "type": "Feature", "properties": { "fid": 80, "building_name": "Institute of Kashmiri Studies", "departments": "Kashmiri Studies; Anthropology", "type": "academic", "floor": 1 }, "geometry": { "type": "Polygon", "coordinates": [ [ [ 74.838159895620393, 34.135460787667476 ], [ 74.838159895620393, 34.1355242707439 ], [ 74.838696774464353, 34.135554145116309 ], [ 74.838746401920531, 34.134814751295593 ], [ 74.838642635421252, 34.134814751295593 ], [ 74.838620077486652, 34.135442116165343 ], [ 74.838615565899715, 34.135457053367389 ], [ 74.838159895620393, 34.135460787667476 ] ] ] } },
{ "type": "Feature", "properties": { "fid": 81, "building_name": "NewGen IEDC Incubation Centre", "departments": "Innovation & Entrepreneurship Development Centre (IEDC)", "type": "academic", "floor": 1 }, "geometry": { "type": "Polygon", "coordinates": [ [ [ 74.838132826098857, 34.136132958997202 ], [ 74.838606542725884, 34.136144161807408 ], [ 74.838624589073561, 34.135714719687044 ], [ 74.838552403682783, 34.135699782530544 ], [ 74.838453148770455, 34.136017196538177 ], [ 74.83812831451192, 34.136017196538177 ], [ 74.838132826098857, 34.136132958997202 ] ] ] } },
{ "type": "Feature", "properties": { "fid": 82, "building_name": "Social Work Building A", "departments": "social work", "type": "academic", "floor": 1,"image":"socialwork.png" }, "geometry": { "type": "Polygon", "coordinates": [ [ [ 74.837740318036452, 34.136151630346703 ], [ 74.837650086297955, 34.136155364616123 ], [ 74.837672644232583, 34.135770734000417 ], [ 74.837767387558003, 34.135789405429961 ], [ 74.837740318036452, 34.136151630346703 ] ] ] } },
{ "type": "Feature", "properties": { "fid": 83, "building_name": "Social Work Block B", "departments": "social work", "type": "academic", "floor": 1 }, "geometry": { "type": "Polygon", "coordinates": [ [ [ 74.838191476728866, 34.136976899874384 ], [ 74.838096733403461, 34.13698063410731 ], [ 74.83812831451192, 34.13652879072356 ], [ 74.838227569424262, 34.136517587964335 ], [ 74.838191476728866, 34.136976899874384 ] ] ] } },
{ "type": "Feature", "properties": { "fid": 84, "building_name": "Students Welfare Centre", "departments": "DSW Office; Public Relations (PRC); Special Cell; Equal Opportunity Cell; Students Grievance Cell", "type": "administrative", "floor": 1 ,"image":"studentWelfare.png"}, "geometry": { "type": "Polygon", "coordinates": [ [ [ 74.840524421479955, 34.131505736911443 ], [ 74.84056429246219, 34.131505736911443 ], [ 74.84056429246219, 34.131516237955168 ], [ 74.840596914174924, 34.131520738402088 ], [ 74.840625911252914, 34.1315267389976 ], [ 74.840651283696147, 34.131529739295189 ], [ 74.840702028582612, 34.131534239741384 ], [ 74.840721964073751, 34.131534239741384 ], [ 74.840721964073751, 34.131523738699883 ], [ 74.840769084325473, 34.131531239443952 ], [ 74.84077633359496, 34.131529739295189 ], [ 74.840796269086084, 34.131529739295189 ], [ 74.84088507263742, 34.131535739890055 ], [ 74.840894134224285, 34.13149523586641 ], [ 74.840912257398031, 34.131451731523107 ], [ 74.840743711882212, 34.131433729719312 ], [ 74.840740087247482, 34.131405226855492 ], [ 74.840709277852127, 34.131402226553476 ], [ 74.840703840899991, 34.131417228062489 ], [ 74.840676656139379, 34.131414227760892 ], [ 74.840651283696147, 34.131402226553476 ], [ 74.840578791001178, 34.131399226251361 ], [ 74.840540732336322, 34.131414227760892 ], [ 74.840524421479955, 34.131505736911443 ] ] ] } },
{ "type": "Feature", "properties": { "fid": 85, "building_name": "Students Counselling & Public Relations Centre", "departments": "Counselling & Guidance Cell; Public Relations", "type": "adminstrative", "floor": 1 }, "geometry": { "type": "Polygon", "coordinates": [ [ [ 74.840436980507548, 34.131644888528783 ], [ 74.840578929704421, 34.131666366751524 ], [ 74.840595719394372, 34.131603195492552 ], [ 74.840447664855702, 34.131580453827759 ], [ 74.840436980507548, 34.131644888528783 ] ] ] } },
{ "type": "Feature", "properties": { "fid": 86, "building_name": "UGC Teacher Training Centre", "departments": null, "type": "academic", "floor": 1 }, "geometry": { "type": "Polygon", "coordinates": [ [ [ 74.837173334155338, 34.13835893882834 ], [ 74.837299424931985, 34.138373847887053 ], [ 74.837312934658058, 34.138247120804216 ], [ 74.837236379543654, 34.138202393553122 ], [ 74.837173334155338, 34.13835893882834 ] ] ] } },
{ "type": "Feature", "properties": { "fid": 87, "building_name": "The Kongposh Cafeq", "departments": null, "type": "cafe", "floor": 1 }, "geometry": { "type": "Polygon", "coordinates": [ [ [ 74.835495474902856, 34.133937109929164 ], [ 74.835545140586689, 34.133936253477437 ], [ 74.835588598060056, 34.133911416373472 ], [ 74.835603083884536, 34.133860029238633 ], [ 74.835555487604168, 34.133830053395542 ], [ 74.835505159630912, 34.133832365735039 ], [ 74.835460086698134, 34.133850454547598 ], [ 74.835457355005218, 34.133897937662177 ], [ 74.835495474902856, 34.133937109929164 ] ] ] } },
{ "type": "Feature", "properties": { "fid": 88, "building_name": "Old Cafe", "departments": null, "type": "cafe", "floor": 1 }, "geometry": { "type": "Polygon", "coordinates": [ [ [ 74.835561159335256, 34.133816538020859 ], [ 74.835623305348633, 34.133821625500737 ], [ 74.835630817504097, 34.133770750688164 ], [ 74.835562525181714, 34.13376509792932 ], [ 74.835561159335256, 34.133816538020859 ] ] ] } },
{ "type": "Feature", "properties": { "fid": 89, "building_name": "Boni Shejar", "departments": null, "type": "cafe", "floor": 1 }, "geometry": { "type": "Polygon", "coordinates": [ [ [ 74.834036730122151, 34.133851686329884 ], [ 74.834077262669879, 34.133818136360013 ], [ 74.834077262669879, 34.13377813445544 ], [ 74.834046083787015, 34.133743294071536 ], [ 74.833988402853763, 34.133743294071536 ], [ 74.833952547138466, 34.133756197919105 ], [ 74.83398372602133, 34.133851686329884 ], [ 74.834036730122151, 34.133851686329884 ] ] ] } },
{ "type": "Feature", "properties": { "fid": 90, "building_name": "Mirs Chai", "departments": null, "type": "cafe", "floor": 1 }, "geometry": { "type": "Polygon", "coordinates": [ [ [ 74.837168648904552, 34.139869819294155 ], [ 74.837171766792835, 34.139766595926204 ], [ 74.837302718100801, 34.139787240609884 ], [ 74.837265303441384, 34.139872399876737 ], [ 74.837168648904552, 34.139869819294155 ] ] ] } },
{ "type": "Feature", "properties": { "fid": 91, "building_name": "The Law Cafe", "departments": null, "type": "cafe", "floor": 1 }, "geometry": { "type": "Polygon", "coordinates": [ [ [ 74.837910859491302, 34.134369738318242 ], [ 74.837988274409696, 34.134383330657627 ], [ 74.838042230261948, 34.134354204213423 ], [ 74.838042230261948, 34.13429012600087 ], [ 74.837976544876611, 34.134257115993634 ], [ 74.837906167678042, 34.134284300706419 ], [ 74.837910859491302, 34.134369738318242 ] ] ] } },
{ "type": "Feature", "properties": { "fid": 92, "building_name": "Photosate Shops", "departments": null, "type": "shop", "floor": 1 }, "geometry": { "type": "Polygon", "coordinates": [ [ [ 74.836790587638774, 34.127833853304679 ], [ 74.836720686115996, 34.127826909668364 ], [ 74.836712297933275, 34.127910233266455 ], [ 74.836773811273318, 34.127921805981927 ], [ 74.836771015212406, 34.127972725911143 ], [ 74.836896837953404, 34.127995871323364 ], [ 74.836922002501609, 34.127854684210192 ], [ 74.83686048916158, 34.127850055120518 ], [ 74.836840916735198, 34.127928749610433 ], [ 74.836779403395127, 34.127924120524831 ], [ 74.836790587638774, 34.127833853304679 ] ] ] } },
{ "type": "Feature", "properties": { "fid": 93, "building_name": "Dar Tea Bar", "departments": null, "type": "shop", "floor": 1 }, "geometry": { "type": "Polygon", "coordinates": [ [ [ 74.835944394325423, 34.134517828459984 ], [ 74.83606267037618, 34.134532889957079 ], [ 74.836073284893573, 34.134475154203628 ], [ 74.836011558670776, 34.134469776076649 ], [ 74.835958041562051, 34.134465113199006 ], [ 74.835944394325423, 34.134517828459984 ] ] ] } },
{ "type": "Feature", "properties": { "fid": 94, "building_name": "Photosate Shop", "departments": null, "type": "shop", "floor": 1 }, "geometry": { "type": "Polygon", "coordinates": [ [ [ 74.836088448489818, 34.134529124583061 ], [ 74.836097546647551, 34.134492725958857 ], [ 74.83612273313237, 34.134497631235064 ], [ 74.836149102874813, 34.134502766960203 ], [ 74.836141521076698, 34.134534145081723 ], [ 74.836088448489818, 34.134529124583061 ] ] ] } },
{ "type": "Feature", "properties": { "fid": 95, "building_name": "Cafe", "departments": null, "type": "cafe", "floor": 1 }, "geometry": { "type": "Polygon", "coordinates": [ [ [ 74.832800695962888, 34.132216927091321 ], [ 74.832796010088927, 34.132246987077288 ], [ 74.832791771793566, 34.132274175827327 ], [ 74.83273153365073, 34.132255708497368 ], [ 74.832749381989359, 34.132205846686325 ], [ 74.832800695962888, 34.132216927091321 ] ] ] } },
{ "type": "Feature", "properties": { "fid": 96, "building_name": "New Photostate Shop", "departments": null, "type": "shop", "floor": 1 }, "geometry": { "type": "Polygon", "coordinates": [ [ [ 74.833104117719444, 34.132294489885624 ], [ 74.833206745666516, 34.132301876814694 ], [ 74.833206745666516, 34.132239087896956 ], [ 74.833119735015728, 34.132240934630495 ], [ 74.833104117719444, 34.132294489885624 ] ] ] } }
]
}
