{
"type": "FeatureCollection",
"name": "landUse",
"crs": { "type": "name", "properties": { "name": "urn:ogc:def:crs:OGC:1.3:CRS84" } },
"features": [
{ "type": "Feature", "properties": { "fid": 1, "name": "Fountain Park", "type": "park" }, "geometry": { "type": "Polygon", "coordinates": [ [ [ 74.834387756782348, 34.132961243815807 ], [ 74.83610983804283, 34.133065312868133 ], [ 74.836296523843188, 34.1313655023013 ], [ 74.834536343439765, 34.131185742969983 ], [ 74.834387756782348, 34.132961243815807 ] ] ] } },
{ "type": "Feature", "properties": { "fid": 2, "name": "Rose Garden", "type": "park" }, "geometry": { "type": "Polygon", "coordinates": [ [ [ 74.836335915409933, 34.133072935446094 ], [ 74.837983588536801, 34.133178369342403 ], [ 74.838267103364117, 34.13160705055212 ], [ 74.836455073815628, 34.131379172890973 ], [ 74.836335915409933, 34.133072935446094 ] ] ] } },
{ "type": "Feature", "properties": { "fid": 3, "name": "playground", "type": "playground" }, "geometry": { "type": "Polygon", "coordinates": [ [ [ 74.838151331506097, 34.133200533118462 ], [ 74.838432642016841, 34.131625816609429 ], [ 74.84061637445599, 34.131894191421722 ], [ 74.840587766607442, 34.132044165210417 ], [ 74.840873845092915, 34.132659844291133 ], [ 74.841064564083226, 34.132671684229486 ], [ 74.841102707881305, 34.132999255199998 ], [ 74.841064564083226, 34.133200533118462 ], [ 74.840950132689045, 34.133417597003138 ], [ 74.839777210898589, 34.133370237657658 ], [ 74.838632896956653, 34.133287358739231 ], [ 74.838151331506097, 34.133200533118462 ] ] ] } },
{ "type": "Feature", "properties": { "fid": 4, "name": "Atheletic Track", "type": "playground" }, "geometry": { "type": "Polygon", "coordinates": [ [ [ 74.838418352660995, 34.131464847231157 ], [ 74.840278101165325, 34.131664064910041 ], [ 74.840324787872404, 34.131538223454776 ], [ 74.840435229178269, 34.131551481513107 ], [ 74.840499296993954, 34.131548166998719 ], [ 74.840569371167348, 34.131337695069085 ], [ 74.840669477129353, 34.131319465192256 ], [ 74.840784950357587, 34.131193790631464 ], [ 74.840357271734476, 34.130673389757156 ], [ 74.840096607593324, 34.130405540184327 ], [ 74.839494383542956, 34.13016001066363 ], [ 74.839013503144528, 34.130100488248189 ], [ 74.838582059048747, 34.130182331558615 ], [ 74.838555093792763, 34.130226973330906 ], [ 74.838418352660995, 34.131464847231157 ] ] ] } },
{ "type": "Feature", "properties": { "fid": 5, "name": "Ground C", "type": "playground" }, "geometry": { "type": "Polygon", "coordinates": [ [ [ 74.837285073281436, 34.128827249559173 ], [ 74.837372509811786, 34.128851375572339 ], [ 74.837453469562135, 34.128888904912458 ], [ 74.837490432072698, 34.128922998411959 ], [ 74.837566813212604, 34.12899345084351 ], [ 74.83797808874435, 34.12934997830272 ], [ 74.838476800806433, 34.129221306911909 ], [ 74.838658150647206, 34.12816244115416 ], [ 74.838635481917109, 34.128138314944394 ], [ 74.838606336406983, 34.128122230800706 ], [ 74.838586906066894, 34.128103465962539 ], [ 74.838580429286878, 34.12804717142307 ], [ 74.838596621236945, 34.128001599625541 ], [ 74.837401655321926, 34.127899733165826 ], [ 74.837341443043087, 34.128378777996204 ], [ 74.83732757732956, 34.128489092293712 ], [ 74.83732757732956, 34.128489092293712 ], [ 74.837285073281436, 34.128827249559173 ] ] ] } },
{ "type": "Feature", "properties": { "fid": 6, "name": "Markazi-i- Noor Lawn", "type": "park" }, "geometry": { "type": "Polygon", "coordinates": [ [ [ 74.837285073281436, 34.128827249559173 ], [ 74.83732757732956, 34.128489092293712 ], [ 74.837294818117101, 34.128485328523425 ], [ 74.837288365971943, 34.128530559820632 ], [ 74.837280267116697, 34.128587334970462 ], [ 74.837265712386937, 34.128689367438184 ], [ 74.837038323870146, 34.128663768486966 ], [ 74.837051057627079, 34.128465752808296 ], [ 74.83732757732956, 34.128489092293712 ], [ 74.837341443043087, 34.128378777996204 ], [ 74.836970314218064, 34.128352051702478 ], [ 74.836685024769238, 34.128338556975592 ], [ 74.836661728310347, 34.128337455009266 ], [ 74.836631751393597, 34.128785572342188 ], [ 74.836688986081839, 34.128789223502636 ], [ 74.837285073281436, 34.128827249559173 ] ] ] } },
{ "type": "Feature", "properties": { "fid": 7, "name": "Masjid Lawn", "type": "park" }, "geometry": { "type": "Polygon", "coordinates": [ [ [ 74.835537168041782, 34.130856697287747 ], [ 74.836243957835052, 34.130895847203043 ], [ 74.836325664289731, 34.130897147840798 ], [ 74.836397342948999, 34.129813808486304 ], [ 74.83527859617476, 34.129747333616947 ], [ 74.835264750298848, 34.129916959042134 ], [ 74.835440923271221, 34.12992975412687 ], [ 74.835593548839768, 34.129967928330331 ], [ 74.835608921199182, 34.129940661043911 ], [ 74.835674802739561, 34.129953385778656 ], [ 74.835674802739561, 34.129953385778656 ], [ 74.835562804120926, 34.130268776806759 ], [ 74.835418962757743, 34.130236056178454 ], [ 74.83543213906583, 34.13019969990988 ], [ 74.835354179243041, 34.13017334160542 ], [ 74.835440923271221, 34.12992975412687 ], [ 74.835264243233382, 34.129915797668339 ], [ 74.835255922753831, 34.129961796902911 ], [ 74.835194908994325, 34.130639530923759 ], [ 74.835432106827241, 34.130648902863449 ], [ 74.835432106826218, 34.130760544692855 ], [ 74.835504668307124, 34.13076933446338 ], [ 74.835537168041782, 34.130856697287747 ] ] ] } },
{ "type": "Feature", "properties": { "fid": 8, "name": "IT & SS Park", "type": "park" }, "geometry": { "type": "Polygon", "coordinates": [ [ [ 74.835163501403827, 34.131090647603159 ], [ 74.83626516077905, 34.131226169922002 ], [ 74.836284585503549, 34.131205497039957 ], [ 74.836325664289731, 34.130897147840798 ], [ 74.835537168041782, 34.130856697287747 ], [ 74.835537168041782, 34.130856697287747 ], [ 74.835528514074468, 34.131018271444866 ], [ 74.83515877246154, 34.130987850698105 ], [ 74.835163501403827, 34.131090647603159 ] ] ] } },
{ "type": "Feature", "properties": { "fid": 9, "name": "Convocation Park", "type": "park" }, "geometry": { "type": "Polygon", "coordinates": [ [ [ 74.836578841523504, 34.129711074364664 ], [ 74.836921941306116, 34.129756655808727 ], [ 74.836954415771146, 34.129756655808706 ], [ 74.836972770903557, 34.129753149544648 ], [ 74.836982654436383, 34.129747305770898 ], [ 74.836985478302907, 34.129741461996758 ], [ 74.836986890236162, 34.12972509942697 ], [ 74.836986890236162, 34.129708736854013 ], [ 74.836981242503128, 34.129671336675429 ], [ 74.836969947037034, 34.129642117774338 ], [ 74.836955827704415, 34.129596536268515 ], [ 74.836947356104844, 34.129556798525471 ], [ 74.836937472572004, 34.129505373183164 ], [ 74.836936060638735, 34.129462129121094 ], [ 74.836937472572004, 34.129425897592625 ], [ 74.836945944171589, 34.129363953330518 ], [ 74.836955827704415, 34.129314865392494 ], [ 74.836968535103765, 34.129273958755647 ], [ 74.836985478302907, 34.12922720828935 ], [ 74.837009481168366, 34.129182795322414 ], [ 74.837022188567715, 34.129161757593089 ], [ 74.837034895967065, 34.129136044805684 ], [ 74.837039131766858, 34.129119682118713 ], [ 74.837039131766858, 34.129106825719596 ], [ 74.837036307900334, 34.129095138082327 ], [ 74.837026424367508, 34.129077606623412 ], [ 74.837013716968144, 34.12906358145365 ], [ 74.836996773769002, 34.12905656886791 ], [ 74.836628259187663, 34.129033193577868 ], [ 74.836578841523504, 34.129711074364664 ] ] ] } },
{ "type": "Feature", "properties": { "fid": 10, "name": "IT Section Lawn", "type": "park" }, "geometry": { "type": "Polygon", "coordinates": [ [ [ 74.8364563455211, 34.131263660597455 ], [ 74.836992489669996, 34.131318626092529 ], [ 74.837076108482194, 34.130927759573346 ], [ 74.837240772909979, 34.130941073095741 ], [ 74.837255631579211, 34.130547780067381 ], [ 74.837276443349737, 34.130256362300983 ], [ 74.836506670887417, 34.130206803059828 ], [ 74.836502386188414, 34.130525208952839 ], [ 74.836900619619129, 34.130562725839837 ], [ 74.837040605238116, 34.130577210170905 ], [ 74.837085322866429, 34.130615835041588 ], [ 74.837065880419345, 34.130648022420395 ], [ 74.837122263515866, 34.130773553080481 ], [ 74.837036716748713, 34.130847583895239 ], [ 74.836898675374414, 34.130842755800579 ], [ 74.836805351628428, 34.130763896882478 ], [ 74.836811184362531, 34.130704350303752 ], [ 74.836869511703782, 34.130639975576855 ], [ 74.836846180767296, 34.130614225672325 ], [ 74.836900619619129, 34.130562725839837 ], [ 74.836499818232468, 34.130518831987189 ], [ 74.8364563455211, 34.131263660597455 ] ] ] } },
{ "type": "Feature", "properties": { "fid": 11, "name": "Zabarvan Guest House Lawn", "type": "park" }, "geometry": { "type": "Polygon", "coordinates": [ [ [ 74.839871304026246, 34.134382486376744 ], [ 74.839866067969098, 34.133940416316385 ], [ 74.839763964854896, 34.133936082284755 ], [ 74.839763964854896, 34.133936082284755 ], [ 74.839777210898589, 34.133370237657658 ], [ 74.840950132689045, 34.133417597003138 ], [ 74.840879162513474, 34.133641234548726 ], [ 74.840834530094284, 34.133825952534586 ], [ 74.840724665677783, 34.134141393084747 ], [ 74.840587335157153, 34.134456832457609 ], [ 74.839871304026246, 34.134382486376744 ] ] ] } },
{ "type": "Feature", "properties": { "fid": 12, "name": "Department Park - Political Science", "type": "park" }, "geometry": { "type": "Polygon", "coordinates": [ [ [ 74.838595419024188, 34.133817218285159 ], [ 74.838603885447142, 34.133403987964272 ], [ 74.8396096104658, 34.133457163479747 ], [ 74.839671637559448, 34.133532342599707 ], [ 74.839591888439031, 34.134370310214912 ], [ 74.839560874892214, 34.134388646393688 ], [ 74.839509924065268, 34.13440514895121 ], [ 74.839423529184813, 34.134438154056511 ], [ 74.839290613984133, 34.134439987673112 ], [ 74.839004846302615, 34.134414317037304 ], [ 74.839009276809293, 34.134170445608241 ], [ 74.839026998836047, 34.133834892040539 ], [ 74.838595419024188, 34.133817218285159 ] ] ] } },
{ "type": "Feature", "properties": { "fid": 13, "name": "Gandhi Bhawan Park", "type": "park" }, "geometry": { "type": "Polygon", "coordinates": [ [ [ 74.837339030015869, 34.133904779046667 ], [ 74.83783768829224, 34.133938280451048 ], [ 74.837852588114032, 34.133876615422402 ], [ 74.837889837668499, 34.13385400490062 ], [ 74.837957526986656, 34.133331839438554 ], [ 74.837959759827683, 34.13329857185812 ], [ 74.837385919677914, 34.133283786262623 ], [ 74.837339030015869, 34.133904779046667 ] ] ] } },
{ "type": "Feature", "properties": { "fid": 14, "name": "Gandhi Bhawan Lawn", "type": "park" }, "geometry": { "type": "Polygon", "coordinates": [ [ [ 74.838088858764266, 34.133485143836623 ], [ 74.83824454508246, 34.133506368926248 ], [ 74.838361767722063, 34.133523045778638 ], [ 74.838438695079262, 34.133524561855985 ], [ 74.838466169135415, 34.133516981469064 ], [ 74.838478990361637, 34.133509401081469 ], [ 74.838489979984075, 34.133495756382118 ], [ 74.838491811587843, 34.133469983055065 ], [ 74.838497306399049, 34.133438145404895 ], [ 74.838497306399049, 34.133410855980948 ], [ 74.838495474795323, 34.13339266302674 ], [ 74.83848631677661, 34.133383566548169 ], [ 74.838468000739169, 34.1333759861486 ], [ 74.83809069036802, 34.133339600221312 ], [ 74.838077869141827, 34.133339600221298 ], [ 74.838071723619862, 34.13335641666017 ], [ 74.838064533756196, 34.133394504927956 ], [ 74.838065971728938, 34.133434973693689 ], [ 74.838070285647149, 34.133464730126711 ], [ 74.838088858764266, 34.133485143836623 ] ] ] } },
{ "type": "Feature", "properties": { "fid": 15, "name": "The Business School Park", "type": "park" }, "geometry": { "type": "Polygon", "coordinates": [ [ [ 74.837255691577255, 34.133282890082285 ], [ 74.836654005446277, 34.133236504328146 ], [ 74.836624511028106, 34.13370768475238 ], [ 74.836489781158292, 34.133712567437314 ], [ 74.836445243931067, 34.134141407375878 ], [ 74.836495239219701, 34.134149871958485 ], [ 74.836506601785302, 34.134159277049264 ], [ 74.836574685830641, 34.134182310909964 ], [ 74.836675930006592, 34.134187389843611 ], [ 74.836678998011919, 34.13415183730163 ], [ 74.836930574449099, 34.134161995172292 ], [ 74.8369275064438, 34.134263573811751 ], [ 74.837007274582405, 34.134273731668962 ], [ 74.837001726160423, 34.134310472193611 ], [ 74.837187986228017, 34.134320433347682 ], [ 74.837255691577255, 34.133282890082285 ] ] ] } },
{ "type": "Feature", "properties": { "fid": 16, "name": "Allama Iqbal Library Park", "type": "park" }, "geometry": { "type": "Polygon", "coordinates": [ [ [ 74.836291464589436, 34.133667167006607 ], [ 74.836485674383269, 34.133678253448643 ], [ 74.836499068162155, 34.133212621631301 ], [ 74.835702138318482, 34.133175204677492 ], [ 74.835678699205459, 34.133636679283534 ], [ 74.835623280108365, 34.134098457240626 ], [ 74.835826325226478, 34.134106838322168 ], [ 74.835869907145224, 34.133665933864407 ], [ 74.835806372021835, 34.133659088802617 ], [ 74.835803095201584, 34.133561445040527 ], [ 74.835968574623465, 34.133561445040527 ], [ 74.836032472618058, 34.133568225860962 ], [ 74.83604230307877, 34.133657732640053 ], [ 74.836211059320874, 34.133663157290265 ], [ 74.836189607810709, 34.133448792882945 ], [ 74.836297689967651, 34.13345518310819 ], [ 74.836291464589436, 34.133667167006607 ] ] ] } },
{ "type": "Feature", "properties": { "fid": 17, "name": "Physics-Mathematics Park", "type": "park" }, "geometry": { "type": "Polygon", "coordinates": [ [ [ 74.833881194805585, 34.133333878317323 ], [ 74.833878086875572, 34.13320970364164 ], [ 74.833943857053455, 34.133074480868046 ], [ 74.834875247636916, 34.133128921231503 ], [ 74.834752505546589, 34.133824670364376 ], [ 74.834556957870205, 34.133816726289155 ], [ 74.834592940872909, 34.133458507481627 ], [ 74.834632112120033, 34.133461815984262 ], [ 74.834639024636502, 34.133377420625209 ], [ 74.833882236890489, 34.133333938191974 ], [ 74.833881194805585, 34.133333878317323 ] ] ] } },
{ "type": "Feature", "properties": { "fid": 18, "name": "Chemistry Park", "type": "park" }, "geometry": { "type": "Polygon", "coordinates": [ [ [ 74.834942134806582, 34.133388026472844 ], [ 74.835632027824047, 34.133431215238907 ], [ 74.835638727343948, 34.133171273549912 ], [ 74.834978824633694, 34.133138000955988 ], [ 74.834942134806582, 34.133388026472844 ] ] ] } },
{ "type": "Feature", "properties": { "fid": 19, "name": "Computer Science Park", "type": "park" }, "geometry": { "type": "Polygon", "coordinates": [ [ [ 74.833274143533117, 34.133296188880742 ], [ 74.833545448367659, 34.133307654904904 ], [ 74.833537007095686, 34.133477674901862 ], [ 74.833753531972604, 34.13348672082838 ], [ 74.83377976389815, 34.133175138445857 ], [ 74.833791568264658, 34.133077429448171 ], [ 74.8332839805052, 34.133048116726862 ], [ 74.833274143533117, 34.133296188880742 ] ] ] } },
{ "type": "Feature", "properties": { "fid": 20, "name": "Earth Science Park", "type": "park" }, "geometry": { "type": "Polygon", "coordinates": [ [ [ 74.832657744657666, 34.133488947948564 ], [ 74.833145645587592, 34.133504073469993 ], [ 74.833182192473728, 34.133038206167598 ], [ 74.832951073987786, 34.133029265642392 ], [ 74.832929665631625, 34.133310927676348 ], [ 74.832730111176119, 34.133302284638035 ], [ 74.832666881379197, 34.133342230250157 ], [ 74.832657744657666, 34.133488947948564 ] ] ] } },
{ "type": "Feature", "properties": { "fid": 21, "name": "Biotech Park", "type": "park" }, "geometry": { "type": "Polygon", "coordinates": [ [ [ 74.833261880480833, 34.133648666403666 ], [ 74.833249804213082, 34.133910948980791 ], [ 74.8332808690663, 34.133944224958228 ], [ 74.833319243296756, 34.133965400573416 ], [ 74.833374063625968, 34.133977500922555 ], [ 74.833452639431144, 34.133995651443023 ], [ 74.833516596481886, 34.134006239244847 ], [ 74.833607963697247, 34.134019852130947 ], [ 74.833666438715056, 34.134021364673714 ], [ 74.833737705143008, 34.134009264330828 ], [ 74.833794352816525, 34.133991113813288 ], [ 74.833825417669757, 34.133971450748184 ], [ 74.833856482522961, 34.133930612059935 ], [ 74.833856482522961, 34.133886748261702 ], [ 74.833851000490057, 34.133824733887408 ], [ 74.833830899702676, 34.133761206920212 ], [ 74.833825417669757, 34.133694654808131 ], [ 74.833790698127913, 34.133678016771924 ], [ 74.833261880480833, 34.133648666403666 ] ] ] } },
{ "type": "Feature", "properties": { "fid": 22, "name": "Media Lawn", "type": "park" }, "geometry": { "type": "Polygon", "coordinates": [ [ [ 74.833138656894505, 34.134077795500026 ], [ 74.832907025907971, 34.134073935221551 ], [ 74.832896143915292, 34.134034045666809 ], [ 74.832642748943428, 34.134023751585111 ], [ 74.832636530661901, 34.134048200027081 ], [ 74.832421999949517, 34.134045626507209 ], [ 74.83240033943396, 34.133982073418281 ], [ 74.832418153007254, 34.133893604646374 ], [ 74.832462686940502, 34.133881317309623 ], [ 74.832474562656017, 34.133837082882508 ], [ 74.832661605175645, 34.133827253006672 ], [ 74.832741766255495, 34.133827253006679 ], [ 74.833142571654662, 34.13385428516245 ], [ 74.833138656894505, 34.134077795500026 ] ] ] } },
{ "type": "Feature", "properties": { "fid": 23, "name": "Education Lawn", "type": "park" }, "geometry": { "type": "Polygon", "coordinates": [ [ [ 74.8340391881773, 34.13399190327609 ], [ 74.834318267492293, 34.134014020452042 ], [ 74.83430936070566, 34.133859200098946 ], [ 74.834190603550326, 34.133844455288617 ], [ 74.834077262669879, 34.133818136360013 ], [ 74.834036730122151, 34.133851686329884 ], [ 74.833983726021344, 34.133851686329884 ], [ 74.8340391881773, 34.13399190327609 ] ] ] } },
{ "type": "Feature", "properties": { "fid": 24, "name": "DLL Park", "type": "park" }, "geometry": { "type": "Polygon", "coordinates": [ [ [ 74.833045235223494, 34.132970041967546 ], [ 74.83313710342216, 34.132978665373003 ], [ 74.833152256939471, 34.132972393805495 ], [ 74.833164569172283, 34.132965338291498 ], [ 74.833177828499927, 34.132957498830791 ], [ 74.833192034922405, 34.132947307530799 ], [ 74.833210976819018, 34.132688604888756 ], [ 74.832942001886835, 34.132659598785551 ], [ 74.832930636748856, 34.132708987549883 ], [ 74.832954314119632, 34.132724666516644 ], [ 74.832973256016288, 34.132745833117141 ], [ 74.832994092102581, 34.132805413149406 ], [ 74.833007351430226, 34.132818740256127 ], [ 74.83302061075787, 34.132819524203533 ], [ 74.833045235223494, 34.132970041967546 ] ] ] } },
{ "type": "Feature", "properties": { "fid": 25, "name": "VC Secretrait Park", "type": "park" }, "geometry": { "type": "Polygon", "coordinates": [ [ [ 74.837287696370538, 34.13133312007313 ], [ 74.838262761630617, 34.131442656874341 ], [ 74.838342374917616, 34.131084423576219 ], [ 74.837349038439385, 34.131007416143206 ], [ 74.837287696370538, 34.13133312007313 ] ] ] } },
{ "type": "Feature", "properties": { "fid": 26, "name": "Gani Kashmiri Hostel Park", "type": "park" }, "geometry": { "type": "Polygon", "coordinates": [ [ [ 74.835868328233531, 34.128653532861598 ], [ 74.836103080658361, 34.128680079760244 ], [ 74.836091535457129, 34.128779896024476 ], [ 74.836122322660387, 34.128788391020272 ], [ 74.836112060259296, 34.12894448641557 ], [ 74.836463479028097, 34.12897455433815 ], [ 74.836504229647275, 34.128576510920574 ], [ 74.835901120483285, 34.128540529502317 ], [ 74.835868328233531, 34.128653532861598 ] ] ] } },
{ "type": "Feature", "properties": { "fid": 27, "name": "CCPC Park", "type": "park" }, "geometry": { "type": "Polygon", "coordinates": [ [ [ 74.836411769498298, 34.129713926029581 ], [ 74.836463479028097, 34.12897455433815 ], [ 74.836463479027927, 34.128974554338136 ], [ 74.836128391214132, 34.128962685780131 ], [ 74.836102884833437, 34.129240680937265 ], [ 74.836041244413352, 34.129235402556688 ], [ 74.836004562753786, 34.129579585110037 ], [ 74.835957350377626, 34.129682172740615 ], [ 74.836411769498298, 34.129713926029581 ] ] ] } },
{ "type": "Feature", "properties": { "fid": 28, "name": "Nano Tech Park", "type": "park" }, "geometry": { "type": "Polygon", "coordinates": [ [ [ 74.835688829988115, 34.129665074810831 ], [ 74.835101626059455, 34.129633321503469 ], [ 74.835089822965415, 34.1294824589691 ], [ 74.835129391302544, 34.129494042815828 ], [ 74.835197408317811, 34.129492283360953 ], [ 74.835214412571631, 34.129397272743496 ], [ 74.835371701919399, 34.129406070027393 ], [ 74.835407835958762, 34.129541548083516 ], [ 74.835571501901725, 34.12955914262033 ], [ 74.835656523170798, 34.129585534418659 ], [ 74.835688829988115, 34.129665074810831 ] ] ] } },
{ "type": "Feature", "properties": { "fid": 29, "name": "Childrens Play Ground", "type": "playground" }, "geometry": { "type": "Polygon", "coordinates": [ [ [ 74.834994941153198, 34.129007383494738 ], [ 74.834257778579513, 34.12898848536652 ], [ 74.83434696780148, 34.128626171808342 ], [ 74.835013454677537, 34.128645328215512 ], [ 74.834994941153198, 34.129007383494738 ] ] ] } },
{ "type": "Feature", "properties": { "fid": 30, "name": "Girls Hostel Park", "type": "park" }, "geometry": { "type": "Polygon", "coordinates": [ [ [ 74.834913944484214, 34.128434607497852 ], [ 74.834326083307928, 34.128418888344456 ], [ 74.834342339420388, 34.128371391180117 ], [ 74.834217373131125, 34.128367559886605 ], [ 74.834224315702741, 34.128043814958382 ], [ 74.834606031308084, 34.128089311676284 ], [ 74.834841589996032, 34.128114780020319 ], [ 74.834948657342366, 34.128095537604111 ], [ 74.834913944484214, 34.128434607497852 ] ] ] } },
{ "type": "Feature", "properties": { "fid": 31, "name": "Arts Lawn", "type": "park" }, "geometry": { "type": "Polygon", "coordinates": [ [ [ 74.834251471610742, 34.132289566716359 ], [ 74.833791627860379, 34.132287030514696 ], [ 74.833795717331952, 34.132220683769674 ], [ 74.83370855686023, 34.132204846701292 ], [ 74.833717060320893, 34.132028879075236 ], [ 74.833746822433184, 34.131819477122804 ], [ 74.833844612230706, 34.131814198075304 ], [ 74.833861619152032, 34.131654066810491 ], [ 74.834304163678993, 34.131745854131701 ], [ 74.834251471610742, 34.132289566716359 ] ] ] } },
{ "type": "Feature", "properties": { "fid": 32, "name": "Humanities Lawn", "type": "park" }, "geometry": { "type": "Polygon", "coordinates": [ [ [ 74.83421195860933, 34.132991368407041 ], [ 74.833865865166729, 34.132964114590962 ], [ 74.833883241345021, 34.132793117517402 ], [ 74.833848420178626, 34.132480175018557 ], [ 74.834255758420269, 34.132516429970671 ], [ 74.83421195860933, 34.132991368407041 ] ] ] } },
{ "type": "Feature", "properties": { "fid": 33, "name": "Urdu lawn", "type": "park" }, "geometry": { "type": "Polygon", "coordinates": [ [ [ 74.833210976819018, 34.132688604888756 ], [ 74.832942001886835, 34.132659598785551 ], [ 74.832894423657649, 34.13239514604993 ], [ 74.83319562508342, 34.132382834076871 ], [ 74.833210976819018, 34.132688604888756 ] ] ] } },
{ "type": "Feature", "properties": { "fid": 34, "name": "Commerce Park", "type": "park" }, "geometry": { "type": "Polygon", "coordinates": [ [ [ 74.837594324536354, 34.13421166153617 ], [ 74.83737827712045, 34.134201384067779 ], [ 74.837389563051602, 34.134349293449368 ], [ 74.837304621086403, 34.134341069859232 ], [ 74.837324396516678, 34.134035516062838 ], [ 74.837547033707324, 34.134035516062838 ], [ 74.837594324536354, 34.13421166153617 ] ] ] } },
{ "type": "Feature", "properties": { "fid": 35, "name": "School of Law Park", "type": "park" }, "geometry": { "type": "Polygon", "coordinates": [ [ [ 74.837626193597345, 34.134481888892601 ], [ 74.83734418648919, 34.13447165101006 ], [ 74.837297048284242, 34.134495804618346 ], [ 74.837292237811369, 34.134498269502046 ], [ 74.837260079106045, 34.134786977222667 ], [ 74.837608877371395, 34.134817690751909 ], [ 74.837625578861861, 34.134493810089793 ], [ 74.837626193597345, 34.134481888892601 ] ] ] } },
{ "type": "Feature", "properties": { "fid": 36, "name": "Distance Education Park", "type": "park" }, "geometry": { "type": "Polygon", "coordinates": [ [ [ 74.837161129243526, 34.134649789989048 ], [ 74.836814804724753, 34.134633409408963 ], [ 74.836804909738504, 34.134868879942545 ], [ 74.836819752217878, 34.13489140317661 ], [ 74.836837068443813, 34.134971258230813 ], [ 74.836807383485052, 34.135139158355052 ], [ 74.836777698526305, 34.135216965616607 ], [ 74.836767803540056, 34.135421721225747 ], [ 74.836762856046946, 34.135515908639377 ], [ 74.837099285579498, 34.135534336599342 ], [ 74.837161129243526, 34.134649789989048 ] ] ] } },
{ "type": "Feature", "properties": { "fid": 38, "name": "School Lawn ", "type": "park" }, "geometry": { "type": "Polygon", "coordinates": [ [ [ 74.836722673754608, 34.13944834274217 ], [ 74.836191098344983, 34.13941433529817 ], [ 74.836090155153045, 34.139283603721772 ], [ 74.836182449542846, 34.139289969540556 ], [ 74.836192704475067, 34.138992897486148 ], [ 74.836177393572783, 34.138956655455644 ], [ 74.836232853869063, 34.138956655455658 ], [ 74.83630495225421, 34.138566476335505 ], [ 74.836596841894362, 34.138576897671612 ], [ 74.836581344058303, 34.138642335487219 ], [ 74.836555106078833, 34.138980326402951 ], [ 74.836722673754608, 34.13944834274217 ] ] ] } },
{ "type": "Feature", "properties": { "fid": 39, "name": "Sir Syed Gate Parking", "type": "parking" }, "geometry": { "type": "Polygon", "coordinates": [ [ [ 74.836685024769238, 34.128338556975592 ], [ 74.837341443043087, 34.128378777996211 ], [ 74.837401655321926, 34.127899733165826 ], [ 74.837136190382438, 34.127912770171307 ], [ 74.836962931350968, 34.128052968690852 ], [ 74.836902582699565, 34.128059414594198 ], [ 74.836873220662369, 34.127991526863276 ], [ 74.836866004199024, 34.127990199376654 ], [ 74.836771015212406, 34.127972725911135 ], [ 74.836685024769238, 34.128338556975592 ] ] ] } },
{ "type": "Feature", "properties": { "fid": 40, "name": "Sir Syed Gate Parking", "type": "parking" }, "geometry": { "type": "Polygon", "coordinates": [ [ [ 74.836682068081814, 34.128324415575456 ], [ 74.836956530337616, 34.128338990769088 ], [ 74.837328325132788, 34.128367143939137 ], [ 74.837356151770265, 34.128167512167352 ], [ 74.837376575594661, 34.127948616841913 ], [ 74.837099241557965, 34.127934379727961 ], [ 74.836938000838956, 34.128062513667338 ], [ 74.836867054922593, 34.128007344911701 ], [ 74.836768160614952, 34.127986879073838 ], [ 74.836682068081814, 34.128324415575456 ] ] ] } },
{ "type": "Feature", "properties": { "fid": 41, "name": "Convocation Parking 1", "type": "parking" }, "geometry": { "type": "Polygon", "coordinates": [ [ [ 74.83659914184669, 34.130054985574297 ], [ 74.8371434302137, 34.130078144347962 ], [ 74.83717140765313, 34.12984445097721 ], [ 74.836629662689703, 34.129808660043565 ], [ 74.83659914184669, 34.130054985574297 ] ] ] } },
{ "type": "Feature", "properties": { "fid": 42, "name": "Convocation Parking 2", "type": "parking" }, "geometry": { "type": "Polygon", "coordinates": [ [ [ 74.83668816097213, 34.128958094572781 ], [ 74.837301113183699, 34.129021917306481 ], [ 74.837576404397439, 34.129282875718332 ], [ 74.837676308466925, 34.129292064380131 ], [ 74.837769552265129, 34.129382113212827 ], [ 74.83797808874435, 34.12934997830272 ], [ 74.837490432072698, 34.128922998411959 ], [ 74.837285073281436, 34.128827249559173 ], [ 74.836688986081839, 34.128789223502636 ], [ 74.83668816097213, 34.128958094572781 ] ] ] } },

{ "type": "Feature", "properties": { "fid": 44, "name": "CS Parking Zone", "type": "parking" }, "geometry": { "type": "Polygon", "coordinates": [ [ [ 74.833533301312286, 34.13364390674429 ], [ 74.833687358679057, 34.133657063368098 ], [ 74.833714257584376, 34.133632774214838 ], [ 74.833754605942346, 34.133611521200017 ], [ 74.833768055394998, 34.133587232033648 ], [ 74.833759496652405, 34.13350525604568 ], [ 74.83353631681878, 34.133491578108554 ], [ 74.833533301312286, 34.13364390674429 ] ] ] } },
{ "type": "Feature", "properties": { "fid": 45, "name": "Education Block Parking", "type": "parking" }, "geometry": { "type": "Polygon", "coordinates": [ [ [ 74.834506670010683, 34.134088308757264 ], [ 74.834368484881338, 34.134082172520536 ], [ 74.834357501681495, 34.134048026332643 ], [ 74.834318267492293, 34.134014020452042 ], [ 74.834319879323246, 34.133827368723097 ], [ 74.83452105232746, 34.133838544344364 ], [ 74.834506670010683, 34.134088308757264 ] ] ] } },
{ "type": "Feature", "properties": { "fid": 46, "name": "Budshah Gate Parking", "type": "parking" }, "geometry": { "type": "Polygon", "coordinates": [ [ [ 74.839742315737013, 34.1379793346821 ], [ 74.839423959372667, 34.13796069081851 ], [ 74.839377407262788, 34.138281364699147 ], [ 74.839647709836285, 34.138282607618791 ], [ 74.839742315737013, 34.1379793346821 ] ] ] } },
{ "type": "Feature", "properties": { "fid": 47, "name": "Naseem Bagh", "type": "park" }, "geometry": { "type": "Polygon", "coordinates": [ [ [ 74.836408893059087, 34.140683233914658 ], [ 74.83764509991353, 34.140683233914658 ], [ 74.837947180535835, 34.14033705074722 ], [ 74.838207434610467, 34.140063949692156 ], [ 74.839109029083247, 34.140133186662872 ], [ 74.839536589348668, 34.139460047042071 ], [ 74.839713190327885, 34.138340700143331 ], [ 74.839736427298831, 34.138313774090271 ], [ 74.839647709836285, 34.138282607618791 ], [ 74.839377407262788, 34.138281364699147 ], [ 74.839423959372667, 34.13796069081851 ], [ 74.839742315737013, 34.1379793346821 ], [ 74.839842154535475, 34.137164329720818 ], [ 74.839902728176554, 34.136947070879778 ], [ 74.840457986553091, 34.135292542921512 ], [ 74.840649803083181, 34.135000072489177 ], [ 74.840942575681723, 34.134473623160474 ], [ 74.837625578861861, 34.134493810089793 ], [ 74.837608877371395, 34.134817690751909 ], [ 74.837260079106045, 34.134786977222667 ], [ 74.837292237811369, 34.134498269502046 ], [ 74.837297048284242, 34.134495804618346 ], [ 74.836149102874813, 34.134502766960203 ], [ 74.835804731814434, 34.140575532636781 ], [ 74.836408893059087, 34.140683233914658 ] ], [ [ 74.836814804724753, 34.134633409408963 ], [ 74.837161129243526, 34.134649789989048 ], [ 74.837099285579498, 34.135534336599342 ], [ 74.836762856046946, 34.135515908639377 ], [ 74.836767803540056, 34.135421721225747 ], [ 74.836777698526305, 34.135216965616607 ], [ 74.836807383485052, 34.135139158355052 ], [ 74.836837068443813, 34.134971258230813 ], [ 74.836819752217878, 34.13489140317661 ], [ 74.836804909738504, 34.134868879942545 ], [ 74.836814804724753, 34.134633409408963 ] ], [ [ 74.836555106078833, 34.138980326402951 ], [ 74.836722673754608, 34.13944834274217 ], [ 74.836191098344983, 34.13941433529817 ], [ 74.836090155153045, 34.139283603721772 ], [ 74.836182449542846, 34.139289969540556 ], [ 74.836192704475067, 34.138992897486148 ], [ 74.836177393572783, 34.138956655455644 ], [ 74.836232853869063, 34.138956655455658 ], [ 74.83630495225421, 34.138566476335505 ], [ 74.836596841894362, 34.138576897671612 ], [ 74.836581344058303, 34.138642335487219 ], [ 74.836555106078833, 34.138980326402951 ] ] ] } },
{ "type": "Feature", "properties": { "fid": 48, "name": "Teachers Hostel Park", "type": "park" }, "geometry": { "type": "Polygon", "coordinates": [ [ [ 74.835863748501666, 34.128429008702305 ], [ 74.835887140411302, 34.128134684464158 ], [ 74.836509365207121, 34.12817728408838 ], [ 74.836488312488456, 34.128481289874266 ], [ 74.835863748501666, 34.128429008702305 ] ] ] } },
{ "type": "Feature", "properties": { "id": null, "name": "Rumi Gate Parking", "type": "parking" }, "geometry": { "type": "Polygon", "coordinates": [ [ [ 74.840716074733919, 34.132402689069856 ], [ 74.840951669994737, 34.132394888575043 ], [ 74.840928110468653, 34.131922957299302 ], [ 74.84058885329307, 34.131891755138618 ], [ 74.840532310430476, 34.132039965299271 ], [ 74.840716074733919, 34.132402689069856 ] ] ] } },
{ "type": "Feature", "properties": { "id": null, "name": "Library Parking", "type": "parking" }, "geometry": { "type": "Polygon", "coordinates": [ [ [ 74.836505775639253, 34.133701981814923 ], [ 74.836616257010832, 34.133699441570663 ], [ 74.836646946280723, 34.133244736618849 ], [ 74.836505775639253, 34.133216793776661 ], [ 74.836505775639253, 34.133701981814923 ] ] ] } },
{ "type": "Feature", "properties": { "id": null, "name": "Library Front Parking", "type": "parking" }, "geometry": { "type": "Polygon", "coordinates": [ [ [ 74.835815267066806, 34.133643556177709 ], [ 74.836027023029004, 34.133653717161003 ], [ 74.836027023029004, 34.133567348764139 ], [ 74.835815267066806, 34.133567348764139 ], [ 74.835815267066806, 34.133643556177709 ] ] ] } },
{ "type": "Feature", "properties": { "id": null, "name": "Convocation Block Parking", "type": "parking" }, "geometry": { "type": "Polygon", "coordinates": [ [ [ 74.836672107242606, 34.128953846021524 ], [ 74.837317576012722, 34.12900872048376 ], [ 74.837649032948747, 34.129268651662912 ], [ 74.837760681600898, 34.129337966509013 ], [ 74.837806038865821, 34.129384176374856 ], [ 74.837785104743531, 34.129511253375668 ], [ 74.837764170621256, 34.129554575036821 ], [ 74.837956066742109, 34.12957479180443 ], [ 74.837973511844012, 34.129363959561672 ], [ 74.837446669766749, 34.128910524052515 ], [ 74.837279196788572, 34.128849873258588 ], [ 74.836703508426012, 34.128797886829162 ], [ 74.836703508426012, 34.128797886829162 ], [ 74.836672107242606, 34.128953846021524 ] ] ] } },
{ "type": "Feature", "properties": { "id": null, "name": "Convocation Block Parking", "type": "parking" }, "geometry": { "type": "Polygon", "coordinates": [ [ [ 74.836605815855393, 34.130054216590807 ], [ 74.837164059116063, 34.130085985607103 ], [ 74.83717801519758, 34.129854937943556 ], [ 74.836640706059171, 34.129811616436335 ], [ 74.836605815855393, 34.130054216590807 ] ] ] } },
{ "type": "Feature", "properties": { "id": null, "name": "Bus Parking", "type": "parking" }, "geometry": { "type": "Polygon", "coordinates": [ [ [ 74.83654301348858, 34.130204397289894 ], [ 74.837258262666296, 34.130256382854341 ], [ 74.837268729727427, 34.130181292584332 ], [ 74.836549991529338, 34.130117754611447 ], [ 74.83654301348858, 34.130204397289894 ] ] ] } },
{ "type": "Feature", "properties": { "id": null, "name": "Adm Parking", "type": "parking" }, "geometry": { "type": "Polygon", "coordinates": [ [ [ 74.838441040574807, 34.131379840852276 ], [ 74.838381727228352, 34.131379840852276 ], [ 74.838430573513662, 34.131070819189915 ], [ 74.838500353921262, 34.131067931131668 ], [ 74.838441040574807, 34.131379840852276 ] ] ] } },
{ "type": "Feature", "properties": { "id": null, "name": "IT Section Parking", "type": "parking" }, "geometry": { "type": "Polygon", "coordinates": [ [ [ 74.837160570095676, 34.131333632077407 ], [ 74.837003564178616, 34.13132207987973 ], [ 74.837055899484312, 34.130978401277027 ], [ 74.837209416380986, 34.130989953521684 ], [ 74.837160570095676, 34.131333632077407 ] ] ] } },
{ "type": "Feature", "properties": { "id": null, "name": "Residential Building Parking", "type": "parking" }, "geometry": { "type": "Polygon", "coordinates": [ [ [ 74.834117413339754, 34.128983548876455 ], [ 74.834224974487952, 34.128988387822211 ], [ 74.834292784777034, 34.128674823565504 ], [ 74.834168855628022, 34.128661274466467 ], [ 74.834117413339754, 34.128983548876455 ] ] ] } },
{ "type": "Feature", "properties": { "id": null, "name": "Education Block Parking", "type": "parking" }, "geometry": { "type": "Polygon", "coordinates": [ [ [ 74.83449709022365, 34.134083484071276 ], [ 74.834339749362485, 34.134081969708134 ], [ 74.834341578907384, 34.133863901132713 ], [ 74.834531851576699, 34.133854814929869 ], [ 74.83449709022365, 34.134083484071276 ] ] ] } },
{ "type": "Feature", "properties": { "id": null, "name": "Commerce Block Parking", "type": "parking" }, "geometry": { "type": "Polygon", "coordinates": [ [ [ 74.837830683652811, 34.134025522174966 ], [ 74.837463622281888, 34.133985790981932 ], [ 74.837466445830898, 34.133911002803224 ], [ 74.837827860103786, 34.133946059770238 ], [ 74.837830683652811, 34.134025522174966 ] ] ] } },
{ "type": "Feature", "properties": { "id": null, "name": "Gandhi Bhawan Parking", "type": "parking" }, "geometry": { "type": "Polygon", "coordinates": [ [ [ 74.838110215004491, 34.133822191755058 ], [ 74.837923860770033, 34.133822191755058 ], [ 74.8379492727111, 34.133595489445767 ], [ 74.838073508867382, 34.13359782658609 ], [ 74.838110215004491, 34.133822191755058 ] ] ] } },
{ "type": "Feature", "properties": { "id": null, "name": "History Block Parking", "type": "parking" }, "geometry": { "type": "Polygon", "coordinates": [ [ [ 74.838582661129379, 34.133898676477941 ], [ 74.838952723185045, 34.133913915825161 ], [ 74.838961928708841, 34.133837719061518 ], [ 74.838597389967418, 34.133822479700534 ], [ 74.838582661129379, 34.133898676477941 ] ] ] } },
{ "type": "Feature", "properties": { "id": null, "name": "Guest House Parking", "type": "parking" }, "geometry": { "type": "Polygon", "coordinates": [ [ [ 74.839438782408308, 34.134631045918468 ], [ 74.839752121311292, 34.134637077483134 ], [ 74.839766695213754, 34.134474225086016 ], [ 74.839455785294518, 34.134508404010198 ], [ 74.839438782408308, 34.134631045918468 ] ] ] } },
{ "type": "Feature", "properties": { "id": null, "name": "Management Block Parking", "type": "parking" }, "geometry": { "type": "Polygon", "coordinates": [ [ [ 74.836934969539968, 34.134484998700401 ], [ 74.837119193724945, 34.134486336301713 ], [ 74.837122425728197, 34.134400729776132 ], [ 74.836938201543205, 34.134407417789077 ], [ 74.836934969539968, 34.134484998700401 ] ] ] } },
{ "type": "Feature", "properties": { "id": null, "name": "Business School Parking", "type": "parking" }, "geometry": { "type": "Polygon", "coordinates": [ [ [ 74.8366085372122, 34.134590669137488 ], [ 74.837166057771995, 34.134636147512794 ], [ 74.837166057771995, 34.134600032334397 ], [ 74.836619849223567, 34.134557229140036 ], [ 74.8366085372122, 34.134590669137488 ] ] ] } }
]
}
