
{
"type": "FeatureCollection",
"name": "poi",
"crs": { "type": "name", "properties": { "name": "urn:ogc:def:crs:OGC:1.3:CRS84" } },
"features": [
{ "type": "Feature", "properties": { "fid": 1, "name": "Sir Syed Gate", "type": "entrance", "description": "Sir Syed Gate Entrance","image":"sirsyed.png" }, "geometry": { "type": "Point", "coordinates": [ 74.836610588663433, 34.127893408632481 ] } },
{ "type": "Feature", "properties": { "fid": 4, "name": "Boni Shehjar Cafe", "type": "cafe", "description": "the cafe" }, "geometry": { "type": "Point", "coordinates": [ 74.833970744987639, 34.133811930644107 ] } },
{ "type": "Feature", "properties": { "fid": 5, "name": "The Kongposh Cafe", "type": "cafe", "description": "" }, "geometry": { "type": "Point", "coordinates": [ 74.835516710125745, 34.133886920921185 ] } },
{ "type": "Feature", "properties": { "fid": 6, "name": "Old Cafe", "type": "cafe", "description": null }, "geometry": { "type": "Point", "coordinates": [ 74.835594182858756, 34.133792694325621 ] } },
{ "type": "Feature", "properties": { "fid": 7, "name": "Mirs Chai", "type": "cafe", "description": null }, "geometry": { "type": "Point", "coordinates": [ 74.837227434557107, 34.139820367433771 ] } },
{ "type": "Feature", "properties": { "fid": 8, "name": "Budshah Gate", "type": "Entrance", "description": null,"image":"budshahGate.png"}, "geometry": { "type": "Point", "coordinates": [ 74.839749145617532, 34.137927134469571 ] } },
{ "type": "Feature", "properties": { "fid": 9, "name": "Rumi Gate", "type": "entrance", "description": null,"image":"rumi.png" }, "geometry": { "type": "Point", "coordinates": [ 74.840878574374187, 34.131828466736089 ] } },
{ "type": "Feature", "properties": { "fid": 10, "name": "Wheel Gate", "type": "entrance", "description": null }, "geometry": { "type": "Point", "coordinates": [ 74.836113171660642, 34.137619142623983 ] } },
{ "type": "Feature", "properties": { "fid": 11, "name": "Photostate Shops", "type": "shop", "description": null }, "geometry": { "type": "Point", "coordinates": [ 74.836779403395127, 34.127924120524824 ] } },
{ "type": "Feature", "properties": { "fid": 12, "name": "JK Bank ATM", "type": "ATM", "description": null }, "geometry": { "type": "Point", "coordinates": [ 74.836631991860017, 34.128176641747601 ] } },
{ "type": "Feature", "properties": { "fid": 13, "name": "JK Bank ATM 2", "type": "ATM", "description": null }, "geometry": { "type": "Point", "coordinates": [ 74.837306312621592, 34.130964229244078 ] } },
{ "type": "Feature", "properties": { "fid": 14, "name": "HDFC Bank ATM", "type": "ATM", "description": null }, "geometry": { "type": "Point", "coordinates": [ 74.840309786119747, 34.13173122637626 ] } },
{ "type": "Feature", "properties": { "fid": 15, "name": "JK Bank ATM 3", "type": "ATM", "description": null }, "geometry": { "type": "Point", "coordinates": [ 74.837361728715564, 34.135085239165754 ] } },
{ "type": "Feature", "properties": { "fid": 16, "name": "Library Photostate Shop", "type": "shop", "description": null }, "geometry": { "type": "Point", "coordinates": [ 74.836239038036297, 34.133687300364983 ] } },
{ "type": "Feature", "properties": { "fid": 17, "name": "Dar Tea Bar", "type": "cafe", "description": null }, "geometry": { "type": "Point", "coordinates": [ 74.836011558670776, 34.134469776076649 ] } },
{ "type": "Feature", "properties": { "fid": 18, "name": "Book Seller", "type": "shop", "description": null }, "geometry": { "type": "Point", "coordinates": [ 74.83612273313237, 34.134497631235064 ] } },
{ "type": "Feature", "properties": { "fid": 19, "name": "The Law cafe", "type": "cafe", "description": null }, "geometry": { "type": "Point", "coordinates": [ 74.837968382654822, 34.134324018897701 ] } },
{ "type": "Feature", "properties": { "fid": 20, "name": "Cafe", "type": "cafe", "description": null }, "geometry": { "type": "Point", "coordinates": [ 74.832796010088927, 34.132246987077288 ] } },
{ "type": "Feature", "properties": { "fid": 21, "name": "Photostate New", "type": "shop", "description": null }, "geometry": { "type": "Point", "coordinates": [ 74.83316435586228, 34.132270482361662 ] } }
]
}
