{
"type": "FeatureCollection",
"name": "finalroads",
"crs": { "type": "name", "properties": { "name": "urn:ogc:def:crs:OGC:1.3:CRS84" } },
"features": [
{ "type": "Feature", "properties": { "fid": 1, "name": "Allama Iqbal Library Road", "type": "primary", "length": 68.882376159639549 }, "geometry": { "type": "LineString", "coordinates": [ [ 74.836441291618272, 34.130303954565662 ], [ 74.836393259086648, 34.130923651563997 ] ] } },
{ "type": "Feature", "properties": { "fid": 2, "name": "Rumi Gate Road", "type": "primary", "length": 235.75368212950701 }, "geometry": { "type": "LineString", "coordinates": [ [ 74.840852544843727, 34.13184989210729 ], [ 74.838323759917571, 34.131541590654606 ] ] } },
{ "type": "Feature", "properties": { "fid": 3, "name": "Girls Hostel Road", "type": "primary", "length": 71.334193600754162 }, "geometry": { "type": "LineString", "coordinates": [ [ 74.835806283873566, 34.128479174454448 ], [ 74.83657743440088, 34.128527185405318 ] ] } },
{ "type": "Feature", "properties": { "fid": 4, "name": "CCPC Road", "type": "primary", "length": 126.87946439829946 }, "geometry": { "type": "LineString", "coordinates": [ [ 74.835028652967779, 34.129682246380888 ], [ 74.834671600065036, 34.129662283188338 ], [ 74.833657701739043, 34.129590027721648 ] ] } },
{ "type": "Feature", "properties": { "fid": 5, "name": "Health Care Road", "type": "primary", "length": 69.642764693862574 }, "geometry": { "type": "LineString", "coordinates": [ [ 74.835028652967779, 34.129682246380888 ], [ 74.835082310284449, 34.129055995962226 ] ] } },
{ "type": "Feature", "properties": { "fid": 6, "name": "Prof Quarter Lane 1", "type": "secondary", "length": 35.227878583625689 }, "geometry": { "type": "LineString", "coordinates": [ [ 74.833791449525918, 34.128740000359841 ], [ 74.833793586144154, 34.128726421189604 ], [ 74.833842182714747, 34.128425231607878 ] ] } },
{ "type": "Feature", "properties": { "fid": 7, "name": "Prof Quarter Lane 2", "type": "secondary", "length": 97.363983873345134 }, "geometry": { "type": "LineString", "coordinates": [ [ 74.833698300515124, 34.129332004233291 ], [ 74.834749196101171, 34.129413893749778 ] ] } },
{ "type": "Feature", "properties": { "fid": 8, "name": "Childrens Park Road", "type": "secondary", "length": 75.650414109490754 }, "geometry": { "type": "LineString", "coordinates": [ [ 74.834263379851038, 34.129019517587416 ], [ 74.835082310284449, 34.129055995962226 ] ] } },
{ "type": "Feature", "properties": { "fid": 9, "name": "Employee Quarters Road", "type": "secondary", "length": 199.27559257728305 }, "geometry": { "type": "LineString", "coordinates": [ [ 74.833425273546524, 34.129573463725933 ], [ 74.833360735726288, 34.129563717139241 ], [ 74.833331839846124, 34.129551757553401 ], [ 74.833300054377958, 34.129532622212551 ], [ 74.833288496025915, 34.129506311111797 ], [ 74.833282716849894, 34.129489567679791 ], [ 74.833354956550266, 34.129018358304606 ], [ 74.833549935696126, 34.127867707526391 ] ] } },
{ "type": "Feature", "properties": { "fid": 10, "name": "Teachers Quarter Lane 1", "type": "secondary", "length": 47.840172740726068 }, "geometry": { "type": "LineString", "coordinates": [ [ 74.835806283873566, 34.128479174454448 ], [ 74.835845607426094, 34.128049130924744 ] ] } },
{ "type": "Feature", "properties": { "fid": 11, "name": "Teachers Quarter Lane 2", "type": "secondary", "length": 66.255170577395575 }, "geometry": { "type": "LineString", "coordinates": [ [ 74.835130018055764, 34.12799772123126 ], [ 74.8358456869355, 34.128048261407585 ] ] } },
{ "type": "Feature", "properties": { "fid": 12, "name": "Sheikh ul alam Studies Road", "type": "secondary", "length": 41.647134444962788 }, "geometry": { "type": "LineString", "coordinates": [ [ 74.83657743440088, 34.128527185405318 ], [ 74.837025598924228, 34.128572616970523 ] ] } },
{ "type": "Feature", "properties": { "fid": 13, "name": "Residetial Hostel Path", "type": "footpath", "length": 37.77889242775651 }, "geometry": { "type": "LineString", "coordinates": [ [ 74.836154909413125, 34.128732750387833 ], [ 74.836563321547047, 34.128758106348116 ] ] } },
{ "type": "Feature", "properties": { "fid": 14, "name": "Boys Provost Path", "type": "footpath", "length": 36.769378999396999 }, "geometry": { "type": "LineString", "coordinates": [ [ 74.836142145982365, 34.12912498627648 ], [ 74.836539003847193, 34.12915600362976 ] ] } },
{ "type": "Feature", "properties": { "fid": 15, "name": "Convocation Block Road", "type": "secondary", "length": 183.03057850103951 }, "geometry": { "type": "LineString", "coordinates": [ [ 74.836490403805243, 34.129763974363513 ], [ 74.837008808760032, 34.129802114377178 ], [ 74.837035633355171, 34.129793787667587 ], [ 74.837032280280781, 34.129771583104684 ], [ 74.83702892720639, 34.129743827392829 ], [ 74.83702892720639, 34.129732725105548 ], [ 74.837005455685642, 34.129655009053707 ], [ 74.836988690313675, 34.129588395238109 ], [ 74.836971924941722, 34.129513454632807 ], [ 74.83695515956974, 34.129457943030495 ], [ 74.83696521879294, 34.12940798255724 ], [ 74.836975278016112, 34.129346919716511 ], [ 74.836985337239284, 34.129294183591284 ], [ 74.837005455685642, 34.129255325372704 ], [ 74.83702222105758, 34.129227569491363 ], [ 74.837042339503952, 34.129180384472136 ], [ 74.837059104875934, 34.129138750609769 ], [ 74.837059104875934, 34.129110994690159 ], [ 74.837059104875934, 34.129077687574565 ], [ 74.837049045652734, 34.129049931634881 ], [ 74.837025574131999, 34.129027726876572 ], [ 74.836548818007529, 34.12899541986809 ] ] } },
{ "type": "Feature", "properties": { "fid": 16, "name": "Examination Block Road", "type": "secondary", "length": 79.479562957511831 }, "geometry": { "type": "LineString", "coordinates": [ [ 74.836459644442442, 34.130099871958933 ], [ 74.837261820576813, 34.130159067310103 ], [ 74.837318087526882, 34.130160619837355 ] ] } },
{ "type": "Feature", "properties": { "fid": 17, "name": "Atheletic Track Road", "type": "secondary", "length": 161.3032388330453 }, "geometry": { "type": "LineString", "coordinates": [ [ 74.838323759917571, 34.131541590654606 ], [ 74.838398102285879, 34.131039480137495 ], [ 74.838444768034421, 34.13081093156044 ], [ 74.838460323283925, 34.13052122120844 ], [ 74.838475878533444, 34.130299109266119 ], [ 74.838526433094316, 34.130099529921573 ] ] } },
{ "type": "Feature", "properties": { "fid": 18, "name": "Administration Block Road", "type": "secondary", "length": 127.11203665877363 }, "geometry": { "type": "LineString", "coordinates": [ [ 74.837990513511031, 34.131500962307697 ], [ 74.8380473454786, 34.131211236581173 ], [ 74.838072688661839, 34.131106346806924 ], [ 74.838064240934088, 34.131050405540762 ], [ 74.8380473454786, 34.131015442230627 ], [ 74.837346184075386, 34.130959500904311 ], [ 74.837267644027762, 34.130953590713538 ] ] } },
{ "type": "Feature", "properties": { "fid": 19, "name": "Gandhi Bhawan Road", "type": "primary", "length": 192.0437534737205 }, "geometry": { "type": "LineString", "coordinates": [ [ 74.838323759917571, 34.131541590654606 ], [ 74.838054171725673, 34.133258312242361 ] ] } },
{ "type": "Feature", "properties": { "fid": 20, "name": "Allama Iqbal Library Road", "type": "primary", "length": 34.355678126336699 }, "geometry": { "type": "LineString", "coordinates": [ [ 74.836236250053304, 34.133150399198122 ], [ 74.836229550456366, 34.13323888643815 ], [ 74.836235832562963, 34.133459882715343 ] ] } },
{ "type": "Feature", "properties": { "fid": 21, "name": "University Central Road", "type": "primary", "length": 41.488971044050331 }, "geometry": { "type": "LineString", "coordinates": [ [ 74.832799602031884, 34.13298103635416 ], [ 74.833248783404414, 34.133000502536298 ] ] } },
{ "type": "Feature", "properties": { "fid": 22, "name": "Allama Iqbal Library Road", "type": "primary", "length": 110.75700320140466 }, "geometry": { "type": "LineString", "coordinates": [ [ 74.836309726700378, 34.132153791934194 ], [ 74.836301794682157, 34.132284695878312 ], [ 74.836236250053304, 34.133150399198122 ] ] } },
{ "type": "Feature", "properties": { "fid": 23, "name": "Humanities Block Road", "type": "primary", "length": 93.913710720804659 }, "geometry": { "type": "LineString", "coordinates": [ [ 74.835519386413338, 34.13120171340686 ], [ 74.835688229842631, 34.131222752693098 ], [ 74.836299786180945, 34.131295454273818 ], [ 74.836363861918954, 34.131302922361513 ], [ 74.836527078877111, 34.131322544990006 ] ] } },
{ "type": "Feature", "properties": { "fid": 24, "name": "Urdu block road", "type": "secondary", "length": 32.182035097803855 }, "geometry": { "type": "LineString", "coordinates": [ [ 74.833261972518613, 34.132663000572528 ], [ 74.833271282026189, 34.132424775545267 ], [ 74.83326455743655, 34.132380245681496 ], [ 74.83326455743655, 34.132373351215698 ] ] } },
{ "type": "Feature", "properties": { "fid": 25, "name": "Arts Block Road", "type": "primary", "length": 64.897518922096936 }, "geometry": { "type": "LineString", "coordinates": [ [ 74.83326455743655, 34.132380245681496 ], [ 74.833965054207624, 34.132434810239602 ] ] } },
{ "type": "Feature", "properties": { "fid": 26, "name": "Arts Block Lane 1", "type": "secondary", "length": 46.095935689268785 }, "geometry": { "type": "LineString", "coordinates": [ [ 74.833859683619878, 34.132024005926795 ], [ 74.834358250836218, 34.132052343417953 ] ] } },
{ "type": "Feature", "properties": { "fid": 27, "name": "Arts Block Lane 2", "type": "secondary", "length": 39.774805961164603 }, "geometry": { "type": "LineString", "coordinates": [ [ 74.833950465580031, 34.131734560020547 ], [ 74.834380557668069, 34.131760259461821 ] ] } },
{ "type": "Feature", "properties": { "fid": 28, "name": "Media Block Road", "type": "primary", "length": 61.460223875235457 }, "geometry": { "type": "LineString", "coordinates": [ [ 74.833248783404414, 34.133000502536298 ], [ 74.833216358461499, 34.133290583586266 ], [ 74.833207408868603, 34.133553217791103 ] ] } },
{ "type": "Feature", "properties": { "fid": 29, "name": "Science Block Road", "type": "primary", "length": 105.8953584657973 }, "geometry": { "type": "LineString", "coordinates": [ [ 74.833923262087751, 34.133970305046752 ], [ 74.833923262087751, 34.133956434121281 ], [ 74.833923262087751, 34.133922294187315 ], [ 74.833916387862914, 34.133862549269672 ], [ 74.833906076525693, 34.133819874302652 ], [ 74.833895765188487, 34.133771509313966 ], [ 74.833875142514046, 34.133734524303961 ], [ 74.833857956951988, 34.133691849272282 ], [ 74.833840771389973, 34.133626414181876 ], [ 74.833833897165135, 34.133583739095606 ], [ 74.833827022940326, 34.133529683955423 ], [ 74.833823585827901, 34.133492698839589 ], [ 74.833823585827901, 34.133438643641171 ], [ 74.833849889045368, 34.133026552663509 ] ] } },
{ "type": "Feature", "properties": { "fid": 30, "name": "Clinical Biochemistry Road", "type": "primary", "length": 54.763201087504001 }, "geometry": { "type": "LineString", "coordinates": [ [ 74.834941404099069, 34.133075019478532 ], [ 74.834856222696601, 34.133563608320777 ] ] } },
{ "type": "Feature", "properties": { "fid": 31, "name": "Biochemistry Road", "type": "primary", "length": 35.332614212306893 }, "geometry": { "type": "LineString", "coordinates": [ [ 74.834856222696601, 34.133563608320777 ], [ 74.834820495784285, 34.133673372403173 ], [ 74.834812474153892, 34.133741097823069 ], [ 74.834809265501761, 34.133786248072838 ], [ 74.834801243871368, 34.133847333666502 ], [ 74.834794979686095, 34.133876962501688 ] ] } },
{ "type": "Feature", "properties": { "fid": 32, "name": "Education Block Road", "type": "primary", "length": 76.128072985329908 }, "geometry": { "type": "LineString", "coordinates": [ [ 74.833923262087751, 34.133970305046752 ], [ 74.833955764029781, 34.134013326904551 ], [ 74.83397501594267, 34.134033246071205 ], [ 74.834002289485952, 34.134046525513035 ], [ 74.83404560628999, 34.134053165233155 ], [ 74.834092131746146, 34.13405582112108 ], [ 74.834151491810943, 34.134057149064986 ], [ 74.834220477832162, 34.13406113289664 ], [ 74.834279837896972, 34.134059804952763 ], [ 74.834319946048851, 34.1340584770089 ], [ 74.834364867178934, 34.134053165233155 ], [ 74.834396953700434, 34.13404386962484 ], [ 74.834408183982958, 34.134013326904551 ], [ 74.834409788309031, 34.13399606362298 ], [ 74.834411392635118, 34.133974816502366 ], [ 74.834416205613351, 34.133944273757116 ], [ 74.834417809939424, 34.133925682515475 ], [ 74.83442101859157, 34.133908419216013 ], [ 74.834422622917629, 34.133892483859533 ], [ 74.834425831569803, 34.133881860286863 ], [ 74.8344386661784, 34.133880532340193 ], [ 74.834461126743449, 34.133880532340193 ], [ 74.834502839221386, 34.133877876446775 ], [ 74.834517278156071, 34.133877876446775 ], [ 74.834531717090741, 34.133877876446775 ] ] } },
{ "type": "Feature", "properties": { "fid": 33, "name": "Pharma Road", "type": "secondary", "length": 24.324253403083418 }, "geometry": { "type": "LineString", "coordinates": [ [ 74.834531717090741, 34.133877876446775 ], [ 74.834616746372731, 34.133872564659697 ], [ 74.834644019916013, 34.133872564659697 ], [ 74.834669689133221, 34.133872564659697 ], [ 74.834704984306867, 34.133873892606502 ], [ 74.834735466502281, 34.133876548500041 ], [ 74.834794979686095, 34.133876962501688 ] ] } },
{ "type": "Feature", "properties": { "fid": 34, "name": "CIRI Block Road", "type": "primary", "length": 162.12711097123682 }, "geometry": { "type": "LineString", "coordinates": [ [ 74.835081004955384, 34.131150025441151 ], [ 74.835140255605509, 34.130310676097238 ], [ 74.835185534926353, 34.12969101781146 ] ] } },
{ "type": "Feature", "properties": { "fid": 35, "name": "Boys Hostel Road", "type": "primary", "length": 91.739666729861696 }, "geometry": { "type": "LineString", "coordinates": [ [ 74.837124122598937, 34.136344870727434 ], [ 74.837121579762197, 34.136405306399602 ], [ 74.837063645337622, 34.137170361908488 ] ] } },
{ "type": "Feature", "properties": { "fid": 36, "name": "Naseem Bagh Road", "type": "primary", "length": 86.59045668704529 }, "geometry": { "type": "LineString", "coordinates": [ [ 74.838038097522059, 34.137022526981262 ], [ 74.838020623501151, 34.137485348951017 ], [ 74.837981806763892, 34.137801277039344 ] ] } },
{ "type": "Feature", "properties": { "fid": 37, "name": "Boys Hostel Road", "type": "primary", "length": 81.6271472317041 }, "geometry": { "type": "LineString", "coordinates": [ [ 74.837018951152203, 34.137758775488294 ], [ 74.836962380912865, 34.138493148244876 ] ] } },
{ "type": "Feature", "properties": { "fid": 38, "name": "Naseem Bagh Road", "type": "primary", "length": 80.298594125602349 }, "geometry": { "type": "LineString", "coordinates": [ [ 74.837981806763892, 34.137801277039344 ], [ 74.837971727716479, 34.13788331005928 ], [ 74.837873936147119, 34.138416170303401 ], [ 74.837858103061706, 34.138517732341874 ] ] } },
{ "type": "Feature", "properties": { "fid": 39, "name": "Budshah Gate Road", "type": "primary", "length": 298.18907963178674 }, "geometry": { "type": "LineString", "coordinates": [ [ 74.836336707005671, 34.137728397737632 ], [ 74.837018951152203, 34.137758775488294 ], [ 74.837981806763892, 34.137801277039337 ], [ 74.839561927291314, 34.137909615897009 ] ] } },
{ "type": "Feature", "properties": { "fid": 40, "name": "Zabarwan Guest House Road", "type": "primary", "length": 202.22205381587651 }, "geometry": { "type": "LineString", "coordinates": [ [ 74.838697217145508, 34.133360691577394 ], [ 74.838904614170289, 34.13337720557616 ], [ 74.839039245199842, 34.133380688033178 ], [ 74.839207533986752, 34.133391135403336 ], [ 74.83930850725892, 34.133394617859764 ], [ 74.839413687750749, 34.133401582772208 ], [ 74.839510453803229, 34.13340506522821 ], [ 74.839628255954068, 34.133408547684063 ], [ 74.839661913711481, 34.133422477506073 ], [ 74.839691364249177, 34.133439889780348 ], [ 74.839695571468852, 34.133450337143195 ], [ 74.839708193127876, 34.133467749411729 ], [ 74.839712400347537, 34.133485161676667 ], [ 74.839712400347537, 34.133502573938024 ], [ 74.839712400347537, 34.13353391599945 ], [ 74.839674535370492, 34.133941361740106 ], [ 74.839674535370492, 34.134052799549323 ], [ 74.839653499272131, 34.134188614180637 ], [ 74.839645084832782, 34.134268709886548 ], [ 74.839645084832782, 34.134334875847216 ], [ 74.839645084832782, 34.134387112095375 ], [ 74.839636670393418, 34.134418453828765 ] ] } },
{ "type": "Feature", "properties": { "fid": 41, "name": "Law Block Road", "type": "primary", "length": 150.31750161847796 }, "geometry": { "type": "LineString", "coordinates": [ [ 74.838027772735984, 34.134452327941219 ], [ 74.838061737295149, 34.134453511657057 ], [ 74.838348319075195, 34.134464133015214 ], [ 74.838579295435281, 34.13446767346764 ], [ 74.838823103815329, 34.13447475437205 ], [ 74.83901986145537, 34.13447475437205 ], [ 74.839173845695413, 34.134478294824028 ], [ 74.839332107275453, 34.134481835275857 ], [ 74.839439040775474, 34.134481835275857 ], [ 74.839498923535501, 34.13447475437205 ], [ 74.839537419595501, 34.134464133015214 ], [ 74.839588747675535, 34.134453511657057 ], [ 74.839636670393418, 34.134418453828765 ] ] } },
{ "type": "Feature", "properties": { "fid": 42, "name": "Social Science Block Road", "type": "primary", "length": 117.37521252905532 }, "geometry": { "type": "LineString", "coordinates": [ [ 74.838550005658234, 34.1335559418606 ], [ 74.838550840676959, 34.133591191634281 ], [ 74.838538238752577, 34.133723317655097 ], [ 74.838542439394047, 34.133824150532 ], [ 74.838538238752577, 34.133876305421133 ], [ 74.838534038111135, 34.133904121348834 ], [ 74.838517235545282, 34.133956276188634 ], [ 74.838471028489266, 34.133994523050667 ], [ 74.838433222716162, 34.13403276989542 ], [ 74.838391216301588, 34.134060585771635 ], [ 74.838336607962646, 34.134109263532977 ], [ 74.838265197057879, 34.134154464286283 ], [ 74.838210588718937, 34.134192711058638 ], [ 74.838164381662907, 34.134220526882217 ], [ 74.838151779738538, 34.134251819672791 ], [ 74.838105572682508, 34.134314405219193 ], [ 74.838027772735984, 34.134452327941219 ] ] } },
{ "type": "Feature", "properties": { "fid": 43, "name": "Naseem Bagh Road", "type": "primary", "length": 77.155044460691585 }, "geometry": { "type": "LineString", "coordinates": [ [ 74.838092379284802, 34.134892142492617 ], [ 74.838093967178153, 34.135104288255327 ], [ 74.838093967178153, 34.135171741322985 ], [ 74.838093967178153, 34.135252684933107 ], [ 74.838093967178153, 34.135374100202931 ], [ 74.838093967178153, 34.135509005853713 ], [ 74.838093967178153, 34.135587699906573 ] ] } },
{ "type": "Feature", "properties": { "fid": 44, "name": "Kashmir Studies Road", "type": "primary", "length": 233.83219797757818 }, "geometry": { "type": "LineString", "coordinates": [ [ 74.83715973737047, 34.135545855749442 ], [ 74.838093967178153, 34.135587699906566 ], [ 74.839691683081526, 34.135650844021171 ] ] } },
{ "type": "Feature", "properties": { "fid": 45, "name": "Social Work Block Road", "type": "primary", "length": 86.511811761089604 }, "geometry": { "type": "LineString", "coordinates": [ [ 74.837124122598937, 34.136344870727434 ], [ 74.838061369988353, 34.136374632776572 ] ] } },
{ "type": "Feature", "properties": { "fid": 46, "name": "KUTA Road", "type": "primary", "length": 108.85129547488114 }, "geometry": { "type": "LineString", "coordinates": [ [ 74.838038097522059, 34.137022526981262 ], [ 74.83921563045827, 34.137087681204775 ] ] } },
{ "type": "Feature", "properties": { "fid": 47, "name": "Naseem Bagh Road", "type": "primary", "length": 71.661565346072734 }, "geometry": { "type": "LineString", "coordinates": [ [ 74.837858103061706, 34.138517732341874 ], [ 74.837841338957347, 34.138625266443277 ], [ 74.837825040362446, 34.13890855716226 ], [ 74.83781280793913, 34.139162341719349 ] ] } },
{ "type": "Feature", "properties": { "fid": 48, "name": "UGC Training Centre Lane", "type": "primary", "length": 204.95736294006323 }, "geometry": { "type": "LineString", "coordinates": [ [ 74.836962380912865, 34.138493148244876 ], [ 74.837858103061691, 34.138517732341874 ], [ 74.838216547908289, 34.138528133651555 ], [ 74.838329264602805, 34.138528133651555 ], [ 74.838411240380609, 34.13854509614233 ], [ 74.83843173432507, 34.138706239635077 ], [ 74.83843173432507, 34.138824976748865 ], [ 74.838441981297294, 34.138935232490859 ], [ 74.838437928975523, 34.13918415971753 ] ] } },
{ "type": "Feature", "properties": { "fid": 49, "name": "Music & Fine Arts Road", "type": "primary", "length": 57.708089061365229 }, "geometry": { "type": "LineString", "coordinates": [ [ 74.83781280793913, 34.139162341719349 ], [ 74.838437928975523, 34.13918415971753 ] ] } },
{ "type": "Feature", "properties": { "fid": 50, "name": "Anthropology Lane", "type": "primary", "length": 70.649689015477094 }, "geometry": { "type": "LineString", "coordinates": [ [ 74.837198104801047, 34.134824761460962 ], [ 74.837510604422206, 34.134862304151383 ], [ 74.83773059221717, 34.134872859982003 ], [ 74.837953768241022, 34.134893971639272 ], [ 74.837958999678435, 34.134893902603892 ] ] } },
{ "type": "Feature", "properties": { "fid": 51, "name": "Law Lane", "type": "primary", "length": 49.390653893582865 }, "geometry": { "type": "LineString", "coordinates": [ [ 74.838027772735984, 34.134452327941219 ], [ 74.837958999678435, 34.134893902603892 ] ] } },
{ "type": "Feature", "properties": { "fid": 52, "name": "Food Tech Lane", "type": "primary", "length": 159.39405297463668 }, "geometry": { "type": "LineString", "coordinates": [ [ 74.837203281626998, 34.134584102384352 ], [ 74.837019343509283, 34.134570742366172 ], [ 74.836905275137923, 34.134567965398773 ], [ 74.836757657245599, 34.134556857528253 ], [ 74.83665700868265, 34.134537418751336 ], [ 74.836566424975985, 34.134515203000795 ], [ 74.83652281059868, 34.134487433304415 ], [ 74.836475841269333, 34.134456886627859 ], [ 74.83645571155671, 34.134423562968117 ], [ 74.83645571155671, 34.13439579324163 ], [ 74.836452356604639, 34.134365246531964 ], [ 74.836452356604639, 34.134337476786307 ], [ 74.835637103244679, 34.134262498427475 ] ] } },
{ "type": "Feature", "properties": { "fid": 53, "name": "CS Lane", "type": "secondary", "length": 30.434598597847302 }, "geometry": { "type": "LineString", "coordinates": [ [ 74.833439910696939, 34.133008785423606 ], [ 74.833406310734858, 34.133281730550713 ] ] } },
{ "type": "Feature", "properties": { "fid": 54, "name": "Physics & Maths Lane", "type": "secondary", "length": 31.11452047588039 }, "geometry": { "type": "LineString", "coordinates": [ [ 74.834280211107682, 34.133045201539339 ], [ 74.834252089915822, 34.133324726146228 ] ] } },
{ "type": "Feature", "properties": { "fid": 55, "name": "Chemistry Lane", "type": "secondary", "length": 33.315893632769999 }, "geometry": { "type": "LineString", "coordinates": [ [ 74.83536837378378, 34.133095311440478 ], [ 74.835342820411014, 34.133394905504261 ] ] } },
{ "type": "Feature", "properties": { "fid": 56, "name": "Library Lane", "type": "secondary", "length": 57.549915001447829 }, "geometry": { "type": "LineString", "coordinates": [ [ 74.835919553720046, 34.133121506560855 ], [ 74.835917065705331, 34.133407464825098 ], [ 74.835918232870569, 34.133545617231221 ], [ 74.83591589854008, 34.133640294973532 ] ] } },
{ "type": "Feature", "properties": { "fid": 57, "name": "Cafe Lane", "type": "secondary", "length": 106.70872589745028 }, "geometry": { "type": "LineString", "coordinates": [ [ 74.835674155490736, 34.133109843879154 ], [ 74.835647311629444, 34.133608141786034 ], [ 74.835645197698341, 34.133660634780426 ], [ 74.835640969836092, 34.133695630091907 ], [ 74.835628286249445, 34.133711377977349 ], [ 74.835609260869461, 34.133723626330664 ], [ 74.83559234942058, 34.133730625388907 ], [ 74.835569096178375, 34.133734124917801 ], [ 74.835550070798362, 34.133741123975184 ], [ 74.835535273280598, 34.133753372324186 ], [ 74.835522589693952, 34.13375862161606 ], [ 74.83550567824507, 34.133770869962532 ], [ 74.835488766796203, 34.133795366650141 ], [ 74.835480311071748, 34.133811114517002 ], [ 74.835459171760647, 34.133826862380921 ], [ 74.835423234931795, 34.133840860479722 ], [ 74.835389412034033, 34.133842610241913 ], [ 74.835342905549624, 34.133847859528252 ], [ 74.8352963990652, 34.133847859528252 ], [ 74.835264690098555, 34.133840860479722 ], [ 74.835263871119921, 34.133840376270832 ] ] } },
{ "type": "Feature", "properties": { "fid": 58, "name": "Commerce Lane", "type": "secondary", "length": 50.601810397602449 }, "geometry": { "type": "LineString", "coordinates": [ [ 74.837238248125374, 34.133980422298869 ], [ 74.837394467122948, 34.133999002316884 ], [ 74.837456862186372, 34.133999002316884 ], [ 74.83754421527513, 34.134005888464657 ], [ 74.837579572477736, 34.134016217685271 ], [ 74.83758373214863, 34.134021382295096 ], [ 74.83758373214863, 34.134048926875522 ], [ 74.837587891819524, 34.134071306840511 ], [ 74.837592051490418, 34.134098851404666 ], [ 74.837592051490418, 34.134112623683386 ], [ 74.837592051490418, 34.134135003631499 ], [ 74.837596211161312, 34.134153940506039 ], [ 74.837598290996752, 34.134167712775771 ], [ 74.837598290996752, 34.134183206576544 ] ] } },
{ "type": "Feature", "properties": { "fid": 59, "name": "Gandhi Bhawan Lane", "type": "secondary", "length": 77.193949976650572 }, "geometry": { "type": "LineString", "coordinates": [ [ 74.838054171725673, 34.133258312242361 ], [ 74.838051695124165, 34.133293169194282 ], [ 74.838045455617802, 34.13334825882081 ], [ 74.838032976605149, 34.133408513058704 ], [ 74.838026737098787, 34.133456716418081 ], [ 74.838022577427907, 34.133506641297053 ], [ 74.838049615288725, 34.133520413672272 ], [ 74.838101611174892, 34.133534186045232 ], [ 74.838145287719271, 34.133535907591686 ], [ 74.838193123934559, 34.133537629138125 ], [ 74.838257598833408, 34.133537629138125 ], [ 74.838309594719561, 34.133539350684508 ], [ 74.838338712415805, 34.133541072230869 ], [ 74.838361590605743, 34.133541072230869 ], [ 74.838407346985562, 34.133549679962144 ], [ 74.838442704188168, 34.133549679962144 ], [ 74.838482221061653, 34.133553123054398 ], [ 74.838550005658234, 34.1335559418606 ] ] } },
{ "type": "Feature", "properties": { "fid": 60, "name": "Media Lane", "type": "secondary", "length": 57.411066388504409 }, "geometry": { "type": "LineString", "coordinates": [ [ 74.833198031369761, 34.133828409297777 ], [ 74.832955808747357, 34.133806593661326 ], [ 74.832851957085609, 34.133806593661326 ], [ 74.832800031254749, 34.133806593661326 ], [ 74.832806521983585, 34.133991947021606 ] ] } },
{ "type": "Feature", "properties": { "fid": 61, "name": "Earth Science Lane", "type": "secondary", "length": 37.386718603207974 }, "geometry": { "type": "LineString", "coordinates": [ [ 74.832802524270548, 34.133537596161887 ], [ 74.833207408868603, 34.133553217791103 ] ] } },
{ "type": "Feature", "properties": { "fid": 62, "name": "Urdu Lane", "type": "secondary", "length": 30.113510626473399 }, "geometry": { "type": "LineString", "coordinates": [ [ 74.833261972518613, 34.132663000572528 ], [ 74.832938562635846, 34.132625942771192 ] ] } },
{ "type": "Feature", "properties": { "fid": 63, "name": "Urdu Cafe Lane", "type": "secondary", "length": 37.984442051253268 }, "geometry": { "type": "LineString", "coordinates": [ [ 74.83326455743655, 34.132380245681496 ], [ 74.832934197177181, 34.132363371021967 ], [ 74.83288740595566, 34.132356328997894 ], [ 74.83285762972379, 34.132344005454364 ] ] } },
{ "type": "Feature", "properties": { "fid": 64, "name": "Humanities Block Path", "type": "footpath", "length": 34.83459244562895 }, "geometry": { "type": "LineString", "coordinates": [ [ 74.833947295063695, 34.13271746138598 ], [ 74.833949838161402, 34.132730793204672 ], [ 74.833942364105724, 34.132790596735326 ], [ 74.833937381401924, 34.132813280822091 ], [ 74.833934890050031, 34.132858648977361 ], [ 74.833934890050031, 34.132879270858069 ], [ 74.833927415994353, 34.132920514604393 ], [ 74.833927415994353, 34.132947323028702 ], [ 74.833913495867506, 34.133029309193631 ] ] } },
{ "type": "Feature", "properties": { "fid": 65, "name": "Humanities Front Path", "type": "footpath", "length": 33.020926954587907 }, "geometry": { "type": "LineString", "coordinates": [ [ 74.834304917080672, 34.132730880534027 ], [ 74.833947295063695, 34.13271746138598 ] ] } },
{ "type": "Feature", "properties": { "fid": 66, "name": "Track Lane ", "type": "secondary", "length": 24.752990113244316 }, "geometry": { "type": "LineString", "coordinates": [ [ 74.838526433094316, 34.130099529921573 ], [ 74.838611006492229, 34.130116364072805 ], [ 74.838672893616021, 34.130130335351993 ], [ 74.838754472097392, 34.130144306628871 ], [ 74.838785415659288, 34.130155949357835 ] ] } },
{ "type": "Feature", "properties": { "fid": 67, "name": "Old Adm Lane", "type": "secondary", "length": 37.370483904754295 }, "geometry": { "type": "LineString", "coordinates": [ [ 74.837504821767638, 34.130130099610497 ], [ 74.837704241455768, 34.130146286604003 ], [ 74.837762226415123, 34.130153670901166 ], [ 74.837842513281956, 34.130164747345731 ], [ 74.837851434044936, 34.130186900230477 ], [ 74.83786035480793, 34.130216437401124 ] ] } },
{ "type": "Feature", "properties": { "fid": 68, "name": "Girls Hostel Lane 1", "type": "secondary", "length": 66.281917251383902 }, "geometry": { "type": "LineString", "coordinates": [ [ 74.834944715434702, 34.128406164559536 ], [ 74.834924910518495, 34.12838977040105 ], [ 74.834832085355075, 34.128382086496686 ], [ 74.834743901449812, 34.128370560638814 ], [ 74.83456753363933, 34.128359034779386 ], [ 74.834456143443248, 34.128351350872236 ], [ 74.834238004309199, 34.128332141101261 ] ] } },
{ "type": "Feature", "properties": { "fid": 69, "name": "Girls Hostel Lane 2", "type": "secondary", "length": 40.065900329535737 }, "geometry": { "type": "LineString", "coordinates": [ [ 74.834944715434702, 34.128406164559536 ], [ 74.834972106957139, 34.128045684478806 ] ] } },
{ "type": "Feature", "properties": { "fid": 70, "name": "Staff Hostel Path 1", "type": "footpath", "length": 15.204688400997265 }, "geometry": { "type": "LineString", "coordinates": [ [ 74.8358456869355, 34.128048261407585 ], [ 74.836010298553219, 34.128041244488756 ] ] } },
{ "type": "Feature", "properties": { "fid": 71, "name": "Staff Hostel Path 2", "type": "footpath", "length": 12.812335182033443 }, "geometry": { "type": "LineString", "coordinates": [ [ 74.835860232617179, 34.127889189404051 ], [ 74.835998687580357, 34.127898355279946 ] ] } },
{ "type": "Feature", "properties": { "fid": 72, "name": "Masjid Path", "type": "footpath", "length": 74.350150998843191 }, "geometry": { "type": "LineString", "coordinates": [ [ 74.835668557051008, 34.130113324940197 ], [ 74.836441291618272, 34.130303954565662 ] ] } },
{ "type": "Feature", "properties": { "fid": 73, "name": "Masjid Path 2", "type": "footpath", "length": 86.360271226824651 }, "geometry": { "type": "LineString", "coordinates": [ [ 74.835668557051008, 34.130113324940197 ], [ 74.835658976632089, 34.130139759407349 ], [ 74.835642856040337, 34.130168353830761 ], [ 74.835626735448571, 34.13020076083226 ], [ 74.8356129177985, 34.130231261528202 ], [ 74.835596797206748, 34.13027891884358 ], [ 74.835587585440024, 34.130311325802687 ], [ 74.835585282498343, 34.130332295004912 ], [ 74.835582979556676, 34.130349451621036 ], [ 74.835615220740181, 34.130410452894616 ], [ 74.835582979556676, 34.130658270115838 ], [ 74.835557977024109, 34.130871932436477 ] ] } },
{ "type": "Feature", "properties": { "fid": 74, "name": "IT Path", "type": "footpath", "length": 77.262074191666741 }, "geometry": { "type": "LineString", "coordinates": [ [ 74.835557977024109, 34.130871932436477 ], [ 74.836393259086648, 34.130923651563997 ] ] } },
{ "type": "Feature", "properties": { "fid": 75, "name": "Botany Lane", "type": "secondary", "length": 39.264134989553327 }, "geometry": { "type": "LineString", "coordinates": [ [ 74.834448967334154, 34.130799389257049 ], [ 74.834459719067809, 34.131153247220062 ] ] } },
{ "type": "Feature", "properties": { "fid": 76, "name": "Fountain Park Path", "type": "footpath", "length": 103.47942463789798 }, "geometry": { "type": "LineString", "coordinates": [ [ 74.835404860399962, 34.132162955846162 ], [ 74.835381199851909, 34.132652577237579 ], [ 74.83536837378378, 34.133095311440478 ] ] } },
{ "type": "Feature", "properties": { "fid": 77, "name": "Fountain Park Path 2", "type": "footpath", "length": 76.151667359573025 }, "geometry": { "type": "LineString", "coordinates": [ [ 74.835486556298193, 34.132101504624771 ], [ 74.836309726700378, 34.132153791934194 ] ] } },
{ "type": "Feature", "properties": { "fid": 78, "name": "Fountain Park Path", "type": "footpath", "length": 89.657276606614843 }, "geometry": { "type": "LineString", "coordinates": [ [ 74.834358250836218, 34.132052343417953 ], [ 74.835319893205195, 34.132088730841879 ], [ 74.835328260271396, 34.132092193745414 ] ] } },
{ "type": "Feature", "properties": { "fid": 79, "name": "Fountain Park Path 2", "type": "footpath", "length": 91.870332927309335 }, "geometry": { "type": "LineString", "coordinates": [ [ 74.835519386413338, 34.13120171340686 ], [ 74.835497001295707, 34.131257050542551 ], [ 74.835418665024903, 34.13202388826523 ], [ 74.835418883120511, 34.132024042644183 ] ] } },
{ "type": "Feature", "properties": { "fid": 80, "name": "Fountain Park Path", "type": "footpath", "length": 11.868413861671147 }, "geometry": { "type": "LineString", "coordinates": [ [ 74.835328260271396, 34.132092193745414 ], [ 74.8353403287541, 34.132097188565623 ], [ 74.8353403287541, 34.132119742491412 ], [ 74.83535395245336, 34.132136657931802 ], [ 74.83536417022782, 34.132142296411182 ], [ 74.835374388002279, 34.13215075412954 ], [ 74.835398229475999, 34.132156392607968 ], [ 74.835405041325615, 34.132159211847046 ], [ 74.835404860399962, 34.132162955846162 ] ] } },
{ "type": "Feature", "properties": { "fid": 81, "name": "Fountain Park Path 2", "type": "footpath", "length": 11.066707379960977 }, "geometry": { "type": "LineString", "coordinates": [ [ 74.835418883120511, 34.132024042644183 ], [ 74.835445299012846, 34.132042741130583 ], [ 74.835455619022383, 34.13205250381975 ], [ 74.835467413319009, 34.132063486843712 ], [ 74.835476259041499, 34.132074469866239 ], [ 74.835483630476887, 34.13210131724864 ], [ 74.835486556298193, 34.132101504624771 ] ] } },
{ "type": "Feature", "properties": { "fid": 82, "name": "Park Path 3", "type": "footpath", "length": 11.685972415161265 }, "geometry": { "type": "LineString", "coordinates": [ [ 74.835328260271396, 34.132092193745414 ], [ 74.83533513472905, 34.132077158394473 ], [ 74.835346067836724, 34.132065250709744 ], [ 74.835350671250481, 34.132060011327937 ], [ 74.835358151797834, 34.132053819330835 ], [ 74.835375990026151, 34.13204191164283 ], [ 74.835389800267421, 34.132037624874734 ], [ 74.835418883120511, 34.132024042644183 ] ] } },
{ "type": "Feature", "properties": { "fid": 83, "name": "Park path 4", "type": "footpath", "length": 10.713293073645231 }, "geometry": { "type": "LineString", "coordinates": [ [ 74.835404860399962, 34.132162955846162 ], [ 74.835418763670063, 34.132159155158753 ], [ 74.835422660674453, 34.13215846393134 ], [ 74.835429619610849, 34.132157081476478 ], [ 74.835433794972687, 34.132155699021602 ], [ 74.83543741361963, 34.132154546975855 ], [ 74.835439640479294, 34.132153625339242 ], [ 74.835442980768761, 34.132151551656825 ], [ 74.835448547917892, 34.132148095519355 ], [ 74.835450774777541, 34.132145561018447 ], [ 74.835458290428875, 34.132138187924468 ], [ 74.835462187433265, 34.13213496219565 ], [ 74.835467754582396, 34.132128971556099 ], [ 74.835473321731513, 34.132121828869927 ], [ 74.835476940378442, 34.132117451094238 ], [ 74.835477497093365, 34.132113764546098 ], [ 74.835486556298193, 34.132101504624771 ] ] } },
{ "type": "Feature", "properties": { "fid": 84, "name": "Food Tech Path", "type": "footpath", "length": 63.947493197262318 }, "geometry": { "type": "LineString", "coordinates": [ [ 74.835263871119921, 34.133840376270832 ], [ 74.835338902737874, 34.133910388588156 ], [ 74.835369813761218, 34.133927445873873 ], [ 74.835438504924213, 34.133947346036216 ], [ 74.835493457854596, 34.133964403314479 ], [ 74.835531237994232, 34.133984303468097 ], [ 74.835569018133867, 34.134012732250874 ], [ 74.835582756366477, 34.134038318147191 ], [ 74.835596494599073, 34.134066746911792 ], [ 74.835596494599073, 34.134092332791745 ], [ 74.835596494599073, 34.134126447286313 ], [ 74.835596494599073, 34.134177619002351 ], [ 74.835606798273517, 34.134203204848752 ], [ 74.835623971064265, 34.134217419204496 ], [ 74.835637103244679, 34.134262498427475 ] ] } },
{ "type": "Feature", "properties": { "fid": 85, "name": "Management Lane", "type": "secondary", "length": 21.073672443862012 }, "geometry": { "type": "LineString", "coordinates": [ [ 74.83698740938226, 34.134351729246312 ], [ 74.837214975783468, 34.134368590068654 ] ] } },
{ "type": "Feature", "properties": { "fid": 86, "name": "Distance Edu Lane", "type": "secondary", "length": 68.454479034416622 }, "geometry": { "type": "LineString", "coordinates": [ [ 74.837183839331445, 34.135114945519071 ], [ 74.836861714574567, 34.135085207093155 ], [ 74.836794410173781, 34.135082674866382 ], [ 74.836760757973394, 34.135095335999466 ], [ 74.836727105772979, 34.135171302758032 ], [ 74.836711809318274, 34.135232076115749 ], [ 74.836690394281646, 34.135348558262528 ] ] } },
{ "type": "Feature", "properties": { "fid": 87, "name": "Geography Lane", "type": "secondary", "length": 68.447816993743174 }, "geometry": { "type": "LineString", "coordinates": [ [ 74.837187308190053, 34.135052927052335 ], [ 74.836889248193074, 34.135029498086794 ], [ 74.836849477410794, 34.135021901401259 ], [ 74.836818884501341, 34.135019369172596 ], [ 74.83680052875566, 34.135006708028151 ], [ 74.836788291591887, 34.134994046881808 ], [ 74.836772995137153, 34.134963660122828 ], [ 74.836760757973394, 34.134923144427212 ], [ 74.836748520809607, 34.134875032013433 ], [ 74.836742402227728, 34.134847177445565 ], [ 74.836727105772979, 34.134786403811084 ], [ 74.836727105772979, 34.134728162370372 ] ] } },
{ "type": "Feature", "properties": { "fid": 88, "name": "Guest House Lane", "type": "secondary", "length": 123.91617565068321 }, "geometry": { "type": "LineString", "coordinates": [ [ 74.837033310758699, 34.137570946481283 ], [ 74.836594960962117, 34.137540725944625 ], [ 74.836646995495869, 34.137139502402633 ], [ 74.837063645337622, 34.137170361908488 ] ] } },
{ "type": "Feature", "properties": { "fid": 89, "name": "Zero Gate Lane", "type": "secondary", "length": 26.343830565197674 }, "geometry": { "type": "LineString", "coordinates": [ [ 74.836109498172235, 34.137631607585867 ], [ 74.836186484688156, 34.137639919035635 ], [ 74.836209915366936, 34.137639919035635 ], [ 74.836236693285528, 34.137639919035635 ], [ 74.836285228262966, 34.137649615726005 ], [ 74.836301964462066, 34.137677320549479 ], [ 74.836308658941732, 34.137687017235557 ], [ 74.836336707005671, 34.137728397737632 ] ] } },
{ "type": "Feature", "properties": { "fid": 90, "name": "Masjid Lane", "type": "secondary", "length": 26.99552120697351 }, "geometry": { "type": "LineString", "coordinates": [ [ 74.83634992837807, 34.139826909318316 ], [ 74.836337325171684, 34.139826604804867 ], [ 74.836250189943527, 34.139826604804867 ], [ 74.836197908806625, 34.139826604804867 ], [ 74.836102060055666, 34.139819392879367 ], [ 74.83605849244158, 34.139812180953257 ] ] } },
{ "type": "Feature", "properties": { "fid": 91, "name": "Music path ", "type": "footpath", "length": 49.573920249037805 }, "geometry": { "type": "LineString", "coordinates": [ [ 74.83736018058228, 34.139146544102132 ], [ 74.837363951588472, 34.139257800326803 ], [ 74.837372425058078, 34.139345466374479 ], [ 74.837376661792874, 34.139401572597258 ], [ 74.837372425058078, 34.139475211958121 ], [ 74.837325820975266, 34.139552357886387 ], [ 74.837308874036054, 34.139580410933739 ] ] } },
{ "type": "Feature", "properties": { "fid": 92, "name": "Health Care Road", "type": "primary", "length": 68.401349004079989 }, "geometry": { "type": "LineString", "coordinates": [ [ 74.835082310284449, 34.129055995962226 ], [ 74.835120817610573, 34.128440181388669 ] ] } },
{ "type": "Feature", "properties": { "fid": 93, "name": "Girls Hostel Road", "type": "primary", "length": 2.3578959626934277 }, "geometry": { "type": "LineString", "coordinates": [ [ 74.835095316111435, 34.128438730724085 ], [ 74.835120817610573, 34.128440181388669 ] ] } },
{ "type": "Feature", "properties": { "fid": 94, "name": "Girls Hostel Lane 1", "type": "secondary", "length": 14.831753724706187 }, "geometry": { "type": "LineString", "coordinates": [ [ 74.835095316111435, 34.128438730724085 ], [ 74.834966681842033, 34.12842434796206 ], [ 74.834944715434702, 34.128406164559536 ] ] } },
{ "type": "Feature", "properties": { "fid": 95, "name": "Girls Hostel Road", "type": "primary", "length": 63.378930873674726 }, "geometry": { "type": "LineString", "coordinates": [ [ 74.835120817610573, 34.128440181388669 ], [ 74.835806283873566, 34.128479174454448 ] ] } },
{ "type": "Feature", "properties": { "fid": 96, "name": "Teachers Quarter Lane 1", "type": "secondary", "length": 17.695957244423301 }, "geometry": { "type": "LineString", "coordinates": [ [ 74.8358456869355, 34.128048261407585 ], [ 74.835860232617179, 34.127889189404051 ] ] } },
{ "type": "Feature", "properties": { "fid": 97, "name": "Teachers Quarter Lane 1", "type": "secondary", "length": 0.096729394826526705 }, "geometry": { "type": "LineString", "coordinates": [ [ 74.835845607426094, 34.128049130924744 ], [ 74.8358456869355, 34.128048261407585 ] ] } },
{ "type": "Feature", "properties": { "fid": 98, "name": "Allama Iqbal Library Road", "type": "primary", "length": 75.613586691883967 }, "geometry": { "type": "LineString", "coordinates": [ [ 74.836619041064978, 34.127846398215702 ], [ 74.83657743440088, 34.128527185405318 ] ] } },
{ "type": "Feature", "properties": { "fid": 99, "name": "Allama Iqbal Library Road", "type": "primary", "length": 25.647900030247719 }, "geometry": { "type": "LineString", "coordinates": [ [ 74.83657743440088, 34.128527185405318 ], [ 74.836563321547047, 34.128758106348116 ] ] } },
{ "type": "Feature", "properties": { "fid": 100, "name": "Allama Iqbal Library Road", "type": "primary", "length": 26.35791085533053 }, "geometry": { "type": "LineString", "coordinates": [ [ 74.836563321547047, 34.128758106348116 ], [ 74.836548818007529, 34.12899541986809 ] ] } },
{ "type": "Feature", "properties": { "fid": 101, "name": "Allama Iqbal Library Road", "type": "primary", "length": 17.835699318344204 }, "geometry": { "type": "LineString", "coordinates": [ [ 74.836548818007529, 34.12899541986809 ], [ 74.836539003847193, 34.12915600362976 ] ] } },
{ "type": "Feature", "properties": { "fid": 102, "name": "Allama Iqbal Library Road", "type": "primary", "length": 67.592906994381707 }, "geometry": { "type": "LineString", "coordinates": [ [ 74.836539003847193, 34.12915600362976 ], [ 74.836524809466098, 34.129388258558812 ], [ 74.836490403805243, 34.129763974363513 ] ] } },
{ "type": "Feature", "properties": { "fid": 103, "name": "Allama Iqbal Library Road", "type": "primary", "length": 37.367230625082144 }, "geometry": { "type": "LineString", "coordinates": [ [ 74.836490403805243, 34.129763974363513 ], [ 74.836459644442442, 34.130099871958933 ] ] } },
{ "type": "Feature", "properties": { "fid": 104, "name": "Allama Iqbal Library Road", "type": "primary", "length": 22.701181996316819 }, "geometry": { "type": "LineString", "coordinates": [ [ 74.836459644442442, 34.130099871958933 ], [ 74.836443142080427, 34.130280080624388 ], [ 74.836441291618272, 34.130303954565662 ] ] } },
{ "type": "Feature", "properties": { "fid": 105, "name": "Allama Iqbal Library Road", "type": "primary", "length": 42.157821155145925 }, "geometry": { "type": "LineString", "coordinates": [ [ 74.836393259086648, 34.130923651563997 ], [ 74.836363861918954, 34.131302922361513 ] ] } },
{ "type": "Feature", "properties": { "fid": 106, "name": "Allama Iqbal Library Road", "type": "primary", "length": 94.515881293528139 }, "geometry": { "type": "LineString", "coordinates": [ [ 74.836363861918954, 34.131302922361513 ], [ 74.836352051534874, 34.131455295332849 ], [ 74.836309726700378, 34.132153791934194 ] ] } },
{ "type": "Feature", "properties": { "fid": 107, "name": "University Central Road", "type": "primary", "length": 130.99906964416061 }, "geometry": { "type": "LineString", "coordinates": [ [ 74.835919553720046, 34.133121506560855 ], [ 74.836023284645023, 34.133126436428377 ], [ 74.836236250053304, 34.133150399198115 ], [ 74.836400627917584, 34.1331533623406 ], [ 74.837239891403158, 34.133207214139311 ], [ 74.837334832611305, 34.133213171934806 ] ] } },
{ "type": "Feature", "properties": { "fid": 108, "name": "University Central Road", "type": "primary", "length": 22.67257619639085 }, "geometry": { "type": "LineString", "coordinates": [ [ 74.835674155490736, 34.133109843879154 ], [ 74.835919553720046, 34.133121506560855 ] ] } },
{ "type": "Feature", "properties": { "fid": 109, "name": "University Central Road", "type": "primary", "length": 28.251467566715018 }, "geometry": { "type": "LineString", "coordinates": [ [ 74.83536837378378, 34.133095311440478 ], [ 74.835674155490736, 34.133109843879154 ] ] } },
{ "type": "Feature", "properties": { "fid": 110, "name": "University Central Road", "type": "primary", "length": 39.448150070996952 }, "geometry": { "type": "LineString", "coordinates": [ [ 74.834941404099069, 34.133075019478532 ], [ 74.83536837378378, 34.133095311440478 ] ] } },
{ "type": "Feature", "properties": { "fid": 111, "name": "University Central Road", "type": "primary", "length": 61.078574597110133 }, "geometry": { "type": "LineString", "coordinates": [ [ 74.834280211107682, 34.133045201539339 ], [ 74.834663547680037, 34.133061814204055 ], [ 74.834941404099069, 34.133075019478532 ] ] } },
{ "type": "Feature", "properties": { "fid": 112, "name": "University Central Road", "type": "primary", "length": 33.871906995450253 }, "geometry": { "type": "LineString", "coordinates": [ [ 74.833913495867506, 34.133029309193631 ], [ 74.834280211107682, 34.133045201539339 ] ] } },
{ "type": "Feature", "properties": { "fid": 113, "name": "University Central Road", "type": "primary", "length": 5.8750887979215287 }, "geometry": { "type": "LineString", "coordinates": [ [ 74.833849889045368, 34.133026552663509 ], [ 74.833913495867506, 34.133029309193631 ] ] } },
{ "type": "Feature", "properties": { "fid": 114, "name": "University Central Road", "type": "primary", "length": 37.86794264658657 }, "geometry": { "type": "LineString", "coordinates": [ [ 74.833439910696939, 34.133008785423606 ], [ 74.833849889045368, 34.133026552663509 ] ] } },
{ "type": "Feature", "properties": { "fid": 115, "name": "University Central Road", "type": "primary", "length": 17.653611432054081 }, "geometry": { "type": "LineString", "coordinates": [ [ 74.833248783404414, 34.133000502536298 ], [ 74.833439910696939, 34.133008785423606 ] ] } },
{ "type": "Feature", "properties": { "fid": 116, "name": "Urdu block road", "type": "secondary", "length": 37.457095454908455 }, "geometry": { "type": "LineString", "coordinates": [ [ 74.833248783404414, 34.133000502536298 ], [ 74.833261972518613, 34.132663000572528 ] ] } },
{ "type": "Feature", "properties": { "fid": 117, "name": "Urdu block road", "type": "secondary", "length": 22.826654738099492 }, "geometry": { "type": "LineString", "coordinates": [ [ 74.83326455743655, 34.132373351215698 ], [ 74.83326455743655, 34.132332932675538 ], [ 74.8332880935003, 34.132168728508233 ] ] } },
{ "type": "Feature", "properties": { "fid": 118, "name": "Humanities Block Road", "type": "primary", "length": 34.940387764114604 }, "geometry": { "type": "LineString", "coordinates": [ [ 74.834280211107682, 34.133045201539339 ], [ 74.834304917080672, 34.132730880534027 ] ] } },
{ "type": "Feature", "properties": { "fid": 119, "name": "Humanities Block Road", "type": "primary", "length": 32.464625538414523 }, "geometry": { "type": "LineString", "coordinates": [ [ 74.834358250836218, 34.132052343417953 ], [ 74.834361022470134, 34.132017081388 ], [ 74.834380557668069, 34.131760259461821 ] ] } },
{ "type": "Feature", "properties": { "fid": 120, "name": "Humanities Block Road", "type": "primary", "length": 68.174957869706702 }, "geometry": { "type": "LineString", "coordinates": [ [ 74.834380557668069, 34.131760259461821 ], [ 74.834416322777329, 34.131290068973684 ], [ 74.834419575736561, 34.131238908605333 ], [ 74.834439093492051, 34.13119044085937 ], [ 74.834445599410543, 34.131174284937877 ], [ 74.834459719067809, 34.131153247220062 ] ] } },
{ "type": "Feature", "properties": { "fid": 121, "name": "Humanities Block Road", "type": "primary", "length": 59.327636919992173 }, "geometry": { "type": "LineString", "coordinates": [ [ 74.834459719067809, 34.131153247220062 ], [ 74.834461864206773, 34.131150051049843 ], [ 74.834494393799233, 34.131123124499425 ], [ 74.834530176350938, 34.131112353876865 ], [ 74.834601741454364, 34.131104275909031 ], [ 74.834800171968382, 34.131117739188319 ], [ 74.835081004955384, 34.131150025441151 ] ] } },
{ "type": "Feature", "properties": { "fid": 122, "name": "Humanities Block Road", "type": "primary", "length": 40.842418241993037 }, "geometry": { "type": "LineString", "coordinates": [ [ 74.835081004955384, 34.131150025441151 ], [ 74.835385704632742, 34.13118505555255 ], [ 74.835519386413338, 34.13120171340686 ] ] } },
{ "type": "Feature", "properties": { "fid": 123, "name": "Masjid Path 2", "type": "footpath", "length": 36.753663372714009 }, "geometry": { "type": "LineString", "coordinates": [ [ 74.835557977024109, 34.130871932436477 ], [ 74.835519386413338, 34.13120171340686 ] ] } },
{ "type": "Feature", "properties": { "fid": 124, "name": "Masjid Path 2", "type": "footpath", "length": 44.856057086296907 }, "geometry": { "type": "LineString", "coordinates": [ [ 74.835805569497978, 34.129725684577778 ], [ 74.835723458999112, 34.129964380065523 ], [ 74.835707338407332, 34.130000599742033 ], [ 74.835698126640636, 34.130019662723413 ], [ 74.835682006048884, 34.130063507564302 ], [ 74.835672794282175, 34.130101633494419 ], [ 74.835668557051008, 34.130113324940197 ] ] } },
{ "type": "Feature", "properties": { "fid": 125, "name": "CCPC Road", "type": "primary", "length": 63.314537140957746 }, "geometry": { "type": "LineString", "coordinates": [ [ 74.836490403805243, 34.129763974363513 ], [ 74.835805569497978, 34.129725684577778 ] ] } },
{ "type": "Feature", "properties": { "fid": 126, "name": "CCPC Road", "type": "primary", "length": 57.323674185434314 }, "geometry": { "type": "LineString", "coordinates": [ [ 74.835805569497978, 34.129725684577778 ], [ 74.835185534926353, 34.12969101781146 ] ] } },
{ "type": "Feature", "properties": { "fid": 127, "name": "CCPC Road", "type": "primary", "length": 14.504114737934097 }, "geometry": { "type": "LineString", "coordinates": [ [ 74.835185534926353, 34.12969101781146 ], [ 74.835028652967779, 34.129682246380888 ] ] } },
{ "type": "Feature", "properties": { "fid": 128, "name": "CCPC Road", "type": "primary", "length": 21.518752276692556 }, "geometry": { "type": "LineString", "coordinates": [ [ 74.833657701739043, 34.129590027721648 ], [ 74.833425273546524, 34.129573463725933 ] ] } },
{ "type": "Feature", "properties": { "fid": 129, "name": "Prof Quarter Lane 1", "type": "secondary", "length": 21.859479926481836 }, "geometry": { "type": "LineString", "coordinates": [ [ 74.833657701739043, 34.129590027721648 ], [ 74.833688447046072, 34.12939462746246 ] ] } },
{ "type": "Feature", "properties": { "fid": 130, "name": "Prof Quarter Lane 1", "type": "secondary", "length": 29.465035349591918 }, "geometry": { "type": "LineString", "coordinates": [ [ 74.833698300515124, 34.129332004233291 ], [ 74.833739743017489, 34.129068618484865 ] ] } },
{ "type": "Feature", "properties": { "fid": 131, "name": "Examination Block Road", "type": "secondary", "length": 53.499265564753337 }, "geometry": { "type": "LineString", "coordinates": [ [ 74.837504821767638, 34.130130099610497 ], [ 74.83753392628941, 34.130108684749388 ], [ 74.837551827981031, 34.130052374793038 ], [ 74.837566149334322, 34.129996064799194 ], [ 74.837576890349283, 34.129933827393927 ], [ 74.837587631364258, 34.129889372076399 ], [ 74.837594792040917, 34.129847880425601 ], [ 74.837609113394194, 34.129785642911223 ], [ 74.837619854409169, 34.129726369045422 ], [ 74.837623434747485, 34.129696732096924 ], [ 74.837634175762474, 34.129667095138039 ] ] } },
{ "type": "Feature", "properties": { "fid": 132, "name": "Examination Block Road", "type": "secondary", "length": 16.78763777876183 }, "geometry": { "type": "LineString", "coordinates": [ [ 74.837318087526882, 34.130160619837355 ], [ 74.837369230726509, 34.130162030989219 ], [ 74.837430096478016, 34.130156103630895 ], [ 74.837494702998512, 34.130134712017636 ] ] } },
{ "type": "Feature", "properties": { "fid": 133, "name": "Examination Block Road", "type": "secondary", "length": 1.0791323118705058 }, "geometry": { "type": "LineString", "coordinates": [ [ 74.837494702998512, 34.130134712017636 ], [ 74.837501703244499, 34.130132394193467 ], [ 74.837504821767638, 34.130130099610497 ] ] } },
{ "type": "Feature", "properties": { "fid": 134, "name": "Rumi Gate Road", "type": "primary", "length": 76.784668670156449 }, "geometry": { "type": "LineString", "coordinates": [ [ 74.837990513511031, 34.131500962307697 ], [ 74.837166893864079, 34.131400549207719 ] ] } },
{ "type": "Feature", "properties": { "fid": 135, "name": "Rumi Gate Road", "type": "primary", "length": 31.067974409854163 }, "geometry": { "type": "LineString", "coordinates": [ [ 74.838323759917571, 34.131541590654606 ], [ 74.837990513511031, 34.131500962307697 ] ] } },
{ "type": "Feature", "properties": { "fid": 136, "name": "Humanities Block Road", "type": "primary", "length": 45.640755640977204 }, "geometry": { "type": "LineString", "coordinates": [ [ 74.834325978745724, 34.132462924127836 ], [ 74.834358250836218, 34.132052343417953 ] ] } },
{ "type": "Feature", "properties": { "fid": 137, "name": "Humanities Block Road", "type": "primary", "length": 29.786429390108182 }, "geometry": { "type": "LineString", "coordinates": [ [ 74.834304917080672, 34.132730880534027 ], [ 74.834325978745724, 34.132462924127836 ] ] } },
{ "type": "Feature", "properties": { "fid": 138, "name": "University Central Road", "type": "primary", "length": 66.540716687953179 }, "geometry": { "type": "LineString", "coordinates": [ [ 74.837334832611305, 34.133213171934806 ], [ 74.838054171725673, 34.133258312242361 ] ] } },
{ "type": "Feature", "properties": { "fid": 139, "name": "University Central Road", "type": "primary", "length": 47.127546856931168 }, "geometry": { "type": "LineString", "coordinates": [ [ 74.838054171725673, 34.133258312242361 ], [ 74.838140961114377, 34.13326375849104 ], [ 74.838287344280474, 34.13328260659987 ], [ 74.838427221528065, 34.133296069532172 ], [ 74.83847601591674, 34.133312225048115 ], [ 74.838505292549968, 34.133336458316222 ], [ 74.838544731633732, 34.133346130928452 ] ] } },
{ "type": "Feature", "properties": { "fid": 140, "name": "Social Science Block Road", "type": "primary", "length": 23.278319232447583 }, "geometry": { "type": "LineString", "coordinates": [ [ 74.838544731633732, 34.133346130928452 ], [ 74.838550005658234, 34.1335559418606 ] ] } },
{ "type": "Feature", "properties": { "fid": 141, "name": "University Central Road", "type": "primary", "length": 14.260020737526467 }, "geometry": { "type": "LineString", "coordinates": [ [ 74.838544731633732, 34.133346130928452 ], [ 74.838593122449623, 34.133357998993148 ], [ 74.838697217145508, 34.133360691577394 ] ] } },
{ "type": "Feature", "properties": { "fid": 142, "name": "Law Block Road", "type": "primary", "length": 75.398932992814267 }, "geometry": { "type": "LineString", "coordinates": [ [ 74.837211090824567, 34.134423256525508 ], [ 74.837655389995035, 34.134439349844094 ], [ 74.838027772735984, 34.134452327941219 ] ] } },
{ "type": "Feature", "properties": { "fid": 143, "name": "Anthropology Lane", "type": "primary", "length": 38.978160138132708 }, "geometry": { "type": "LineString", "coordinates": [ [ 74.838092379284802, 34.134892142492617 ], [ 74.838514906234352, 34.134886566719324 ] ] } },
{ "type": "Feature", "properties": { "fid": 144, "name": "Anthropology Lane", "type": "primary", "length": 12.304283637249901 }, "geometry": { "type": "LineString", "coordinates": [ [ 74.837958999678435, 34.134893902603892 ], [ 74.838092379284802, 34.134892142492617 ] ] } },
{ "type": "Feature", "properties": { "fid": 145, "name": "Boys Hostel Road", "type": "primary", "length": 85.598106924401762 }, "geometry": { "type": "LineString", "coordinates": [ [ 74.837334832611305, 34.133213171934806 ], [ 74.837276383295489, 34.133607722462536 ], [ 74.837241982510321, 34.133903146004585 ], [ 74.837238248125374, 34.133980422298869 ] ] } },
{ "type": "Feature", "properties": { "fid": 146, "name": "Boys Hostel Road", "type": "primary", "length": 26.702118093269682 }, "geometry": { "type": "LineString", "coordinates": [ [ 74.837203281626998, 34.134584102384352 ], [ 74.837203281626998, 34.134679072799585 ], [ 74.837198104801047, 34.134824761460962 ] ] } },
{ "type": "Feature", "properties": { "fid": 147, "name": "Boys Hostel Road", "type": "primary", "length": 17.863062476729169 }, "geometry": { "type": "LineString", "coordinates": [ [ 74.837211090824567, 34.134423256525508 ], [ 74.837203281626998, 34.134533142157267 ], [ 74.837203281626998, 34.134584102384352 ] ] } },
{ "type": "Feature", "properties": { "fid": 148, "name": "Boys Hostel Road", "type": "primary", "length": 6.0744456452976747 }, "geometry": { "type": "LineString", "coordinates": [ [ 74.837214975783468, 34.134368590068654 ], [ 74.837211090824567, 34.134423256525508 ] ] } },
{ "type": "Feature", "properties": { "fid": 149, "name": "Boys Hostel Road", "type": "primary", "length": 25.329699655969183 }, "geometry": { "type": "LineString", "coordinates": [ [ 74.837198104801047, 34.134824761460962 ], [ 74.837194681430702, 34.134921103553282 ], [ 74.837187308190053, 34.135052927052335 ] ] } },
{ "type": "Feature", "properties": { "fid": 150, "name": "Boys Hostel Road", "type": "primary", "length": 6.8868244890759858 }, "geometry": { "type": "LineString", "coordinates": [ [ 74.837187308190053, 34.135052927052335 ], [ 74.837183839331445, 34.135114945519071 ] ] } },
{ "type": "Feature", "properties": { "fid": 151, "name": "Boys Hostel Road", "type": "primary", "length": 47.850315946402567 }, "geometry": { "type": "LineString", "coordinates": [ [ 74.837183839331445, 34.135114945519071 ], [ 74.83715973737047, 34.135545855749442 ] ] } },
{ "type": "Feature", "properties": { "fid": 152, "name": "Boys Hostel Road", "type": "primary", "length": 67.525357208190073 }, "geometry": { "type": "LineString", "coordinates": [ [ 74.83715973737047, 34.135545855749442 ], [ 74.83715168044921, 34.135689902526224 ], [ 74.837132146572998, 34.136154164710696 ] ] } },
{ "type": "Feature", "properties": { "fid": 153, "name": "Naseem Bagh Road", "type": "primary", "length": 87.36251932246671 }, "geometry": { "type": "LineString", "coordinates": [ [ 74.838093967178153, 34.135587699906573 ], [ 74.838093967178153, 34.135670892350404 ], [ 74.838077668583253, 34.135913721514001 ], [ 74.838061369988353, 34.136250983083713 ], [ 74.838061369988353, 34.136374632776572 ] ] } },
{ "type": "Feature", "properties": { "fid": 154, "name": "Naseem Bagh Road", "type": "primary", "length": 71.910483218945529 }, "geometry": { "type": "LineString", "coordinates": [ [ 74.838061369988353, 34.136374632776572 ], [ 74.838061369988353, 34.136527536566547 ], [ 74.838045071393481, 34.136837815006601 ], [ 74.838038097522059, 34.137022526981262 ] ] } },
{ "type": "Feature", "properties": { "fid": 155, "name": "Boys Hostel Road", "type": "primary", "length": 44.522793428227459 }, "geometry": { "type": "LineString", "coordinates": [ [ 74.837063645337622, 34.137170361908488 ], [ 74.837033310758699, 34.137570946481283 ] ] } },
{ "type": "Feature", "properties": { "fid": 156, "name": "Boys Hostel Road", "type": "primary", "length": 20.876967509336769 }, "geometry": { "type": "LineString", "coordinates": [ [ 74.837033310758699, 34.137570946481283 ], [ 74.83702697760296, 34.137654579238912 ], [ 74.837018951152203, 34.137758775488294 ] ] } },
{ "type": "Feature", "properties": { "fid": 157, "name": "Music & Fine Arts Road", "type": "primary", "length": 41.784333075967027 }, "geometry": { "type": "LineString", "coordinates": [ [ 74.83736018058228, 34.139146544102132 ], [ 74.83781280793913, 34.139162341719349 ] ] } },
{ "type": "Feature", "properties": { "fid": 158, "name": "Music & Fine Arts Road", "type": "primary", "length": 29.279832647021152 }, "geometry": { "type": "LineString", "coordinates": [ [ 74.838437928975523, 34.13918415971753 ], [ 74.838755101891252, 34.1391952296987 ] ] } },
{ "type": "Feature", "properties": { "fid": 159, "name": "Music & Fine Arts Road", "type": "primary", "length": 39.06618234452084 }, "geometry": { "type": "LineString", "coordinates": [ [ 74.836937196825176, 34.139128248936252 ], [ 74.83736018058228, 34.139146544102132 ] ] } },
{ "type": "Feature", "properties": { "fid": 160, "name": "Boys Hostel Road", "type": "primary", "length": 77.27131078510827 }, "geometry": { "type": "LineString", "coordinates": [ [ 74.836937196825176, 34.139128248936252 ], [ 74.836919475149287, 34.139629887493683 ], [ 74.836909733803836, 34.139801764245185 ], [ 74.836897332290803, 34.139820582252277 ], [ 74.836896063664312, 34.13982121225505 ] ] } },
{ "type": "Feature", "properties": { "fid": 161, "name": "Clinical Biochemistry Road", "type": "primary", "length": 64.334520322432525 }, "geometry": { "type": "LineString", "coordinates": [ [ 74.835150447297693, 34.133795143760167 ], [ 74.835154195607885, 34.133804839345153 ], [ 74.835155799933972, 34.133832726245949 ], [ 74.835157404260059, 34.133864596978441 ], [ 74.835157404260059, 34.133912403054666 ], [ 74.835157404260059, 34.133946929648452 ], [ 74.83514938262968, 34.133982784173227 ], [ 74.835141360999287, 34.134011998959942 ], [ 74.835131735042864, 34.134059804952763 ], [ 74.835126922064617, 34.134107610918576 ], [ 74.835114087456006, 34.134152760972569 ], [ 74.835083605260593, 34.134193927177229 ], [ 74.835075583630214, 34.13422048600831 ], [ 74.835065957673777, 34.134244388949142 ], [ 74.835041892782641, 34.134262980120681 ], [ 74.835016223565432, 34.134272275704916 ], [ 74.834993763000398, 34.134272275704916 ], [ 74.834966489457116, 34.134272275704916 ], [ 74.834936007261675, 34.134269619823804 ] ] } },
{ "type": "Feature", "properties": { "fid": 162, "name": "Cafe Lane", "type": "secondary", "length": 10.003368405227469 }, "geometry": { "type": "LineString", "coordinates": [ [ 74.835248993481429, 34.133831646536478 ], [ 74.835216069683, 34.133814614042578 ], [ 74.835150447297693, 34.133795143760167 ] ] } },
{ "type": "Feature", "properties": { "fid": 163, "name": "Cafe Lane", "type": "secondary", "length": 1.6797335703045786 }, "geometry": { "type": "LineString", "coordinates": [ [ 74.835263871119921, 34.133840376270832 ], [ 74.835249892580777, 34.133832111668234 ], [ 74.835248993481429, 34.133831646536478 ] ] } },
{ "type": "Feature", "properties": { "fid": 164, "name": "Clinical Biochemistry Road", "type": "primary", "length": 38.436331961655242 }, "geometry": { "type": "LineString", "coordinates": [ [ 74.834856222696601, 34.133563608320777 ], [ 74.834855985482974, 34.13356496894562 ], [ 74.834864704933452, 34.133575794994037 ], [ 74.834873424383929, 34.133584215252959 ], [ 74.834908302185781, 34.133609476024702 ], [ 74.834950446196387, 34.133633533895541 ], [ 74.835090022564899, 34.133706571145197 ], [ 74.83510285717351, 34.133718522689129 ], [ 74.83511729610818, 34.133734458078415 ], [ 74.835141360999287, 34.133771640641726 ], [ 74.835150447297693, 34.133795143760167 ] ] } },
{ "type": "Feature", "properties": { "fid": 165, "name": "Biochemistry Road", "type": "primary", "length": 12.813456680284391 }, "geometry": { "type": "LineString", "coordinates": [ [ 74.834794979686095, 34.133876962501688 ], [ 74.834790013588858, 34.133900451538139 ], [ 74.834790013588858, 34.133917714839242 ], [ 74.834780387632406, 34.133948257594071 ], [ 74.834773970328072, 34.133990751843328 ] ] } },
{ "type": "Feature", "properties": { "fid": 166, "name": "Media Block Road", "type": "primary", "length": 30.537816331723743 }, "geometry": { "type": "LineString", "coordinates": [ [ 74.833207408868603, 34.133553217791103 ], [ 74.833198031369761, 34.133828409297777 ] ] } },
{ "type": "Feature", "properties": { "fid": 167, "name": "Arts Block Road", "type": "primary", "length": 33.437835412262011 }, "geometry": { "type": "LineString", "coordinates": [ [ 74.833965054207624, 34.132434810239602 ], [ 74.834325978745724, 34.132462924127836 ] ] } },
{ "type": "Feature", "properties": { "fid": 168, "name": "Humanities Block Path", "type": "footpath", "length": 31.481031187608881 }, "geometry": { "type": "LineString", "coordinates": [ [ 74.833965054207624, 34.132434810239602 ], [ 74.833959803569002, 34.132545195771129 ], [ 74.833954820865216, 34.132578190900226 ], [ 74.833949838161402, 34.13261531040505 ], [ 74.833947346809524, 34.132644181119744 ], [ 74.833942364105724, 34.132691611558187 ], [ 74.833947295063695, 34.13271746138598 ] ] } },
{ "type": "Feature", "properties": { "fid": 169, "name": "Science Block Road", "type": "primary", "length": 82.503110225038597 }, "geometry": { "type": "LineString", "coordinates": [ [ 74.833198031369761, 34.133828409297777 ], [ 74.833215216931777, 34.133910914206247 ], [ 74.833228965381423, 34.133947899139088 ], [ 74.833270210730319, 34.133982039062715 ], [ 74.833321767416422, 34.134001954011801 ], [ 74.833455814800317, 34.13402755893943 ], [ 74.833607047746256, 34.13405031886861 ], [ 74.833675789994402, 34.134044628886883 ], [ 74.833772029141812, 34.13402755893943 ], [ 74.833833897165135, 34.134016178972558 ], [ 74.833895765188487, 34.133996264026827 ], [ 74.833923262087751, 34.133976349076399 ], [ 74.833923262087751, 34.133970305046752 ] ] } },
{ "type": "Feature", "properties": { "fid": 170, "name": "Boys Hostel Road", "type": "primary", "length": 43.11283001002095 }, "geometry": { "type": "LineString", "coordinates": [ [ 74.837238248125374, 34.133980422298869 ], [ 74.83722908221587, 34.134170094100263 ], [ 74.837214975783468, 34.134368590068654 ] ] } },
{ "type": "Feature", "properties": { "fid": 171, "name": "Indorr stadium Lane", "type": "primary", "length": 40.907650863759102 }, "geometry": { "type": "LineString", "coordinates": [ [ 74.836690708680635, 34.136118598856783 ], [ 74.837132146572998, 34.136154164710696 ] ] } },
{ "type": "Feature", "properties": { "fid": 172, "name": "Boys Hostel Road", "type": "primary", "length": 21.16697914080094 }, "geometry": { "type": "LineString", "coordinates": [ [ 74.837132146572998, 34.136154164710696 ], [ 74.837124122598937, 34.136344870727434 ] ] } },
{ "type": "Feature", "properties": { "fid": 173, "name": "IT Path", "type": "footpath", "length": 80.81425222847848 }, "geometry": { "type": "LineString", "coordinates": [ [ 74.836393259086648, 34.130923651563997 ], [ 74.837171037156793, 34.130961072907127 ], [ 74.837267644027762, 34.130953590713538 ] ] } },
{ "type": "Feature", "properties": { "fid": 174, "name": "Administration Block Road", "type": "secondary", "length": 89.375667737248989 }, "geometry": { "type": "LineString", "coordinates": [ [ 74.837267644027762, 34.130953590713538 ], [ 74.837253259070124, 34.130952508235922 ], [ 74.837318087526882, 34.130160619837355 ] ] } },
{ "type": "Feature", "properties": { "fid": 175, "name": "IT Lane", "type": "secondary", "length": 50.442263271774948 }, "geometry": { "type": "LineString", "coordinates": [ [ 74.837267644027747, 34.130953590713538 ], [ 74.837166893864079, 34.131400549207719 ] ] } },
{ "type": "Feature", "properties": { "fid": 176, "name": "Rumi Gate Road", "type": "primary", "length": 59.648931975507381 }, "geometry": { "type": "LineString", "coordinates": [ [ 74.837166893864079, 34.131400549207719 ], [ 74.836527078877111, 34.131322544990006 ] ] } },
{ "type": "Feature", "properties": { "fid": 177, "name": "Residential Building Lane", "type": "secondary", "length": 23.419409730180035 }, "geometry": { "type": "LineString", "coordinates": [ [ 74.834026220192371, 34.128889673274244 ], [ 74.834277585919125, 34.12890902907705 ], [ 74.834277373153, 34.128910214825552 ] ] } },
{ "type": "Feature", "properties": { "fid": 178, "name": "Residential Building Lane 2", "type": "secondary", "length": 38.753011579011073 }, "geometry": { "type": "LineString", "coordinates": [ [ 74.834067140194392, 34.128737730068295 ], [ 74.834298630491588, 34.12875515032232 ], [ 74.834277373153, 34.128910214825552 ] ] } },
{ "type": "Feature", "properties": { "fid": 179, "name": "Childrens Park Road", "type": "secondary", "length": 46.843832932781098 }, "geometry": { "type": "LineString", "coordinates": [ [ 74.833750615813173, 34.128999516976357 ], [ 74.833817563862155, 34.128999659193987 ], [ 74.834257804848079, 34.129019269254911 ] ] } },
{ "type": "Feature", "properties": { "fid": 180, "name": "Childrens Park Road", "type": "secondary", "length": 0.51500268668735005 }, "geometry": { "type": "LineString", "coordinates": [ [ 74.834257804848079, 34.129019269254911 ], [ 74.834263379851038, 34.129019517587416 ] ] } },
{ "type": "Feature", "properties": { "fid": 181, "name": "Residential Building Lane", "type": "secondary", "length": 12.230766213883539 }, "geometry": { "type": "LineString", "coordinates": [ [ 74.834277373153, 34.128910214825552 ], [ 74.834257804848079, 34.129019269254911 ] ] } },
{ "type": "Feature", "properties": { "fid": 182, "name": "Quarter 1 Path", "type": "footpath", "length": 10.483544238606049 }, "geometry": { "type": "LineString", "coordinates": [ [ 74.83357640554425, 34.129378785108798 ], [ 74.833688447046072, 34.12939462746246 ] ] } },
{ "type": "Feature", "properties": { "fid": 183, "name": "Quarter 2 Path", "type": "footpath", "length": 10.742088949899717 }, "geometry": { "type": "LineString", "coordinates": [ [ 74.833625206838562, 34.129051124932538 ], [ 74.833739743017489, 34.129068618484865 ] ] } },
{ "type": "Feature", "properties": { "fid": 184, "name": "Quarter 3 Path", "type": "footpath", "length": 10.539668125863837 }, "geometry": { "type": "LineString", "coordinates": [ [ 74.833679607713194, 34.128720566949845 ], [ 74.833791449525918, 34.128740000359841 ] ] } },
{ "type": "Feature", "properties": { "fid": 185, "name": "Quarter 4 Path", "type": "footpath", "length": 10.517563545956341 }, "geometry": { "type": "LineString", "coordinates": [ [ 74.8337311273837, 34.128403760726869 ], [ 74.833842182714747, 34.128425231607878 ] ] } },
{ "type": "Feature", "properties": { "fid": 186, "name": "Quarter 5 path", "type": "footpath", "length": 11.379284386220096 }, "geometry": { "type": "LineString", "coordinates": [ [ 74.833775962122417, 34.128074206270178 ], [ 74.8338940208709, 34.128103951476838 ] ] } },
{ "type": "Feature", "properties": { "fid": 187, "name": "Prof Quarter Lane 1", "type": "secondary", "length": 35.957283564285056 }, "geometry": { "type": "LineString", "coordinates": [ [ 74.833842182714747, 34.128425231607878 ], [ 74.8338940208709, 34.128103951476838 ] ] } },
{ "type": "Feature", "properties": { "fid": 188, "name": "Prof Quarter Lane 1", "type": "secondary", "length": 29.032194872867084 }, "geometry": { "type": "LineString", "coordinates": [ [ 74.833750615813173, 34.128999516976357 ], [ 74.833791449525918, 34.128740000359841 ] ] } },
{ "type": "Feature", "properties": { "fid": 189, "name": "Prof Quarter Lane 1", "type": "secondary", "length": 7.730404610701771 }, "geometry": { "type": "LineString", "coordinates": [ [ 74.833739743017489, 34.129068618484865 ], [ 74.833750615813173, 34.128999516976357 ] ] } },
{ "type": "Feature", "properties": { "fid": 190, "name": "Prof Quarter Lane 1", "type": "secondary", "length": 7.0056776455472614 }, "geometry": { "type": "LineString", "coordinates": [ [ 74.833688447046072, 34.12939462746246 ], [ 74.833698300515124, 34.129332004233291 ] ] } },
{ "type": "Feature", "properties": { "fid": 191, "name": "Chai Lane", "type": "footpath", "length": 19.629661920939729 }, "geometry": { "type": "LineString", "coordinates": [ [ 74.836896063664312, 34.13982121225505 ], [ 74.836906925291515, 34.139837115524287 ], [ 74.837096436037356, 34.139855751453474 ] ] } },
{ "type": "Feature", "properties": { "fid": 192, "name": "Boys Hostel Road", "type": "primary", "length": 35.824316604045542 }, "geometry": { "type": "LineString", "coordinates": [ [ 74.836896063664312, 34.13982121225505 ], [ 74.83686632850825, 34.139835978800434 ], [ 74.836791919430112, 34.139839400255184 ], [ 74.836721644189652, 34.13983768952783 ], [ 74.836634833598453, 34.139834268073002 ], [ 74.836585227546365, 34.139832557345521 ], [ 74.83654182225078, 34.139830846618032 ], [ 74.836512885387052, 34.139830846618032 ] ] } },
{ "type": "Feature", "properties": { "fid": 193, "name": "Boys Hostel Path", "type": "footpath", "length": 67.072674125288245 }, "geometry": { "type": "LineString", "coordinates": [ [ 74.83634992837807, 34.139826909318316 ], [ 74.836313112219855, 34.140184754528249 ], [ 74.836018900550613, 34.140163967149235 ] ] } },
{ "type": "Feature", "properties": { "fid": 194, "name": "Masjid Lane", "type": "secondary", "length": 15.036380016456963 }, "geometry": { "type": "LineString", "coordinates": [ [ 74.836512885387052, 34.139830846618032 ], [ 74.83634992837807, 34.139826909318316 ] ] } },
{ "type": "Feature", "properties": { "fid": 195, "name": "Boys Hostel Road", "type": "primary", "length": 70.506388040745392 }, "geometry": { "type": "LineString", "coordinates": [ [ 74.836962380912865, 34.138493148244876 ], [ 74.836945275738188, 34.138715200943004 ], [ 74.836940975640047, 34.13902128392602 ], [ 74.836937196825176, 34.139128248936252 ] ] } }
]
}
